{
"type": "FeatureCollection",
                                                                                                                                  
"features": [
{ "type": "Feature", "properties": { "pm_icon": "AR_1b", "hzs": "1b" }, "geometry": { "type": "MultiPolygon", "coordinates": [ [ [ [ -69.833, -33.766 ], [ -69.866, -33.766 ], [ -69.866, -33.733 ], [ -69.833, -33.733 ], [ -69.833, -33.766 ] ] ], [ [ [ -69.799, -33.533 ], [ -69.833, -33.533 ], [ -69.846, -33.520 ], [ -69.845, -33.520 ], [ -69.844, -33.519 ], [ -69.838, -33.518 ], [ -69.837, -33.517 ], [ -69.835, -33.515 ], [ -69.831, -33.511 ], [ -69.830, -33.504 ], [ -69.830, -33.499 ], [ -69.799, -33.499 ], [ -69.799, -33.533 ] ] ], [ [ [ -69.633, -33.499 ], [ -69.599, -33.499 ], [ -69.599, -33.533 ], [ -69.599, -33.566 ], [ -69.633, -33.566 ], [ -69.633, -33.533 ], [ -69.633, -33.499 ] ] ], [ [ [ -69.633, -33.499 ], [ -69.666, -33.499 ], [ -69.699, -33.499 ], [ -69.699, -33.466 ], [ -69.666, -33.466 ], [ -69.633, -33.466 ], [ -69.633, -33.499 ] ] ], [ [ [ -69.733, -33.399 ], [ -69.766, -33.399 ], [ -69.783, -33.383 ], [ -69.778, -33.377 ], [ -69.772, -33.367 ], [ -69.771, -33.366 ], [ -69.733, -33.366 ], [ -69.733, -33.399 ] ] ], [ [ [ -69.899, -33.233 ], [ -69.899, -33.275 ], [ -69.902, -33.274 ], [ -69.909, -33.268 ], [ -69.916, -33.265 ], [ -69.925, -33.267 ], [ -69.929, -33.272 ], [ -69.933, -33.274 ], [ -69.933, -33.233 ], [ -69.899, -33.233 ] ] ], [ [ [ -70.033, -33.166 ], [ -70.060, -33.166 ], [ -70.060, -33.165 ], [ -70.061, -33.160 ], [ -70.057, -33.150 ], [ -70.053, -33.144 ], [ -70.049, -33.138 ], [ -70.052, -33.134 ], [ -70.053, -33.133 ], [ -70.033, -33.133 ], [ -70.033, -33.166 ] ] ], [ [ [ -69.533, -33.033 ], [ -69.533, -33.066 ], [ -69.499, -33.066 ], [ -69.499, -33.099 ], [ -69.533, -33.099 ], [ -69.566, -33.099 ], [ -69.566, -33.066 ], [ -69.566, -33.033 ], [ -69.533, -33.033 ] ] ], [ [ [ -69.999, -32.599 ], [ -70.033, -32.599 ], [ -70.033, -32.566 ], [ -69.999, -32.566 ], [ -69.999, -32.599 ] ] ], [ [ [ -69.666, -32.333 ], [ -69.699, -32.333 ], [ -69.699, -32.299 ], [ -69.666, -32.299 ], [ -69.666, -32.333 ] ] ], [ [ [ -70.066, -32.099 ], [ -70.066, -32.133 ], [ -70.099, -32.133 ], [ -70.099, -32.099 ], [ -70.066, -32.099 ] ] ], [ [ [ -69.933, -32.133 ], [ -69.966, -32.133 ], [ -69.966, -32.099 ], [ -69.933, -32.099 ], [ -69.933, -32.133 ] ] ], [ [ [ -70.066, -32.099 ], [ -70.066, -32.066 ], [ -70.033, -32.066 ], [ -70.033, -32.099 ], [ -70.066, -32.099 ] ] ], [ [ [ -70.066, -32.066 ], [ -70.099, -32.066 ], [ -70.099, -32.033 ], [ -70.066, -32.033 ], [ -70.066, -32.066 ] ] ], [ [ [ -70.099, -32.033 ], [ -70.133, -32.033 ], [ -70.133, -31.999 ], [ -70.099, -31.999 ], [ -70.099, -32.033 ] ] ], [ [ [ -69.866, -31.633 ], [ -69.899, -31.633 ], [ -69.899, -31.599 ], [ -69.866, -31.599 ], [ -69.866, -31.633 ] ] ], [ [ [ -69.966, -31.533 ], [ -69.999, -31.533 ], [ -69.999, -31.499 ], [ -69.966, -31.499 ], [ -69.966, -31.533 ] ] ], [ [ [ -69.999, -31.399 ], [ -69.999, -31.433 ], [ -70.033, -31.433 ], [ -70.033, -31.466 ], [ -70.066, -31.466 ], [ -70.066, -31.433 ], [ -70.066, -31.399 ], [ -70.033, -31.399 ], [ -69.999, -31.399 ] ] ], [ [ [ -69.999, -31.399 ], [ -69.999, -31.366 ], [ -69.966, -31.366 ], [ -69.966, -31.399 ], [ -69.999, -31.399 ] ] ], [ [ [ -70.099, -31.333 ], [ -70.133, -31.333 ], [ -70.133, -31.299 ], [ -70.099, -31.299 ], [ -70.099, -31.333 ] ] ], [ [ [ -69.766, -30.533 ], [ -69.733, -30.533 ], [ -69.699, -30.533 ], [ -69.666, -30.533 ], [ -69.666, -30.566 ], [ -69.699, -30.566 ], [ -69.733, -30.566 ], [ -69.766, -30.566 ], [ -69.766, -30.533 ] ] ], [ [ [ -69.766, -30.533 ], [ -69.799, -30.533 ], [ -69.799, -30.499 ], [ -69.799, -30.466 ], [ -69.766, -30.466 ], [ -69.733, -30.466 ], [ -69.733, -30.499 ], [ -69.766, -30.499 ], [ -69.766, -30.533 ] ] ], [ [ [ -69.799, -30.466 ], [ -69.833, -30.466 ], [ -69.833, -30.433 ], [ -69.799, -30.433 ], [ -69.799, -30.466 ] ] ], [ [ [ -69.733, -30.466 ], [ -69.733, -30.433 ], [ -69.733, -30.399 ], [ -69.699, -30.399 ], [ -69.699, -30.433 ], [ -69.699, -30.466 ], [ -69.733, -30.466 ] ] ], [ [ [ -69.733, -30.399 ], [ -69.766, -30.399 ], [ -69.766, -30.366 ], [ -69.733, -30.366 ], [ -69.733, -30.399 ] ] ], [ [ [ -69.833, -30.366 ], [ -69.866, -30.366 ], [ -69.866, -30.333 ], [ -69.833, -30.333 ], [ -69.833, -30.299 ], [ -69.799, -30.299 ], [ -69.799, -30.333 ], [ -69.799, -30.366 ], [ -69.833, -30.366 ] ] ], [ [ [ -69.866, -30.266 ], [ -69.882, -30.266 ], [ -69.881, -30.262 ], [ -69.878, -30.257 ], [ -69.882, -30.251 ], [ -69.887, -30.245 ], [ -69.888, -30.240 ], [ -69.886, -30.235 ], [ -69.885, -30.230 ], [ -69.886, -30.225 ], [ -69.885, -30.219 ], [ -69.880, -30.215 ], [ -69.874, -30.213 ], [ -69.87, -30.210 ], [ -69.866, -30.210 ], [ -69.866, -30.266 ] ] ], [ [ [ -69.733, -30.233 ], [ -69.733, -30.266 ], [ -69.766, -30.266 ], [ -69.766, -30.233 ], [ -69.799, -30.233 ], [ -69.799, -30.199 ], [ -69.766, -30.199 ], [ -69.733, -30.199 ], [ -69.733, -30.233 ] ] ], [ [ [ -69.666, -30.033 ], [ -69.699, -30.033 ], [ -69.699, -29.999 ], [ -69.666, -29.999 ], [ -69.666, -30.033 ] ] ], [ [ [ -69.866, -29.966 ], [ -69.905, -29.966 ], [ -69.904, -29.965 ], [ -69.901, -29.959 ], [ -69.901, -29.952 ], [ -69.898, -29.945 ], [ -69.900, -29.943 ], [ -69.907, -29.939 ], [ -69.906, -29.937 ], [ -69.905, -29.933 ], [ -69.866, -29.933 ], [ -69.866, -29.966 ] ] ], [ [ [ -69.599, -29.966 ], [ -69.633, -29.966 ], [ -69.633, -29.933 ], [ -69.599, -29.933 ], [ -69.599, -29.966 ] ] ], [ [ [ -69.433, -29.699 ], [ -69.433, -29.733 ], [ -69.466, -29.733 ], [ -69.466, -29.766 ], [ -69.499, -29.766 ], [ -69.499, -29.733 ], [ -69.499, -29.699 ], [ -69.466, -29.699 ], [ -69.433, -29.699 ] ] ], [ [ [ -69.433, -29.699 ], [ -69.433, -29.666 ], [ -69.399, -29.666 ], [ -69.399, -29.699 ], [ -69.433, -29.699 ] ] ], [ [ [ -69.466, -29.599 ], [ -69.499, -29.599 ], [ -69.499, -29.566 ], [ -69.466, -29.566 ], [ -69.466, -29.599 ] ] ], [ [ [ -69.466, -29.533 ], [ -69.499, -29.533 ], [ -69.499, -29.499 ], [ -69.466, -29.499 ], [ -69.466, -29.533 ] ] ], [ [ [ -69.466, -29.266 ], [ -69.499, -29.266 ], [ -69.499, -29.233 ], [ -69.466, -29.233 ], [ -69.466, -29.266 ] ] ], [ [ [ -67.833, -29.133 ], [ -67.866, -29.133 ], [ -67.866, -29.099 ], [ -67.866, -29.066 ], [ -67.866, -29.033 ], [ -67.833, -29.033 ], [ -67.833, -29.066 ], [ -67.833, -29.099 ], [ -67.833, -29.133 ] ] ], [ [ [ -67.833, -28.999 ], [ -67.866, -28.999 ], [ -67.866, -28.966 ], [ -67.866, -28.933 ], [ -67.833, -28.933 ], [ -67.833, -28.966 ], [ -67.833, -28.999 ] ] ], [ [ [ -69.633, -28.466 ], [ -69.672, -28.466 ], [ -69.673, -28.462 ], [ -69.672, -28.458 ], [ -69.667, -28.453 ], [ -69.665, -28.451 ], [ -69.662, -28.448 ], [ -69.659, -28.446 ], [ -69.656, -28.444 ], [ -69.648, -28.444 ], [ -69.642, -28.443 ], [ -69.637, -28.437 ], [ -69.633, -28.431 ], [ -69.633, -28.433 ], [ -69.633, -28.466 ] ] ], [ [ [ -69.633, -28.399 ], [ -69.633, -28.430 ], [ -69.636, -28.428 ], [ -69.643, -28.424 ], [ -69.648, -28.417 ], [ -69.655, -28.414 ], [ -69.650, -28.408 ], [ -69.650, -28.403 ], [ -69.649, -28.397 ], [ -69.642, -28.393 ], [ -69.637, -28.389 ], [ -69.633, -28.383 ], [ -69.630, -28.379 ], [ -69.625, -28.377 ], [ -69.624, -28.377 ], [ -69.620, -28.374 ], [ -69.599, -28.377 ], [ -69.599, -28.399 ], [ -69.633, -28.399 ] ] ], [ [ [ -68.999, -28.333 ], [ -69.033, -28.333 ], [ -69.033, -28.299 ], [ -68.999, -28.299 ], [ -68.999, -28.333 ] ] ], [ [ [ -68.999, -28.099 ], [ -68.966, -28.099 ], [ -68.966, -28.133 ], [ -68.999, -28.133 ], [ -68.999, -28.099 ] ] ], [ [ [ -68.999, -28.099 ], [ -69.033, -28.099 ], [ -69.033, -28.066 ], [ -68.999, -28.066 ], [ -68.999, -28.099 ] ] ], [ [ [ -68.799, -28.066 ], [ -68.766, -28.066 ], [ -68.766, -28.099 ], [ -68.799, -28.099 ], [ -68.799, -28.066 ] ] ], [ [ [ -68.699, -28.033 ], [ -68.699, -28.066 ], [ -68.733, -28.066 ], [ -68.733, -28.033 ], [ -68.699, -28.033 ] ] ], [ [ [ -68.933, -27.999 ], [ -68.933, -28.033 ], [ -68.899, -28.033 ], [ -68.899, -28.066 ], [ -68.933, -28.066 ], [ -68.966, -28.066 ], [ -68.966, -28.033 ], [ -68.966, -27.999 ], [ -68.966, -27.966 ], [ -68.933, -27.966 ], [ -68.933, -27.999 ] ] ], [ [ [ -68.699, -28.033 ], [ -68.699, -27.999 ], [ -68.699, -27.966 ], [ -68.699, -27.933 ], [ -68.666, -27.933 ], [ -68.666, -27.966 ], [ -68.666, -27.999 ], [ -68.633, -27.999 ], [ -68.633, -28.033 ], [ -68.666, -28.033 ], [ -68.699, -28.033 ] ] ], [ [ [ -68.799, -28.066 ], [ -68.833, -28.066 ], [ -68.833, -28.033 ], [ -68.866, -28.033 ], [ -68.866, -27.999 ], [ -68.899, -27.999 ], [ -68.899, -27.966 ], [ -68.866, -27.966 ], [ -68.866, -27.933 ], [ -68.866, -27.899 ], [ -68.833, -27.899 ], [ -68.833, -27.866 ], [ -68.799, -27.866 ], [ -68.799, -27.899 ], [ -68.799, -27.933 ], [ -68.799, -27.966 ], [ -68.766, -27.966 ], [ -68.766, -27.999 ], [ -68.799, -27.999 ], [ -68.799, -28.033 ], [ -68.799, -28.066 ] ] ], [ [ [ -68.933, -27.833 ], [ -68.933, -27.866 ], [ -68.933, -27.899 ], [ -68.966, -27.899 ], [ -68.966, -27.866 ], [ -68.966, -27.833 ], [ -68.933, -27.833 ] ] ], [ [ [ -69.066, -27.766 ], [ -69.066, -27.799 ], [ -69.096, -27.799 ], [ -69.095, -27.795 ], [ -69.096, -27.792 ], [ -69.094, -27.791 ], [ -69.090, -27.785 ], [ -69.091, -27.784 ], [ -69.093, -27.785 ], [ -69.094, -27.784 ], [ -69.094, -27.781 ], [ -69.095, -27.778 ], [ -69.094, -27.775 ], [ -69.095, -27.769 ], [ -69.092, -27.767 ], [ -69.092, -27.766 ], [ -69.066, -27.766 ] ] ], [ [ [ -68.799, -27.866 ], [ -68.799, -27.833 ], [ -68.833, -27.833 ], [ -68.833, -27.866 ], [ -68.866, -27.866 ], [ -68.899, -27.866 ], [ -68.899, -27.833 ], [ -68.933, -27.833 ], [ -68.933, -27.799 ], [ -68.933, -27.766 ], [ -68.933, -27.733 ], [ -68.899, -27.733 ], [ -68.899, -27.699 ], [ -68.866, -27.699 ], [ -68.866, -27.733 ], [ -68.866, -27.766 ], [ -68.866, -27.799 ], [ -68.833, -27.799 ], [ -68.799, -27.799 ], [ -68.766, -27.799 ], [ -68.766, -27.833 ], [ -68.733, -27.833 ], [ -68.699, -27.833 ], [ -68.666, -27.833 ], [ -68.666, -27.799 ], [ -68.633, -27.799 ], [ -68.633, -27.766 ], [ -68.599, -27.766 ], [ -68.599, -27.799 ], [ -68.599, -27.833 ], [ -68.633, -27.833 ], [ -68.633, -27.866 ], [ -68.633, -27.899 ], [ -68.666, -27.899 ], [ -68.666, -27.866 ], [ -68.699, -27.866 ], [ -68.699, -27.899 ], [ -68.733, -27.899 ], [ -68.733, -27.866 ], [ -68.766, -27.866 ], [ -68.799, -27.866 ] ] ], [ [ [ -68.766, -27.733 ], [ -68.799, -27.733 ], [ -68.799, -27.699 ], [ -68.766, -27.699 ], [ -68.766, -27.733 ] ] ], [ [ [ -68.533, -27.733 ], [ -68.566, -27.733 ], [ -68.566, -27.699 ], [ -68.533, -27.699 ], [ -68.533, -27.733 ] ] ], [ [ [ -68.866, -27.699 ], [ -68.866, -27.666 ], [ -68.833, -27.666 ], [ -68.833, -27.699 ], [ -68.866, -27.699 ] ] ], [ [ [ -68.266, -27.599 ], [ -68.299, -27.599 ], [ -68.299, -27.566 ], [ -68.299, -27.533 ], [ -68.266, -27.533 ], [ -68.266, -27.566 ], [ -68.266, -27.599 ] ] ], [ [ [ -68.933, -27.566 ], [ -68.966, -27.566 ], [ -68.975, -27.558 ], [ -68.974, -27.557 ], [ -68.973, -27.555 ], [ -68.971, -27.551 ], [ -68.972, -27.546 ], [ -68.972, -27.542 ], [ -68.971, -27.536 ], [ -68.968, -27.532 ], [ -68.961, -27.529 ], [ -68.953, -27.527 ], [ -68.949, -27.527 ], [ -68.947, -27.523 ], [ -68.946, -27.520 ], [ -68.933, -27.533 ], [ -68.933, -27.566 ] ] ], [ [ [ -68.866, -27.399 ], [ -68.899, -27.399 ], [ -68.905, -27.394 ], [ -68.903, -27.390 ], [ -68.898, -27.381 ], [ -68.892, -27.374 ], [ -68.889, -27.371 ], [ -68.891, -27.367 ], [ -68.891, -27.366 ], [ -68.866, -27.366 ], [ -68.866, -27.399 ] ] ], [ [ [ -68.466, -27.499 ], [ -68.499, -27.499 ], [ -68.499, -27.466 ], [ -68.499, -27.433 ], [ -68.466, -27.433 ], [ -68.466, -27.399 ], [ -68.466, -27.366 ], [ -68.433, -27.366 ], [ -68.433, -27.399 ], [ -68.433, -27.433 ], [ -68.433, -27.466 ], [ -68.433, -27.499 ], [ -68.466, -27.499 ] ] ], [ [ [ -68.499, -27.333 ], [ -68.499, -27.366 ], [ -68.533, -27.366 ], [ -68.566, -27.366 ], [ -68.566, -27.333 ], [ -68.533, -27.333 ], [ -68.499, -27.333 ] ] ], [ [ [ -68.499, -27.333 ], [ -68.499, -27.299 ], [ -68.466, -27.299 ], [ -68.466, -27.333 ], [ -68.499, -27.333 ] ] ], [ [ [ -66.166, -27.333 ], [ -66.199, -27.333 ], [ -66.199, -27.299 ], [ -66.166, -27.299 ], [ -66.166, -27.333 ] ] ], [ [ [ -68.799, -27.266 ], [ -68.799, -27.299 ], [ -68.766, -27.299 ], [ -68.766, -27.333 ], [ -68.799, -27.333 ], [ -68.833, -27.333 ], [ -68.833, -27.306 ], [ -68.832, -27.305 ], [ -68.824, -27.302 ], [ -68.808, -27.300 ], [ -68.811, -27.297 ], [ -68.815, -27.295 ], [ -68.818, -27.293 ], [ -68.823, -27.293 ], [ -68.827, -27.291 ], [ -68.829, -27.287 ], [ -68.838, -27.281 ], [ -68.843, -27.276 ], [ -68.833, -27.266 ], [ -68.799, -27.266 ] ] ], [ [ [ -68.599, -27.266 ], [ -68.566, -27.266 ], [ -68.566, -27.299 ], [ -68.599, -27.299 ], [ -68.599, -27.266 ] ] ], [ [ [ -68.599, -27.266 ], [ -68.633, -27.266 ], [ -68.633, -27.233 ], [ -68.599, -27.233 ], [ -68.599, -27.266 ] ] ], [ [ [ -68.466, -27.233 ], [ -68.466, -27.266 ], [ -68.499, -27.266 ], [ -68.499, -27.233 ], [ -68.466, -27.233 ] ] ], [ [ [ -68.466, -27.233 ], [ -68.466, -27.199 ], [ -68.433, -27.199 ], [ -68.433, -27.233 ], [ -68.466, -27.233 ] ] ], [ [ [ -68.766, -27.199 ], [ -68.799, -27.199 ], [ -68.799, -27.166 ], [ -68.799, -27.133 ], [ -68.766, -27.133 ], [ -68.733, -27.133 ], [ -68.733, -27.166 ], [ -68.766, -27.166 ], [ -68.766, -27.199 ] ] ], [ [ [ -68.691, -27.103 ], [ -68.682, -27.105 ], [ -68.676, -27.105 ], [ -68.668, -27.103 ], [ -68.665, -27.108 ], [ -68.665, -27.114 ], [ -68.663, -27.121 ], [ -68.657, -27.123 ], [ -68.655, -27.127 ], [ -68.655, -27.129 ], [ -68.655, -27.136 ], [ -68.650, -27.139 ], [ -68.646, -27.141 ], [ -68.640, -27.143 ], [ -68.638, -27.148 ], [ -68.637, -27.150 ], [ -68.634, -27.157 ], [ -68.633, -27.159 ], [ -68.628, -27.162 ], [ -68.633, -27.166 ], [ -68.666, -27.166 ], [ -68.666, -27.133 ], [ -68.699, -27.133 ], [ -68.699, -27.100 ], [ -68.697, -27.101 ], [ -68.691, -27.103 ] ] ], [ [ [ -68.433, -27.199 ], [ -68.433, -27.166 ], [ -68.433, -27.133 ], [ -68.433, -27.099 ], [ -68.399, -27.099 ], [ -68.399, -27.133 ], [ -68.399, -27.166 ], [ -68.399, -27.199 ], [ -68.433, -27.199 ] ] ], [ [ [ -68.399, -27.099 ], [ -68.399, -27.063 ], [ -68.399, -27.063 ], [ -68.396, -27.06 ], [ -68.392, -27.058 ], [ -68.387, -27.056 ], [ -68.383, -27.053 ], [ -68.380, -27.047 ], [ -68.373, -27.046 ], [ -68.369, -27.045 ], [ -68.364, -27.043 ], [ -68.360, -27.040 ], [ -68.353, -27.038 ], [ -68.347, -27.034 ], [ -68.340, -27.034 ], [ -68.333, -27.034 ], [ -68.333, -27.066 ], [ -68.366, -27.066 ], [ -68.366, -27.099 ], [ -68.399, -27.099 ] ] ], [ [ [ -68.233, -27.066 ], [ -68.266, -27.066 ], [ -68.266, -27.033 ], [ -68.233, -27.033 ], [ -68.233, -27.066 ] ] ], [ [ [ -68.266, -26.799 ], [ -68.266, -26.833 ], [ -68.299, -26.833 ], [ -68.316, -26.849 ], [ -68.325, -26.835 ], [ -68.342, -26.818 ], [ -68.344, -26.817 ], [ -68.345, -26.816 ], [ -68.347, -26.816 ], [ -68.348, -26.815 ], [ -68.349, -26.814 ], [ -68.352, -26.813 ], [ -68.353, -26.813 ], [ -68.354, -26.812 ], [ -68.355, -26.812 ], [ -68.356, -26.811 ], [ -68.357, -26.811 ], [ -68.358, -26.811 ], [ -68.359, -26.810 ], [ -68.361, -26.810 ], [ -68.371, -26.808 ], [ -68.370, -26.802 ], [ -68.374, -26.798 ], [ -68.378, -26.794 ], [ -68.383, -26.783 ], [ -68.366, -26.766 ], [ -68.333, -26.766 ], [ -68.333, -26.799 ], [ -68.299, -26.799 ], [ -68.299, -26.766 ], [ -68.266, -26.766 ], [ -68.266, -26.799 ] ] ], [ [ [ -67.999, -26.799 ], [ -68.033, -26.799 ], [ -68.033, -26.766 ], [ -68.033, -26.733 ], [ -67.999, -26.733 ], [ -67.999, -26.766 ], [ -67.999, -26.799 ] ] ], [ [ [ -68.066, -26.799 ], [ -68.099, -26.799 ], [ -68.099, -26.766 ], [ -68.099, -26.733 ], [ -68.099, -26.699 ], [ -68.066, -26.699 ], [ -68.066, -26.733 ], [ -68.066, -26.766 ], [ -68.066, -26.799 ] ] ], [ [ [ -68.333, -26.666 ], [ -68.333, -26.633 ], [ -68.299, -26.633 ], [ -68.299, -26.666 ], [ -68.333, -26.666 ] ] ], [ [ [ -68.333, -26.666 ], [ -68.333, -26.699 ], [ -68.366, -26.699 ], [ -68.399, -26.699 ], [ -68.399, -26.666 ], [ -68.399, -26.633 ], [ -68.399, -26.599 ], [ -68.366, -26.599 ], [ -68.366, -26.633 ], [ -68.366, -26.666 ], [ -68.333, -26.666 ] ] ], [ [ [ -67.066, -26.633 ], [ -67.099, -26.633 ], [ -67.099, -26.599 ], [ -67.099, -26.566 ], [ -67.066, -26.566 ], [ -67.033, -26.566 ], [ -67.033, -26.599 ], [ -67.066, -26.599 ], [ -67.066, -26.633 ] ] ], [ [ [ -67.066, -26.499 ], [ -67.066, -26.533 ], [ -67.099, -26.533 ], [ -67.099, -26.499 ], [ -67.066, -26.499 ] ] ], [ [ [ -68.499, -26.499 ], [ -68.533, -26.499 ], [ -68.533, -26.466 ], [ -68.499, -26.466 ], [ -68.499, -26.499 ] ] ], [ [ [ -67.066, -26.499 ], [ -67.066, -26.466 ], [ -67.066, -26.433 ], [ -67.066, -26.399 ], [ -67.033, -26.399 ], [ -66.999, -26.399 ], [ -66.999, -26.433 ], [ -67.033, -26.433 ], [ -67.033, -26.466 ], [ -67.033, -26.499 ], [ -67.066, -26.499 ] ] ], [ [ [ -66.999, -26.366 ], [ -67.033, -26.366 ], [ -67.033, -26.333 ], [ -66.999, -26.333 ], [ -66.999, -26.366 ] ] ], [ [ [ -68.299, -26.233 ], [ -68.333, -26.233 ], [ -68.333, -26.199 ], [ -68.299, -26.199 ], [ -68.266, -26.199 ], [ -68.266, -26.233 ], [ -68.299, -26.233 ] ] ], [ [ [ -66.966, -25.933 ], [ -66.966, -25.966 ], [ -66.999, -25.966 ], [ -66.999, -25.933 ], [ -66.966, -25.933 ] ] ], [ [ [ -66.966, -25.933 ], [ -66.966, -25.899 ], [ -66.933, -25.899 ], [ -66.899, -25.899 ], [ -66.899, -25.933 ], [ -66.933, -25.933 ], [ -66.966, -25.933 ] ] ], [ [ [ -67.066, -25.899 ], [ -67.099, -25.899 ], [ -67.099, -25.866 ], [ -67.066, -25.866 ], [ -67.066, -25.899 ] ] ], [ [ [ -67.366, -25.699 ], [ -67.399, -25.699 ], [ -67.399, -25.666 ], [ -67.399, -25.633 ], [ -67.366, -25.633 ], [ -67.333, -25.633 ], [ -67.333, -25.666 ], [ -67.366, -25.666 ], [ -67.366, -25.699 ] ] ], [ [ [ -67.866, -25.599 ], [ -67.866, -25.633 ], [ -67.899, -25.633 ], [ -67.899, -25.599 ], [ -67.866, -25.599 ] ] ], [ [ [ -67.866, -25.599 ], [ -67.866, -25.566 ], [ -67.833, -25.566 ], [ -67.833, -25.599 ], [ -67.866, -25.599 ] ] ], [ [ [ -67.866, -25.566 ], [ -67.899, -25.566 ], [ -67.899, -25.533 ], [ -67.866, -25.533 ], [ -67.866, -25.566 ] ] ], [ [ [ -66.599, -25.166 ], [ -66.633, -25.166 ], [ -66.633, -25.133 ], [ -66.633, -25.099 ], [ -66.633, -25.066 ], [ -66.599, -25.066 ], [ -66.599, -25.099 ], [ -66.599, -25.133 ], [ -66.599, -25.166 ] ] ], [ [ [ -66.399, -24.866 ], [ -66.433, -24.866 ], [ -66.433, -24.833 ], [ -66.433, -24.799 ], [ -66.433, -24.766 ], [ -66.433, -24.733 ], [ -66.399, -24.733 ], [ -66.399, -24.766 ], [ -66.399, -24.799 ], [ -66.399, -24.833 ], [ -66.399, -24.866 ] ] ], [ [ [ -68.499, -24.733 ], [ -68.543, -24.733 ], [ -68.542, -24.722 ], [ -68.533, -24.714 ], [ -68.519, -24.706 ], [ -68.510, -24.693 ], [ -68.509, -24.690 ], [ -68.499, -24.699 ], [ -68.499, -24.733 ] ] ], [ [ [ -66.733, -24.333 ], [ -66.766, -24.333 ], [ -66.766, -24.299 ], [ -66.733, -24.299 ], [ -66.733, -24.333 ] ] ] ] } }
]
}
