{
"type": "FeatureCollection",
                                                                                                                                  
"features": [
{ "type": "Feature", "properties": { "pm_icon": "AR_2a", "hzs": "2a" }, "geometry": { "type": "MultiPolygon", "coordinates": [ [ [ [ -69.599, -34.133 ], [ -69.633, -34.133 ], [ -69.633, -34.099 ], [ -69.599, -34.099 ], [ -69.599, -34.133 ] ] ], [ [ [ -69.866, -33.833 ], [ -69.896, -33.833 ], [ -69.897, -33.831 ], [ -69.894, -33.799 ], [ -69.866, -33.799 ], [ -69.866, -33.833 ] ] ], [ [ [ -69.533, -33.766 ], [ -69.566, -33.766 ], [ -69.566, -33.733 ], [ -69.533, -33.733 ], [ -69.533, -33.766 ] ] ], [ [ [ -69.566, -33.699 ], [ -69.599, -33.699 ], [ -69.599, -33.666 ], [ -69.566, -33.666 ], [ -69.566, -33.699 ] ] ], [ [ [ -69.799, -33.566 ], [ -69.833, -33.566 ], [ -69.833, -33.533 ], [ -69.799, -33.533 ], [ -69.799, -33.566 ] ] ], [ [ [ -69.699, -33.499 ], [ -69.666, -33.499 ], [ -69.666, -33.533 ], [ -69.699, -33.533 ], [ -69.699, -33.499 ] ] ], [ [ [ -69.599, -33.499 ], [ -69.633, -33.499 ], [ -69.633, -33.466 ], [ -69.599, -33.466 ], [ -69.599, -33.499 ] ] ], [ [ [ -69.766, -33.466 ], [ -69.799, -33.466 ], [ -69.799, -33.433 ], [ -69.766, -33.433 ], [ -69.766, -33.466 ] ] ], [ [ [ -69.699, -33.499 ], [ -69.733, -33.499 ], [ -69.733, -33.466 ], [ -69.733, -33.433 ], [ -69.733, -33.399 ], [ -69.699, -33.399 ], [ -69.699, -33.366 ], [ -69.666, -33.366 ], [ -69.666, -33.399 ], [ -69.666, -33.433 ], [ -69.699, -33.433 ], [ -69.699, -33.466 ], [ -69.699, -33.499 ] ] ], [ [ [ -69.766, -33.333 ], [ -69.774, -33.340 ], [ -69.775, -33.333 ], [ -69.778, -33.328 ], [ -69.780, -33.322 ], [ -69.783, -33.316 ], [ -69.788, -33.310 ], [ -69.792, -33.305 ], [ -69.794, -33.300 ], [ -69.766, -33.299 ], [ -69.766, -33.333 ] ] ], [ [ [ -70.033, -33.199 ], [ -70.068, -33.199 ], [ -70.068, -33.199 ], [ -70.063, -33.191 ], [ -70.062, -33.184 ], [ -70.058, -33.177 ], [ -70.057, -33.172 ], [ -70.060, -33.166 ], [ -70.033, -33.166 ], [ -70.033, -33.199 ] ] ], [ [ [ -69.666, -33.133 ], [ -69.666, -33.166 ], [ -69.666, -33.199 ], [ -69.666, -33.233 ], [ -69.699, -33.233 ], [ -69.699, -33.199 ], [ -69.699, -33.166 ], [ -69.699, -33.133 ], [ -69.666, -33.133 ] ] ], [ [ [ -69.666, -33.133 ], [ -69.666, -33.099 ], [ -69.633, -33.099 ], [ -69.599, -33.099 ], [ -69.599, -33.066 ], [ -69.566, -33.066 ], [ -69.566, -33.099 ], [ -69.533, -33.099 ], [ -69.533, -33.133 ], [ -69.566, -33.133 ], [ -69.566, -33.166 ], [ -69.599, -33.166 ], [ -69.633, -33.166 ], [ -69.633, -33.133 ], [ -69.666, -33.133 ] ] ], [ [ [ -69.433, -33.033 ], [ -69.433, -33.066 ], [ -69.466, -33.066 ], [ -69.466, -33.099 ], [ -69.466, -33.133 ], [ -69.499, -33.133 ], [ -69.499, -33.099 ], [ -69.499, -33.066 ], [ -69.499, -33.033 ], [ -69.466, -33.033 ], [ -69.433, -33.033 ] ] ], [ [ [ -70.043, -33.023 ], [ -70.033, -33.033 ], [ -70.033, -33.066 ], [ -70.033, -33.099 ], [ -70.033, -33.133 ], [ -70.053, -33.133 ], [ -70.055, -33.131 ], [ -70.060, -33.129 ], [ -70.065, -33.126 ], [ -70.070, -33.124 ], [ -70.073, -33.122 ], [ -70.074, -33.121 ], [ -70.074, -33.118 ], [ -70.076, -33.117 ], [ -70.078, -33.115 ], [ -70.077, -33.112 ], [ -70.076, -33.110 ], [ -70.074, -33.107 ], [ -70.074, -33.105 ], [ -70.077, -33.104 ], [ -70.078, -33.102 ], [ -70.078, -33.099 ], [ -70.076, -33.097 ], [ -70.075, -33.094 ], [ -70.074, -33.093 ], [ -70.073, -33.091 ], [ -70.071, -33.090 ], [ -70.070, -33.088 ], [ -70.070, -33.086 ], [ -70.071, -33.083 ], [ -70.072, -33.080 ], [ -70.073, -33.077 ], [ -70.074, -33.075 ], [ -70.074, -33.074 ], [ -70.066, -33.066 ], [ -70.066, -33.027 ], [ -70.065, -33.027 ], [ -70.062, -33.028 ], [ -70.059, -33.028 ], [ -70.052, -33.027 ], [ -70.047, -33.025 ], [ -70.043, -33.023 ] ] ], [ [ [ -69.933, -33.099 ], [ -69.966, -33.099 ], [ -69.966, -33.066 ], [ -69.966, -33.033 ], [ -69.966, -32.999 ], [ -69.933, -32.999 ], [ -69.899, -32.999 ], [ -69.899, -33.033 ], [ -69.933, -33.033 ], [ -69.933, -33.066 ], [ -69.933, -33.099 ] ] ], [ [ [ -69.599, -33.066 ], [ -69.633, -33.066 ], [ -69.666, -33.066 ], [ -69.666, -33.033 ], [ -69.666, -32.999 ], [ -69.633, -32.999 ], [ -69.633, -33.033 ], [ -69.599, -33.033 ], [ -69.599, -33.066 ] ] ], [ [ [ -69.533, -33.033 ], [ -69.566, -33.033 ], [ -69.566, -32.999 ], [ -69.533, -32.999 ], [ -69.533, -33.033 ] ] ], [ [ [ -69.433, -33.033 ], [ -69.433, -32.999 ], [ -69.399, -32.999 ], [ -69.399, -33.033 ], [ -69.433, -33.033 ] ] ], [ [ [ -69.433, -32.999 ], [ -69.466, -32.999 ], [ -69.466, -32.966 ], [ -69.433, -32.966 ], [ -69.433, -32.999 ] ] ], [ [ [ -69.966, -32.666 ], [ -69.933, -32.666 ], [ -69.933, -32.699 ], [ -69.933, -32.733 ], [ -69.966, -32.733 ], [ -69.966, -32.699 ], [ -69.966, -32.666 ] ] ], [ [ [ -69.766, -32.699 ], [ -69.799, -32.699 ], [ -69.799, -32.666 ], [ -69.766, -32.666 ], [ -69.766, -32.699 ] ] ], [ [ [ -69.966, -32.666 ], [ -69.999, -32.666 ], [ -69.999, -32.633 ], [ -70.033, -32.633 ], [ -70.033, -32.666 ], [ -70.066, -32.666 ], [ -70.099, -32.666 ], [ -70.099, -32.633 ], [ -70.099, -32.599 ], [ -70.066, -32.599 ], [ -70.033, -32.599 ], [ -69.999, -32.599 ], [ -69.966, -32.599 ], [ -69.966, -32.633 ], [ -69.966, -32.666 ] ] ], [ [ [ -69.999, -32.566 ], [ -70.033, -32.566 ], [ -70.033, -32.533 ], [ -69.999, -32.533 ], [ -69.999, -32.566 ] ] ], [ [ [ -69.699, -32.299 ], [ -69.699, -32.333 ], [ -69.733, -32.333 ], [ -69.733, -32.299 ], [ -69.699, -32.299 ] ] ], [ [ [ -69.699, -32.299 ], [ -69.699, -32.266 ], [ -69.666, -32.266 ], [ -69.666, -32.299 ], [ -69.699, -32.299 ] ] ], [ [ [ -70.033, -32.133 ], [ -70.066, -32.133 ], [ -70.066, -32.099 ], [ -70.033, -32.099 ], [ -69.999, -32.099 ], [ -69.999, -32.133 ], [ -70.033, -32.133 ] ] ], [ [ [ -69.999, -32.066 ], [ -70.033, -32.066 ], [ -70.033, -32.033 ], [ -69.999, -32.033 ], [ -69.999, -32.066 ] ] ], [ [ [ -70.066, -31.999 ], [ -70.066, -32.033 ], [ -70.099, -32.033 ], [ -70.099, -31.999 ], [ -70.066, -31.999 ] ] ], [ [ [ -70.066, -31.999 ], [ -70.066, -31.966 ], [ -70.033, -31.966 ], [ -69.999, -31.966 ], [ -69.999, -31.999 ], [ -70.033, -31.999 ], [ -70.066, -31.999 ] ] ], [ [ [ -70.133, -31.999 ], [ -70.166, -31.999 ], [ -70.166, -31.966 ], [ -70.166, -31.933 ], [ -70.133, -31.933 ], [ -70.133, -31.966 ], [ -70.133, -31.999 ] ] ], [ [ [ -69.899, -31.799 ], [ -69.933, -31.799 ], [ -69.933, -31.766 ], [ -69.933, -31.733 ], [ -69.933, -31.699 ], [ -69.899, -31.699 ], [ -69.866, -31.699 ], [ -69.866, -31.733 ], [ -69.866, -31.766 ], [ -69.899, -31.766 ], [ -69.899, -31.799 ] ] ], [ [ [ -69.899, -31.633 ], [ -69.866, -31.633 ], [ -69.866, -31.666 ], [ -69.899, -31.666 ], [ -69.899, -31.633 ] ] ], [ [ [ -69.899, -31.633 ], [ -69.933, -31.633 ], [ -69.933, -31.599 ], [ -69.899, -31.599 ], [ -69.899, -31.633 ] ] ], [ [ [ -69.899, -31.599 ], [ -69.899, -31.566 ], [ -69.866, -31.566 ], [ -69.866, -31.599 ], [ -69.899, -31.599 ] ] ], [ [ [ -69.933, -31.533 ], [ -69.966, -31.533 ], [ -69.966, -31.499 ], [ -69.933, -31.499 ], [ -69.933, -31.533 ] ] ], [ [ [ -69.933, -31.433 ], [ -69.966, -31.433 ], [ -69.966, -31.399 ], [ -69.933, -31.399 ], [ -69.933, -31.433 ] ] ], [ [ [ -70.033, -31.399 ], [ -70.066, -31.399 ], [ -70.066, -31.366 ], [ -70.033, -31.366 ], [ -70.033, -31.399 ] ] ], [ [ [ -70.099, -31.333 ], [ -70.099, -31.366 ], [ -70.133, -31.366 ], [ -70.133, -31.333 ], [ -70.099, -31.333 ] ] ], [ [ [ -70.099, -31.333 ], [ -70.099, -31.299 ], [ -70.066, -31.299 ], [ -70.066, -31.333 ], [ -70.099, -31.333 ] ] ], [ [ [ -70.166, -31.299 ], [ -70.199, -31.299 ], [ -70.199, -31.266 ], [ -70.166, -31.266 ], [ -70.166, -31.299 ] ] ], [ [ [ -69.899, -31.233 ], [ -69.933, -31.233 ], [ -69.933, -31.199 ], [ -69.899, -31.199 ], [ -69.866, -31.199 ], [ -69.866, -31.233 ], [ -69.899, -31.233 ] ] ], [ [ [ -70.033, -30.599 ], [ -70.066, -30.599 ], [ -70.066, -30.566 ], [ -70.033, -30.566 ], [ -70.033, -30.599 ] ] ], [ [ [ -69.766, -30.566 ], [ -69.733, -30.566 ], [ -69.733, -30.599 ], [ -69.733, -30.633 ], [ -69.766, -30.633 ], [ -69.799, -30.633 ], [ -69.799, -30.599 ], [ -69.766, -30.599 ], [ -69.766, -30.566 ] ] ], [ [ [ -69.766, -30.566 ], [ -69.799, -30.566 ], [ -69.799, -30.533 ], [ -69.766, -30.533 ], [ -69.766, -30.566 ] ] ], [ [ [ -69.766, -30.533 ], [ -69.766, -30.499 ], [ -69.733, -30.499 ], [ -69.699, -30.499 ], [ -69.666, -30.499 ], [ -69.666, -30.533 ], [ -69.699, -30.533 ], [ -69.733, -30.533 ], [ -69.766, -30.533 ] ] ], [ [ [ -69.799, -30.499 ], [ -69.833, -30.499 ], [ -69.833, -30.466 ], [ -69.799, -30.466 ], [ -69.799, -30.499 ] ] ], [ [ [ -69.666, -30.466 ], [ -69.699, -30.466 ], [ -69.699, -30.433 ], [ -69.666, -30.433 ], [ -69.666, -30.466 ] ] ], [ [ [ -69.933, -30.433 ], [ -69.966, -30.433 ], [ -69.966, -30.399 ], [ -69.933, -30.399 ], [ -69.933, -30.433 ] ] ], [ [ [ -69.833, -30.433 ], [ -69.866, -30.433 ], [ -69.866, -30.399 ], [ -69.866, -30.366 ], [ -69.833, -30.366 ], [ -69.833, -30.399 ], [ -69.833, -30.433 ] ] ], [ [ [ -69.866, -30.299 ], [ -69.866, -30.333 ], [ -69.905, -30.333 ], [ -69.905, -30.329 ], [ -69.905, -30.324 ], [ -69.907, -30.320 ], [ -69.907, -30.315 ], [ -69.906, -30.310 ], [ -69.900, -30.309 ], [ -69.901, -30.306 ], [ -69.899, -30.303 ], [ -69.898, -30.300 ], [ -69.899, -30.299 ], [ -69.866, -30.299 ] ] ], [ [ [ -69.733, -30.299 ], [ -69.699, -30.299 ], [ -69.699, -30.333 ], [ -69.733, -30.333 ], [ -69.733, -30.299 ] ] ], [ [ [ -69.733, -30.299 ], [ -69.766, -30.299 ], [ -69.766, -30.266 ], [ -69.733, -30.266 ], [ -69.733, -30.299 ] ] ], [ [ [ -69.766, -30.266 ], [ -69.799, -30.266 ], [ -69.799, -30.233 ], [ -69.766, -30.233 ], [ -69.766, -30.266 ] ] ], [ [ [ -69.866, -30.299 ], [ -69.866, -30.266 ], [ -69.866, -30.210 ], [ -69.865, -30.210 ], [ -69.863, -30.210 ], [ -69.858, -30.214 ], [ -69.854, -30.216 ], [ -69.848, -30.218 ], [ -69.833, -30.233 ], [ -69.833, -30.266 ], [ -69.833, -30.299 ], [ -69.866, -30.299 ] ] ], [ [ [ -69.812, -30.154 ], [ -69.799, -30.166 ], [ -69.766, -30.166 ], [ -69.766, -30.199 ], [ -69.799, -30.199 ], [ -69.828, -30.199 ], [ -69.825, -30.193 ], [ -69.819, -30.185 ], [ -69.816, -30.178 ], [ -69.821, -30.173 ], [ -69.826, -30.167 ], [ -69.827, -30.163 ], [ -69.824, -30.161 ], [ -69.819, -30.157 ], [ -69.813, -30.156 ], [ -69.812, -30.154 ] ] ], [ [ [ -69.666, -30.133 ], [ -69.633, -30.133 ], [ -69.633, -30.166 ], [ -69.666, -30.166 ], [ -69.666, -30.133 ] ] ], [ [ [ -69.799, -30.099 ], [ -69.799, -30.133 ], [ -69.809, -30.143 ], [ -69.812, -30.140 ], [ -69.815, -30.137 ], [ -69.819, -30.133 ], [ -69.820, -30.129 ], [ -69.824, -30.125 ], [ -69.830, -30.125 ], [ -69.833, -30.125 ], [ -69.833, -30.099 ], [ -69.799, -30.099 ] ] ], [ [ [ -69.666, -30.133 ], [ -69.699, -30.133 ], [ -69.699, -30.099 ], [ -69.666, -30.099 ], [ -69.666, -30.133 ] ] ], [ [ [ -69.799, -30.099 ], [ -69.799, -30.066 ], [ -69.766, -30.066 ], [ -69.766, -30.099 ], [ -69.799, -30.099 ] ] ], [ [ [ -69.766, -30.066 ], [ -69.766, -30.033 ], [ -69.733, -30.033 ], [ -69.733, -30.066 ], [ -69.766, -30.066 ] ] ], [ [ [ -69.866, -29.999 ], [ -69.899, -29.999 ], [ -69.914, -29.985 ], [ -69.912, -29.983 ], [ -69.910, -29.978 ], [ -69.908, -29.970 ], [ -69.905, -29.966 ], [ -69.866, -29.966 ], [ -69.866, -29.999 ] ] ], [ [ [ -69.666, -30.099 ], [ -69.666, -30.066 ], [ -69.699, -30.066 ], [ -69.699, -30.033 ], [ -69.666, -30.033 ], [ -69.666, -29.999 ], [ -69.666, -29.966 ], [ -69.633, -29.966 ], [ -69.599, -29.966 ], [ -69.599, -29.999 ], [ -69.633, -29.999 ], [ -69.633, -30.033 ], [ -69.633, -30.066 ], [ -69.599, -30.066 ], [ -69.599, -30.099 ], [ -69.633, -30.099 ], [ -69.666, -30.099 ] ] ], [ [ [ -69.599, -29.966 ], [ -69.599, -29.933 ], [ -69.566, -29.933 ], [ -69.566, -29.966 ], [ -69.599, -29.966 ] ] ], [ [ [ -69.599, -29.933 ], [ -69.633, -29.933 ], [ -69.633, -29.899 ], [ -69.599, -29.899 ], [ -69.599, -29.933 ] ] ], [ [ [ -69.866, -29.933 ], [ -69.905, -29.933 ], [ -69.905, -29.932 ], [ -69.903, -29.928 ], [ -69.900, -29.921 ], [ -69.896, -29.914 ], [ -69.890, -29.905 ], [ -69.890, -29.900 ], [ -69.891, -29.892 ], [ -69.888, -29.887 ], [ -69.894, -29.883 ], [ -69.894, -29.878 ], [ -69.887, -29.873 ], [ -69.881, -29.866 ], [ -69.866, -29.866 ], [ -69.866, -29.899 ], [ -69.866, -29.933 ] ] ], [ [ [ -69.433, -29.733 ], [ -69.433, -29.766 ], [ -69.466, -29.766 ], [ -69.466, -29.733 ], [ -69.433, -29.733 ] ] ], [ [ [ -69.433, -29.733 ], [ -69.433, -29.699 ], [ -69.399, -29.699 ], [ -69.399, -29.733 ], [ -69.433, -29.733 ] ] ], [ [ [ -69.499, -29.699 ], [ -69.533, -29.699 ], [ -69.533, -29.666 ], [ -69.499, -29.666 ], [ -69.499, -29.699 ] ] ], [ [ [ -69.866, -29.666 ], [ -69.899, -29.666 ], [ -69.899, -29.633 ], [ -69.866, -29.633 ], [ -69.866, -29.666 ] ] ], [ [ [ -69.399, -29.666 ], [ -69.433, -29.666 ], [ -69.433, -29.633 ], [ -69.399, -29.633 ], [ -69.399, -29.666 ] ] ], [ [ [ -69.433, -29.566 ], [ -69.466, -29.566 ], [ -69.466, -29.533 ], [ -69.433, -29.533 ], [ -69.433, -29.566 ] ] ], [ [ [ -69.499, -29.466 ], [ -69.499, -29.499 ], [ -69.499, -29.533 ], [ -69.499, -29.566 ], [ -69.533, -29.566 ], [ -69.533, -29.533 ], [ -69.533, -29.499 ], [ -69.533, -29.466 ], [ -69.566, -29.466 ], [ -69.566, -29.433 ], [ -69.533, -29.433 ], [ -69.533, -29.399 ], [ -69.499, -29.399 ], [ -69.499, -29.433 ], [ -69.499, -29.466 ] ] ], [ [ [ -69.799, -29.333 ], [ -69.833, -29.333 ], [ -69.833, -29.299 ], [ -69.833, -29.266 ], [ -69.833, -29.233 ], [ -69.799, -29.233 ], [ -69.799, -29.266 ], [ -69.799, -29.299 ], [ -69.799, -29.333 ] ] ], [ [ [ -69.466, -29.233 ], [ -69.499, -29.233 ], [ -69.499, -29.199 ], [ -69.466, -29.199 ], [ -69.466, -29.233 ] ] ], [ [ [ -69.766, -29.099 ], [ -69.766, -29.133 ], [ -69.799, -29.133 ], [ -69.802, -29.130 ], [ -69.797, -29.130 ], [ -69.790, -29.130 ], [ -69.787, -29.129 ], [ -69.787, -29.126 ], [ -69.787, -29.124 ], [ -69.788, -29.121 ], [ -69.789, -29.117 ], [ -69.791, -29.113 ], [ -69.789, -29.110 ], [ -69.786, -29.108 ], [ -69.785, -29.104 ], [ -69.785, -29.099 ], [ -69.766, -29.099 ] ] ], [ [ [ -67.766, -29.133 ], [ -67.799, -29.133 ], [ -67.799, -29.099 ], [ -67.799, -29.066 ], [ -67.766, -29.066 ], [ -67.766, -29.099 ], [ -67.766, -29.133 ] ] ], [ [ [ -67.766, -29.033 ], [ -67.799, -29.033 ], [ -67.799, -28.999 ], [ -67.766, -28.999 ], [ -67.766, -29.033 ] ] ], [ [ [ -69.733, -28.999 ], [ -69.766, -28.999 ], [ -69.770, -28.996 ], [ -69.769, -28.992 ], [ -69.767, -28.989 ], [ -69.762, -28.987 ], [ -69.756, -28.984 ], [ -69.754, -28.983 ], [ -69.755, -28.981 ], [ -69.756, -28.980 ], [ -69.758, -28.979 ], [ -69.761, -28.976 ], [ -69.763, -28.973 ], [ -69.761, -28.970 ], [ -69.762, -28.967 ], [ -69.761, -28.964 ], [ -69.757, -28.961 ], [ -69.754, -28.958 ], [ -69.754, -28.955 ], [ -69.755, -28.951 ], [ -69.755, -28.946 ], [ -69.754, -28.941 ], [ -69.753, -28.936 ], [ -69.754, -28.933 ], [ -69.755, -28.933 ], [ -69.733, -28.933 ], [ -69.733, -28.966 ], [ -69.733, -28.999 ] ] ], [ [ [ -67.833, -28.933 ], [ -67.866, -28.933 ], [ -67.866, -28.899 ], [ -67.833, -28.899 ], [ -67.833, -28.866 ], [ -67.799, -28.866 ], [ -67.799, -28.899 ], [ -67.799, -28.933 ], [ -67.833, -28.933 ] ] ], [ [ [ -69.366, -28.733 ], [ -69.399, -28.733 ], [ -69.399, -28.699 ], [ -69.366, -28.699 ], [ -69.366, -28.733 ] ] ], [ [ [ -69.633, -28.466 ], [ -69.633, -28.499 ], [ -69.633, -28.533 ], [ -69.652, -28.533 ], [ -69.652, -28.532 ], [ -69.654, -28.529 ], [ -69.657, -28.528 ], [ -69.662, -28.524 ], [ -69.664, -28.521 ], [ -69.662, -28.517 ], [ -69.664, -28.515 ], [ -69.664, -28.510 ], [ -69.662, -28.508 ], [ -69.657, -28.503 ], [ -69.661, -28.501 ], [ -69.666, -28.496 ], [ -69.666, -28.491 ], [ -69.665, -28.486 ], [ -69.665, -28.482 ], [ -69.669, -28.480 ], [ -69.675, -28.475 ], [ -69.681, -28.471 ], [ -69.675, -28.470 ], [ -69.672, -28.467 ], [ -69.672, -28.466 ], [ -69.633, -28.466 ] ] ], [ [ [ -69.633, -28.466 ], [ -69.633, -28.433 ], [ -69.633, -28.431 ], [ -69.632, -28.430 ], [ -69.633, -28.430 ], [ -69.633, -28.399 ], [ -69.599, -28.399 ], [ -69.599, -28.433 ], [ -69.566, -28.433 ], [ -69.566, -28.466 ], [ -69.599, -28.466 ], [ -69.633, -28.466 ] ] ], [ [ [ -69.599, -28.399 ], [ -69.599, -28.377 ], [ -69.589, -28.379 ], [ -69.585, -28.377 ], [ -69.588, -28.373 ], [ -69.588, -28.369 ], [ -69.590, -28.365 ], [ -69.589, -28.361 ], [ -69.588, -28.360 ], [ -69.582, -28.356 ], [ -69.579, -28.359 ], [ -69.575, -28.363 ], [ -69.573, -28.362 ], [ -69.572, -28.360 ], [ -69.566, -28.366 ], [ -69.566, -28.399 ], [ -69.599, -28.399 ] ] ], [ [ [ -68.999, -28.299 ], [ -69.033, -28.299 ], [ -69.033, -28.266 ], [ -68.999, -28.266 ], [ -68.999, -28.299 ] ] ], [ [ [ -68.766, -28.233 ], [ -68.799, -28.233 ], [ -68.799, -28.199 ], [ -68.799, -28.166 ], [ -68.766, -28.166 ], [ -68.766, -28.199 ], [ -68.766, -28.233 ] ] ], [ [ [ -68.933, -28.099 ], [ -68.933, -28.133 ], [ -68.966, -28.133 ], [ -68.966, -28.099 ], [ -68.933, -28.099 ] ] ], [ [ [ -69.033, -28.066 ], [ -69.033, -28.099 ], [ -68.999, -28.099 ], [ -68.999, -28.133 ], [ -69.033, -28.133 ], [ -69.066, -28.133 ], [ -69.066, -28.099 ], [ -69.066, -28.066 ], [ -69.033, -28.066 ] ] ], [ [ [ -68.799, -28.099 ], [ -68.833, -28.099 ], [ -68.833, -28.066 ], [ -68.799, -28.066 ], [ -68.799, -28.099 ] ] ], [ [ [ -69.033, -28.066 ], [ -69.033, -28.033 ], [ -68.999, -28.033 ], [ -68.999, -28.066 ], [ -69.033, -28.066 ] ] ], [ [ [ -68.833, -28.066 ], [ -68.866, -28.066 ], [ -68.866, -28.099 ], [ -68.899, -28.099 ], [ -68.933, -28.099 ], [ -68.933, -28.066 ], [ -68.899, -28.066 ], [ -68.899, -28.033 ], [ -68.866, -28.033 ], [ -68.833, -28.033 ], [ -68.833, -28.066 ] ] ], [ [ [ -68.799, -28.099 ], [ -68.766, -28.099 ], [ -68.766, -28.066 ], [ -68.733, -28.066 ], [ -68.699, -28.066 ], [ -68.699, -28.033 ], [ -68.666, -28.033 ], [ -68.666, -28.066 ], [ -68.666, -28.099 ], [ -68.699, -28.099 ], [ -68.733, -28.099 ], [ -68.733, -28.133 ], [ -68.766, -28.133 ], [ -68.799, -28.133 ], [ -68.799, -28.099 ] ] ], [ [ [ -68.633, -27.966 ], [ -68.599, -27.966 ], [ -68.599, -27.999 ], [ -68.633, -27.999 ], [ -68.633, -27.966 ] ] ], [ [ [ -68.999, -28.033 ], [ -68.999, -27.999 ], [ -68.999, -27.966 ], [ -68.999, -27.933 ], [ -68.999, -27.899 ], [ -68.966, -27.899 ], [ -68.966, -27.933 ], [ -68.966, -27.966 ], [ -68.966, -27.999 ], [ -68.966, -28.033 ], [ -68.999, -28.033 ] ] ], [ [ [ -68.633, -27.966 ], [ -68.666, -27.966 ], [ -68.666, -27.933 ], [ -68.699, -27.933 ], [ -68.699, -27.899 ], [ -68.666, -27.899 ], [ -68.633, -27.899 ], [ -68.633, -27.933 ], [ -68.633, -27.966 ] ] ], [ [ [ -68.466, -27.899 ], [ -68.499, -27.899 ], [ -68.499, -27.866 ], [ -68.466, -27.866 ], [ -68.466, -27.833 ], [ -68.433, -27.833 ], [ -68.433, -27.866 ], [ -68.433, -27.899 ], [ -68.466, -27.899 ] ] ], [ [ [ -69.066, -27.833 ], [ -69.107, -27.833 ], [ -69.107, -27.830 ], [ -69.106, -27.828 ], [ -69.103, -27.825 ], [ -69.103, -27.822 ], [ -69.100, -27.817 ], [ -69.099, -27.812 ], [ -69.099, -27.808 ], [ -69.098, -27.804 ], [ -69.096, -27.799 ], [ -69.066, -27.799 ], [ -69.066, -27.833 ] ] ], [ [ [ -68.533, -27.799 ], [ -68.533, -27.833 ], [ -68.566, -27.833 ], [ -68.566, -27.866 ], [ -68.599, -27.866 ], [ -68.599, -27.833 ], [ -68.599, -27.799 ], [ -68.566, -27.799 ], [ -68.533, -27.799 ] ] ], [ [ [ -68.699, -27.766 ], [ -68.666, -27.766 ], [ -68.633, -27.766 ], [ -68.633, -27.799 ], [ -68.666, -27.799 ], [ -68.699, -27.799 ], [ -68.699, -27.766 ] ] ], [ [ [ -68.533, -27.799 ], [ -68.533, -27.766 ], [ -68.499, -27.766 ], [ -68.499, -27.799 ], [ -68.533, -27.799 ] ] ], [ [ [ -68.933, -27.733 ], [ -68.933, -27.766 ], [ -68.933, -27.799 ], [ -68.933, -27.833 ], [ -68.966, -27.833 ], [ -68.966, -27.799 ], [ -68.999, -27.799 ], [ -68.999, -27.766 ], [ -68.999, -27.733 ], [ -68.966, -27.733 ], [ -68.933, -27.733 ] ] ], [ [ [ -68.699, -27.766 ], [ -68.733, -27.766 ], [ -68.733, -27.733 ], [ -68.699, -27.733 ], [ -68.699, -27.766 ] ] ], [ [ [ -68.933, -27.733 ], [ -68.933, -27.699 ], [ -68.899, -27.699 ], [ -68.899, -27.733 ], [ -68.933, -27.733 ] ] ], [ [ [ -68.733, -27.733 ], [ -68.766, -27.733 ], [ -68.766, -27.699 ], [ -68.733, -27.699 ], [ -68.733, -27.733 ] ] ], [ [ [ -68.499, -27.733 ], [ -68.533, -27.733 ], [ -68.533, -27.699 ], [ -68.499, -27.699 ], [ -68.499, -27.733 ] ] ], [ [ [ -69.066, -27.766 ], [ -69.092, -27.766 ], [ -69.089, -27.757 ], [ -69.090, -27.755 ], [ -69.090, -27.748 ], [ -69.092, -27.747 ], [ -69.094, -27.746 ], [ -69.094, -27.744 ], [ -69.093, -27.743 ], [ -69.094, -27.741 ], [ -69.094, -27.738 ], [ -69.094, -27.733 ], [ -69.094, -27.729 ], [ -69.093, -27.717 ], [ -69.083, -27.716 ], [ -69.079, -27.714 ], [ -69.074, -27.712 ], [ -69.069, -27.708 ], [ -69.064, -27.707 ], [ -69.058, -27.704 ], [ -69.056, -27.703 ], [ -69.050, -27.701 ], [ -69.045, -27.699 ], [ -69.044, -27.696 ], [ -69.044, -27.692 ], [ -69.044, -27.688 ], [ -69.033, -27.699 ], [ -69.033, -27.733 ], [ -69.066, -27.733 ], [ -69.066, -27.766 ] ] ], [ [ [ -68.899, -27.699 ], [ -68.899, -27.666 ], [ -68.866, -27.666 ], [ -68.866, -27.699 ], [ -68.899, -27.699 ] ] ], [ [ [ -68.766, -27.699 ], [ -68.799, -27.699 ], [ -68.833, -27.699 ], [ -68.833, -27.666 ], [ -68.799, -27.666 ], [ -68.766, -27.666 ], [ -68.766, -27.699 ] ] ], [ [ [ -68.966, -27.633 ], [ -68.933, -27.633 ], [ -68.933, -27.666 ], [ -68.966, -27.666 ], [ -68.966, -27.633 ] ] ], [ [ [ -68.266, -27.599 ], [ -68.266, -27.633 ], [ -68.299, -27.633 ], [ -68.299, -27.599 ], [ -68.266, -27.599 ] ] ], [ [ [ -69.033, -27.633 ], [ -69.054, -27.633 ], [ -69.052, -27.627 ], [ -69.054, -27.621 ], [ -69.053, -27.616 ], [ -69.047, -27.609 ], [ -69.043, -27.603 ], [ -69.042, -27.601 ], [ -69.039, -27.600 ], [ -69.034, -27.600 ], [ -69.033, -27.599 ], [ -69.033, -27.633 ] ] ], [ [ [ -68.966, -27.633 ], [ -68.999, -27.633 ], [ -68.999, -27.599 ], [ -69.015, -27.584 ], [ -69.011, -27.584 ], [ -69.004, -27.583 ], [ -68.998, -27.580 ], [ -68.995, -27.577 ], [ -68.992, -27.573 ], [ -68.988, -27.569 ], [ -68.983, -27.565 ], [ -68.976, -27.560 ], [ -68.975, -27.558 ], [ -68.966, -27.566 ], [ -68.933, -27.566 ], [ -68.899, -27.566 ], [ -68.899, -27.599 ], [ -68.933, -27.599 ], [ -68.966, -27.599 ], [ -68.966, -27.633 ] ] ], [ [ [ -68.266, -27.599 ], [ -68.266, -27.566 ], [ -68.266, -27.533 ], [ -68.299, -27.533 ], [ -68.299, -27.499 ], [ -68.266, -27.499 ], [ -68.233, -27.499 ], [ -68.233, -27.533 ], [ -68.233, -27.566 ], [ -68.233, -27.599 ], [ -68.266, -27.599 ] ] ], [ [ [ -68.399, -27.466 ], [ -68.399, -27.499 ], [ -68.366, -27.499 ], [ -68.366, -27.533 ], [ -68.399, -27.533 ], [ -68.399, -27.566 ], [ -68.433, -27.566 ], [ -68.433, -27.533 ], [ -68.466, -27.533 ], [ -68.499, -27.533 ], [ -68.499, -27.499 ], [ -68.466, -27.499 ], [ -68.433, -27.499 ], [ -68.433, -27.466 ], [ -68.399, -27.466 ] ] ], [ [ [ -68.733, -27.466 ], [ -68.733, -27.499 ], [ -68.766, -27.499 ], [ -68.766, -27.466 ], [ -68.799, -27.466 ], [ -68.799, -27.433 ], [ -68.766, -27.433 ], [ -68.733, -27.433 ], [ -68.733, -27.466 ] ] ], [ [ [ -68.866, -27.366 ], [ -68.833, -27.366 ], [ -68.833, -27.399 ], [ -68.833, -27.433 ], [ -68.866, -27.433 ], [ -68.899, -27.433 ], [ -68.899, -27.399 ], [ -68.866, -27.399 ], [ -68.866, -27.366 ] ] ], [ [ [ -68.566, -27.366 ], [ -68.533, -27.366 ], [ -68.533, -27.399 ], [ -68.499, -27.399 ], [ -68.499, -27.366 ], [ -68.499, -27.333 ], [ -68.466, -27.333 ], [ -68.433, -27.333 ], [ -68.399, -27.333 ], [ -68.399, -27.366 ], [ -68.433, -27.366 ], [ -68.466, -27.366 ], [ -68.466, -27.399 ], [ -68.466, -27.433 ], [ -68.499, -27.433 ], [ -68.499, -27.466 ], [ -68.533, -27.466 ], [ -68.533, -27.433 ], [ -68.566, -27.433 ], [ -68.566, -27.399 ], [ -68.566, -27.366 ] ] ], [ [ [ -66.166, -27.366 ], [ -66.199, -27.366 ], [ -66.199, -27.333 ], [ -66.166, -27.333 ], [ -66.166, -27.366 ] ] ], [ [ [ -68.866, -27.366 ], [ -68.891, -27.366 ], [ -68.892, -27.362 ], [ -68.892, -27.357 ], [ -68.891, -27.354 ], [ -68.886, -27.349 ], [ -68.882, -27.344 ], [ -68.877, -27.339 ], [ -68.880, -27.337 ], [ -68.881, -27.333 ], [ -68.878, -27.329 ], [ -68.873, -27.325 ], [ -68.871, -27.320 ], [ -68.868, -27.317 ], [ -68.858, -27.317 ], [ -68.850, -27.315 ], [ -68.833, -27.306 ], [ -68.833, -27.333 ], [ -68.866, -27.333 ], [ -68.866, -27.366 ] ] ], [ [ [ -68.566, -27.366 ], [ -68.599, -27.366 ], [ -68.599, -27.333 ], [ -68.599, -27.299 ], [ -68.566, -27.299 ], [ -68.566, -27.333 ], [ -68.566, -27.366 ] ] ], [ [ [ -68.766, -27.299 ], [ -68.799, -27.299 ], [ -68.799, -27.266 ], [ -68.766, -27.266 ], [ -68.766, -27.299 ] ] ], [ [ [ -68.599, -27.299 ], [ -68.633, -27.299 ], [ -68.633, -27.266 ], [ -68.599, -27.266 ], [ -68.599, -27.299 ] ] ], [ [ [ -66.133, -27.266 ], [ -66.133, -27.299 ], [ -66.166, -27.299 ], [ -66.166, -27.266 ], [ -66.133, -27.266 ] ] ], [ [ [ -68.433, -27.233 ], [ -68.433, -27.266 ], [ -68.433, -27.299 ], [ -68.466, -27.299 ], [ -68.466, -27.266 ], [ -68.466, -27.233 ], [ -68.433, -27.233 ] ] ], [ [ [ -68.299, -27.266 ], [ -68.333, -27.266 ], [ -68.333, -27.233 ], [ -68.299, -27.233 ], [ -68.266, -27.233 ], [ -68.266, -27.266 ], [ -68.299, -27.266 ] ] ], [ [ [ -68.433, -27.233 ], [ -68.433, -27.199 ], [ -68.399, -27.199 ], [ -68.399, -27.233 ], [ -68.433, -27.233 ] ] ], [ [ [ -68.733, -27.166 ], [ -68.733, -27.199 ], [ -68.766, -27.199 ], [ -68.766, -27.166 ], [ -68.733, -27.166 ] ] ], [ [ [ -68.666, -27.166 ], [ -68.633, -27.166 ], [ -68.633, -27.199 ], [ -68.633, -27.233 ], [ -68.666, -27.233 ], [ -68.666, -27.199 ], [ -68.666, -27.166 ] ] ], [ [ [ -68.839, -27.160 ], [ -68.833, -27.166 ], [ -68.799, -27.166 ], [ -68.799, -27.199 ], [ -68.833, -27.199 ], [ -68.856, -27.199 ], [ -68.856, -27.198 ], [ -68.858, -27.193 ], [ -68.857, -27.189 ], [ -68.853, -27.185 ], [ -68.850, -27.181 ], [ -68.847, -27.176 ], [ -68.844, -27.171 ], [ -68.840, -27.168 ], [ -68.839, -27.164 ], [ -68.839, -27.160 ] ] ], [ [ [ -68.666, -27.166 ], [ -68.699, -27.166 ], [ -68.733, -27.166 ], [ -68.733, -27.133 ], [ -68.699, -27.133 ], [ -68.666, -27.133 ], [ -68.666, -27.166 ] ] ], [ [ [ -67.966, -27.266 ], [ -67.999, -27.266 ], [ -67.999, -27.233 ], [ -67.999, -27.199 ], [ -67.999, -27.166 ], [ -67.999, -27.133 ], [ -67.966, -27.133 ], [ -67.966, -27.166 ], [ -67.966, -27.199 ], [ -67.966, -27.233 ], [ -67.966, -27.266 ] ] ], [ [ [ -66.133, -27.266 ], [ -66.133, -27.233 ], [ -66.133, -27.199 ], [ -66.099, -27.199 ], [ -66.066, -27.199 ], [ -66.066, -27.166 ], [ -66.066, -27.133 ], [ -66.033, -27.133 ], [ -66.033, -27.166 ], [ -66.033, -27.199 ], [ -66.033, -27.233 ], [ -66.066, -27.233 ], [ -66.099, -27.233 ], [ -66.099, -27.266 ], [ -66.133, -27.266 ] ] ], [ [ [ -68.399, -27.199 ], [ -68.399, -27.166 ], [ -68.399, -27.133 ], [ -68.399, -27.099 ], [ -68.366, -27.099 ], [ -68.366, -27.133 ], [ -68.366, -27.166 ], [ -68.366, -27.199 ], [ -68.399, -27.199 ] ] ], [ [ [ -66.033, -27.133 ], [ -66.033, -27.099 ], [ -65.999, -27.099 ], [ -65.966, -27.099 ], [ -65.966, -27.133 ], [ -65.999, -27.133 ], [ -66.033, -27.133 ] ] ], [ [ [ -68.366, -27.099 ], [ -68.366, -27.066 ], [ -68.333, -27.066 ], [ -68.299, -27.066 ], [ -68.266, -27.066 ], [ -68.266, -27.099 ], [ -68.266, -27.133 ], [ -68.299, -27.133 ], [ -68.299, -27.099 ], [ -68.333, -27.099 ], [ -68.366, -27.099 ] ] ], [ [ [ -68.233, -27.033 ], [ -68.266, -27.033 ], [ -68.266, -26.999 ], [ -68.233, -26.999 ], [ -68.233, -27.033 ] ] ], [ [ [ -68.299, -26.966 ], [ -68.299, -26.999 ], [ -68.307, -27.007 ], [ -68.311, -26.999 ], [ -68.315, -26.988 ], [ -68.318, -26.984 ], [ -68.317, -26.981 ], [ -68.315, -26.975 ], [ -68.311, -26.973 ], [ -68.306, -26.971 ], [ -68.300, -26.967 ], [ -68.299, -26.966 ] ] ], [ [ [ -68.299, -26.966 ], [ -68.297, -26.964 ], [ -68.294, -26.960 ], [ -68.293, -26.957 ], [ -68.292, -26.951 ], [ -68.290, -26.947 ], [ -68.291, -26.941 ], [ -68.290, -26.937 ], [ -68.291, -26.935 ], [ -68.293, -26.929 ], [ -68.291, -26.926 ], [ -68.275, -26.924 ], [ -68.266, -26.933 ], [ -68.266, -26.966 ], [ -68.299, -26.966 ] ] ], [ [ [ -67.499, -26.933 ], [ -67.533, -26.933 ], [ -67.533, -26.899 ], [ -67.499, -26.899 ], [ -67.499, -26.933 ] ] ], [ [ [ -68.266, -26.833 ], [ -68.266, -26.866 ], [ -68.305, -26.866 ], [ -68.307, -26.863 ], [ -68.316, -26.849 ], [ -68.299, -26.833 ], [ -68.266, -26.833 ] ] ], [ [ [ -68.033, -26.799 ], [ -67.999, -26.799 ], [ -67.966, -26.799 ], [ -67.966, -26.833 ], [ -67.999, -26.833 ], [ -68.033, -26.833 ], [ -68.033, -26.799 ] ] ], [ [ [ -68.333, -26.766 ], [ -68.299, -26.766 ], [ -68.299, -26.799 ], [ -68.333, -26.799 ], [ -68.333, -26.766 ] ] ], [ [ [ -67.966, -26.799 ], [ -67.966, -26.766 ], [ -67.933, -26.766 ], [ -67.933, -26.799 ], [ -67.966, -26.799 ] ] ], [ [ [ -68.266, -26.766 ], [ -68.299, -26.766 ], [ -68.299, -26.733 ], [ -68.266, -26.733 ], [ -68.266, -26.766 ] ] ], [ [ [ -68.266, -26.833 ], [ -68.266, -26.799 ], [ -68.266, -26.766 ], [ -68.233, -26.766 ], [ -68.199, -26.766 ], [ -68.199, -26.799 ], [ -68.166, -26.799 ], [ -68.133, -26.799 ], [ -68.133, -26.766 ], [ -68.166, -26.766 ], [ -68.166, -26.733 ], [ -68.133, -26.733 ], [ -68.099, -26.733 ], [ -68.099, -26.766 ], [ -68.099, -26.799 ], [ -68.099, -26.833 ], [ -68.133, -26.833 ], [ -68.166, -26.833 ], [ -68.166, -26.866 ], [ -68.199, -26.866 ], [ -68.199, -26.833 ], [ -68.233, -26.833 ], [ -68.266, -26.833 ] ] ], [ [ [ -67.966, -26.766 ], [ -67.999, -26.766 ], [ -67.999, -26.733 ], [ -67.966, -26.733 ], [ -67.966, -26.766 ] ] ], [ [ [ -68.033, -26.799 ], [ -68.066, -26.799 ], [ -68.066, -26.766 ], [ -68.066, -26.733 ], [ -68.066, -26.699 ], [ -68.033, -26.699 ], [ -68.033, -26.733 ], [ -68.033, -26.766 ], [ -68.033, -26.799 ] ] ], [ [ [ -68.299, -26.733 ], [ -68.333, -26.733 ], [ -68.333, -26.766 ], [ -68.366, -26.766 ], [ -68.383, -26.783 ], [ -68.389, -26.769 ], [ -68.400, -26.763 ], [ -68.402, -26.754 ], [ -68.410, -26.743 ], [ -68.399, -26.733 ], [ -68.366, -26.733 ], [ -68.366, -26.699 ], [ -68.333, -26.699 ], [ -68.333, -26.666 ], [ -68.299, -26.666 ], [ -68.299, -26.699 ], [ -68.299, -26.733 ] ] ], [ [ [ -68.066, -26.699 ], [ -68.099, -26.699 ], [ -68.099, -26.666 ], [ -68.066, -26.666 ], [ -68.066, -26.699 ] ] ], [ [ [ -68.333, -26.599 ], [ -68.299, -26.599 ], [ -68.299, -26.633 ], [ -68.333, -26.633 ], [ -68.333, -26.599 ] ] ], [ [ [ -68.099, -26.633 ], [ -68.133, -26.633 ], [ -68.133, -26.599 ], [ -68.099, -26.599 ], [ -68.099, -26.633 ] ] ], [ [ [ -67.966, -26.599 ], [ -67.966, -26.633 ], [ -67.966, -26.666 ], [ -67.999, -26.666 ], [ -68.033, -26.666 ], [ -68.033, -26.633 ], [ -67.999, -26.633 ], [ -67.999, -26.599 ], [ -67.966, -26.599 ] ] ], [ [ [ -67.033, -26.633 ], [ -67.066, -26.633 ], [ -67.066, -26.599 ], [ -67.033, -26.599 ], [ -67.033, -26.633 ] ] ], [ [ [ -68.499, -26.566 ], [ -68.466, -26.566 ], [ -68.466, -26.599 ], [ -68.466, -26.633 ], [ -68.480, -26.647 ], [ -68.492, -26.631 ], [ -68.500, -26.619 ], [ -68.507, -26.607 ], [ -68.499, -26.599 ], [ -68.499, -26.566 ] ] ], [ [ [ -68.333, -26.599 ], [ -68.366, -26.599 ], [ -68.366, -26.566 ], [ -68.333, -26.566 ], [ -68.333, -26.599 ] ] ], [ [ [ -67.133, -26.633 ], [ -67.166, -26.633 ], [ -67.166, -26.599 ], [ -67.133, -26.599 ], [ -67.133, -26.566 ], [ -67.099, -26.566 ], [ -67.099, -26.599 ], [ -67.099, -26.633 ], [ -67.133, -26.633 ] ] ], [ [ [ -68.499, -26.566 ], [ -68.534, -26.566 ], [ -68.548, -26.548 ], [ -68.533, -26.533 ], [ -68.499, -26.533 ], [ -68.499, -26.566 ] ] ], [ [ [ -67.833, -26.566 ], [ -67.866, -26.566 ], [ -67.866, -26.533 ], [ -67.866, -26.499 ], [ -67.833, -26.499 ], [ -67.833, -26.533 ], [ -67.833, -26.566 ] ] ], [ [ [ -67.966, -26.599 ], [ -67.966, -26.566 ], [ -67.966, -26.533 ], [ -67.966, -26.499 ], [ -67.966, -26.466 ], [ -67.966, -26.433 ], [ -67.933, -26.433 ], [ -67.933, -26.466 ], [ -67.933, -26.499 ], [ -67.933, -26.533 ], [ -67.899, -26.533 ], [ -67.899, -26.566 ], [ -67.899, -26.599 ], [ -67.933, -26.599 ], [ -67.966, -26.599 ] ] ], [ [ [ -67.066, -26.499 ], [ -67.099, -26.499 ], [ -67.099, -26.466 ], [ -67.099, -26.433 ], [ -67.066, -26.433 ], [ -67.066, -26.466 ], [ -67.066, -26.499 ] ] ], [ [ [ -66.999, -26.533 ], [ -67.033, -26.533 ], [ -67.033, -26.499 ], [ -67.033, -26.466 ], [ -67.033, -26.433 ], [ -66.999, -26.433 ], [ -66.999, -26.466 ], [ -66.999, -26.499 ], [ -66.999, -26.533 ] ] ], [ [ [ -66.966, -26.399 ], [ -66.999, -26.399 ], [ -66.999, -26.366 ], [ -66.966, -26.366 ], [ -66.966, -26.399 ] ] ], [ [ [ -68.499, -26.533 ], [ -68.499, -26.499 ], [ -68.499, -26.466 ], [ -68.499, -26.433 ], [ -68.499, -26.399 ], [ -68.499, -26.366 ], [ -68.466, -26.366 ], [ -68.466, -26.333 ], [ -68.433, -26.333 ], [ -68.433, -26.366 ], [ -68.399, -26.366 ], [ -68.366, -26.366 ], [ -68.366, -26.399 ], [ -68.333, -26.399 ], [ -68.333, -26.433 ], [ -68.333, -26.466 ], [ -68.366, -26.466 ], [ -68.399, -26.466 ], [ -68.433, -26.466 ], [ -68.433, -26.499 ], [ -68.466, -26.499 ], [ -68.466, -26.533 ], [ -68.499, -26.533 ] ] ], [ [ [ -67.033, -26.333 ], [ -67.033, -26.366 ], [ -67.066, -26.366 ], [ -67.066, -26.333 ], [ -67.033, -26.333 ] ] ], [ [ [ -67.033, -26.333 ], [ -67.033, -26.299 ], [ -66.999, -26.299 ], [ -66.999, -26.333 ], [ -67.033, -26.333 ] ] ], [ [ [ -66.499, -26.299 ], [ -66.533, -26.299 ], [ -66.533, -26.266 ], [ -66.499, -26.266 ], [ -66.499, -26.299 ] ] ], [ [ [ -66.299, -26.299 ], [ -66.333, -26.299 ], [ -66.333, -26.266 ], [ -66.299, -26.266 ], [ -66.299, -26.299 ] ] ], [ [ [ -68.233, -26.233 ], [ -68.233, -26.266 ], [ -68.199, -26.266 ], [ -68.166, -26.266 ], [ -68.166, -26.299 ], [ -68.166, -26.333 ], [ -68.199, -26.333 ], [ -68.199, -26.366 ], [ -68.233, -26.366 ], [ -68.233, -26.399 ], [ -68.233, -26.433 ], [ -68.266, -26.433 ], [ -68.299, -26.433 ], [ -68.299, -26.399 ], [ -68.299, -26.366 ], [ -68.299, -26.333 ], [ -68.266, -26.333 ], [ -68.266, -26.299 ], [ -68.266, -26.266 ], [ -68.266, -26.233 ], [ -68.266, -26.199 ], [ -68.233, -26.199 ], [ -68.233, -26.233 ] ] ], [ [ [ -68.366, -26.233 ], [ -68.399, -26.233 ], [ -68.399, -26.196 ], [ -68.375, -26.182 ], [ -68.379, -26.166 ], [ -68.333, -26.166 ], [ -68.299, -26.166 ], [ -68.299, -26.199 ], [ -68.333, -26.199 ], [ -68.333, -26.233 ], [ -68.366, -26.233 ] ] ], [ [ [ -66.199, -26.166 ], [ -66.233, -26.166 ], [ -66.233, -26.133 ], [ -66.199, -26.133 ], [ -66.199, -26.166 ] ] ], [ [ [ -66.833, -26.133 ], [ -66.866, -26.133 ], [ -66.866, -26.099 ], [ -66.866, -26.066 ], [ -66.833, -26.066 ], [ -66.833, -26.099 ], [ -66.833, -26.133 ] ] ], [ [ [ -67.133, -26.033 ], [ -67.133, -26.066 ], [ -67.166, -26.066 ], [ -67.199, -26.066 ], [ -67.199, -26.033 ], [ -67.166, -26.033 ], [ -67.133, -26.033 ] ] ], [ [ [ -66.966, -25.999 ], [ -66.999, -25.999 ], [ -66.999, -25.966 ], [ -66.966, -25.966 ], [ -66.966, -25.999 ] ] ], [ [ [ -67.133, -26.033 ], [ -67.133, -25.999 ], [ -67.099, -25.999 ], [ -67.099, -25.966 ], [ -67.099, -25.933 ], [ -67.133, -25.933 ], [ -67.133, -25.899 ], [ -67.099, -25.899 ], [ -67.066, -25.899 ], [ -67.066, -25.933 ], [ -67.066, -25.966 ], [ -67.066, -25.999 ], [ -67.066, -26.033 ], [ -67.099, -26.033 ], [ -67.133, -26.033 ] ] ], [ [ [ -66.966, -25.933 ], [ -66.999, -25.933 ], [ -66.999, -25.899 ], [ -66.966, -25.899 ], [ -66.966, -25.933 ] ] ], [ [ [ -66.966, -25.999 ], [ -66.933, -25.999 ], [ -66.899, -25.999 ], [ -66.899, -25.966 ], [ -66.899, -25.933 ], [ -66.899, -25.899 ], [ -66.866, -25.899 ], [ -66.833, -25.899 ], [ -66.833, -25.933 ], [ -66.833, -25.966 ], [ -66.833, -25.999 ], [ -66.866, -25.999 ], [ -66.866, -26.033 ], [ -66.899, -26.033 ], [ -66.933, -26.033 ], [ -66.966, -26.033 ], [ -66.966, -25.999 ] ] ], [ [ [ -66.599, -25.933 ], [ -66.633, -25.933 ], [ -66.633, -25.899 ], [ -66.599, -25.899 ], [ -66.599, -25.933 ] ] ], [ [ [ -67.066, -25.899 ], [ -67.066, -25.866 ], [ -67.099, -25.866 ], [ -67.099, -25.833 ], [ -67.066, -25.833 ], [ -67.033, -25.833 ], [ -67.033, -25.866 ], [ -67.033, -25.899 ], [ -67.066, -25.899 ] ] ], [ [ [ -66.966, -25.799 ], [ -66.999, -25.799 ], [ -66.999, -25.766 ], [ -66.966, -25.766 ], [ -66.966, -25.799 ] ] ], [ [ [ -66.833, -25.799 ], [ -66.866, -25.799 ], [ -66.866, -25.766 ], [ -66.833, -25.766 ], [ -66.833, -25.799 ] ] ], [ [ [ -68.466, -25.666 ], [ -68.466, -25.699 ], [ -68.477, -25.711 ], [ -68.478, -25.706 ], [ -68.482, -25.699 ], [ -68.486, -25.695 ], [ -68.486, -25.691 ], [ -68.489, -25.689 ], [ -68.491, -25.688 ], [ -68.494, -25.686 ], [ -68.497, -25.684 ], [ -68.499, -25.681 ], [ -68.500, -25.678 ], [ -68.499, -25.675 ], [ -68.499, -25.672 ], [ -68.503, -25.671 ], [ -68.504, -25.671 ], [ -68.499, -25.666 ], [ -68.466, -25.666 ] ] ], [ [ [ -67.333, -25.699 ], [ -67.366, -25.699 ], [ -67.366, -25.666 ], [ -67.333, -25.666 ], [ -67.299, -25.666 ], [ -67.299, -25.699 ], [ -67.333, -25.699 ] ] ], [ [ [ -67.899, -25.633 ], [ -67.866, -25.633 ], [ -67.866, -25.666 ], [ -67.866, -25.699 ], [ -67.899, -25.699 ], [ -67.933, -25.699 ], [ -67.933, -25.666 ], [ -67.899, -25.666 ], [ -67.899, -25.633 ] ] ], [ [ [ -67.399, -25.699 ], [ -67.433, -25.699 ], [ -67.433, -25.666 ], [ -67.433, -25.633 ], [ -67.399, -25.633 ], [ -67.399, -25.666 ], [ -67.399, -25.699 ] ] ], [ [ [ -67.899, -25.633 ], [ -67.933, -25.633 ], [ -67.933, -25.599 ], [ -67.899, -25.599 ], [ -67.899, -25.633 ] ] ], [ [ [ -67.933, -25.599 ], [ -67.966, -25.599 ], [ -67.999, -25.599 ], [ -67.999, -25.566 ], [ -67.966, -25.566 ], [ -67.966, -25.533 ], [ -67.933, -25.533 ], [ -67.933, -25.566 ], [ -67.933, -25.599 ] ] ], [ [ [ -67.833, -25.533 ], [ -67.833, -25.566 ], [ -67.866, -25.566 ], [ -67.866, -25.533 ], [ -67.833, -25.533 ] ] ], [ [ [ -67.833, -25.533 ], [ -67.833, -25.499 ], [ -67.799, -25.499 ], [ -67.799, -25.533 ], [ -67.833, -25.533 ] ] ], [ [ [ -68.066, -25.466 ], [ -68.099, -25.466 ], [ -68.099, -25.433 ], [ -68.066, -25.433 ], [ -68.066, -25.466 ] ] ], [ [ [ -67.999, -25.466 ], [ -68.033, -25.466 ], [ -68.033, -25.433 ], [ -67.999, -25.433 ], [ -67.999, -25.466 ] ] ], [ [ [ -67.599, -25.299 ], [ -67.599, -25.333 ], [ -67.566, -25.333 ], [ -67.566, -25.366 ], [ -67.599, -25.366 ], [ -67.633, -25.366 ], [ -67.666, -25.366 ], [ -67.666, -25.333 ], [ -67.633, -25.333 ], [ -67.633, -25.299 ], [ -67.599, -25.299 ] ] ], [ [ [ -66.633, -25.199 ], [ -66.666, -25.199 ], [ -66.666, -25.166 ], [ -66.666, -25.133 ], [ -66.666, -25.099 ], [ -66.633, -25.099 ], [ -66.633, -25.133 ], [ -66.633, -25.166 ], [ -66.633, -25.199 ] ] ], [ [ [ -66.599, -25.066 ], [ -66.566, -25.066 ], [ -66.566, -25.099 ], [ -66.566, -25.133 ], [ -66.566, -25.166 ], [ -66.599, -25.166 ], [ -66.599, -25.133 ], [ -66.599, -25.099 ], [ -66.599, -25.066 ] ] ], [ [ [ -66.599, -25.066 ], [ -66.633, -25.066 ], [ -66.633, -25.033 ], [ -66.599, -25.033 ], [ -66.599, -25.066 ] ] ], [ [ [ -66.566, -24.999 ], [ -66.599, -24.999 ], [ -66.599, -24.966 ], [ -66.566, -24.966 ], [ -66.566, -24.999 ] ] ], [ [ [ -66.399, -24.966 ], [ -66.366, -24.966 ], [ -66.366, -24.933 ], [ -66.333, -24.933 ], [ -66.333, -24.966 ], [ -66.333, -24.999 ], [ -66.366, -24.999 ], [ -66.399, -24.999 ], [ -66.399, -24.966 ] ] ], [ [ [ -66.366, -24.933 ], [ -66.399, -24.933 ], [ -66.399, -24.966 ], [ -66.433, -24.966 ], [ -66.433, -24.933 ], [ -66.433, -24.899 ], [ -66.433, -24.866 ], [ -66.399, -24.866 ], [ -66.399, -24.899 ], [ -66.366, -24.899 ], [ -66.366, -24.933 ] ] ], [ [ [ -66.433, -24.733 ], [ -66.433, -24.766 ], [ -66.466, -24.766 ], [ -66.466, -24.733 ], [ -66.433, -24.733 ] ] ], [ [ [ -66.433, -24.733 ], [ -66.433, -24.699 ], [ -66.399, -24.699 ], [ -66.399, -24.733 ], [ -66.433, -24.733 ] ] ], [ [ [ -66.733, -24.333 ], [ -66.733, -24.366 ], [ -66.766, -24.366 ], [ -66.799, -24.366 ], [ -66.799, -24.333 ], [ -66.766, -24.333 ], [ -66.733, -24.333 ] ] ], [ [ [ -66.733, -24.333 ], [ -66.733, -24.299 ], [ -66.766, -24.299 ], [ -66.766, -24.266 ], [ -66.733, -24.266 ], [ -66.699, -24.266 ], [ -66.699, -24.299 ], [ -66.699, -24.333 ], [ -66.733, -24.333 ] ] ] ] } }
]
}
