{
"type": "FeatureCollection",
                                                                                                                                  
"features": [
{ "type": "Feature", "properties": { "pm_icon": "AR_1a", "hzs": "1a" }, "geometry": { "type": "MultiPolygon", "coordinates": [ [ [ [ -69.866, -33.799 ], [ -69.894, -33.799 ], [ -69.894, -33.795 ], [ -69.900, -33.785 ], [ -69.903, -33.773 ], [ -69.903, -33.769 ], [ -69.900, -33.765 ], [ -69.897, -33.760 ], [ -69.896, -33.756 ], [ -69.894, -33.754 ], [ -69.891, -33.750 ], [ -69.887, -33.743 ], [ -69.882, -33.739 ], [ -69.877, -33.734 ], [ -69.876, -33.731 ], [ -69.874, -33.727 ], [ -69.870, -33.723 ], [ -69.863, -33.716 ], [ -69.868, -33.709 ], [ -69.868, -33.702 ], [ -69.868, -33.702 ], [ -69.866, -33.699 ], [ -69.833, -33.699 ], [ -69.833, -33.733 ], [ -69.866, -33.733 ], [ -69.866, -33.766 ], [ -69.866, -33.799 ] ] ], [ [ [ -69.666, -33.466 ], [ -69.699, -33.466 ], [ -69.699, -33.433 ], [ -69.666, -33.433 ], [ -69.666, -33.466 ] ] ], [ [ [ -69.766, -33.399 ], [ -69.766, -33.433 ], [ -69.799, -33.433 ], [ -69.799, -33.466 ], [ -69.799, -33.499 ], [ -69.830, -33.499 ], [ -69.830, -33.498 ], [ -69.829, -33.494 ], [ -69.828, -33.485 ], [ -69.826, -33.477 ], [ -69.824, -33.473 ], [ -69.822, -33.472 ], [ -69.819, -33.470 ], [ -69.815, -33.468 ], [ -69.817, -33.465 ], [ -69.819, -33.463 ], [ -69.821, -33.460 ], [ -69.820, -33.457 ], [ -69.821, -33.454 ], [ -69.819, -33.451 ], [ -69.816, -33.447 ], [ -69.814, -33.444 ], [ -69.814, -33.440 ], [ -69.817, -33.436 ], [ -69.819, -33.432 ], [ -69.817, -33.429 ], [ -69.814, -33.427 ], [ -69.810, -33.427 ], [ -69.805, -33.424 ], [ -69.801, -33.424 ], [ -69.796, -33.424 ], [ -69.795, -33.423 ], [ -69.795, -33.421 ], [ -69.796, -33.419 ], [ -69.796, -33.418 ], [ -69.797, -33.416 ], [ -69.797, -33.414 ], [ -69.797, -33.410 ], [ -69.798, -33.408 ], [ -69.799, -33.406 ], [ -69.800, -33.404 ], [ -69.801, -33.403 ], [ -69.802, -33.402 ], [ -69.804, -33.400 ], [ -69.805, -33.397 ], [ -69.807, -33.396 ], [ -69.805, -33.395 ], [ -69.801, -33.394 ], [ -69.796, -33.393 ], [ -69.788, -33.389 ], [ -69.785, -33.386 ], [ -69.783, -33.383 ], [ -69.766, -33.399 ] ] ], [ [ [ -69.733, -33.366 ], [ -69.771, -33.366 ], [ -69.770, -33.361 ], [ -69.770, -33.356 ], [ -69.771, -33.348 ], [ -69.773, -33.342 ], [ -69.774, -33.340 ], [ -69.766, -33.333 ], [ -69.733, -33.333 ], [ -69.733, -33.366 ] ] ], [ [ [ -70.066, -33.066 ], [ -70.074, -33.074 ], [ -70.074, -33.071 ], [ -70.073, -33.068 ], [ -70.072, -33.066 ], [ -70.073, -33.064 ], [ -70.075, -33.063 ], [ -70.078, -33.062 ], [ -70.079, -33.060 ], [ -70.081, -33.058 ], [ -70.084, -33.056 ], [ -70.087, -33.054 ], [ -70.091, -33.053 ], [ -70.089, -33.051 ], [ -70.088, -33.049 ], [ -70.087, -33.046 ], [ -70.085, -33.044 ], [ -70.085, -33.042 ], [ -70.086, -33.040 ], [ -70.085, -33.039 ], [ -70.086, -33.037 ], [ -70.085, -33.036 ], [ -70.085, -33.034 ], [ -70.082, -33.031 ], [ -70.078, -33.030 ], [ -70.073, -33.028 ], [ -70.069, -33.027 ], [ -70.066, -33.027 ], [ -70.066, -33.066 ] ] ], [ [ [ -69.433, -33.033 ], [ -69.466, -33.033 ], [ -69.466, -32.999 ], [ -69.433, -32.999 ], [ -69.433, -33.033 ] ] ], [ [ [ -69.999, -32.699 ], [ -70.033, -32.699 ], [ -70.033, -32.666 ], [ -70.033, -32.633 ], [ -69.999, -32.633 ], [ -69.999, -32.666 ], [ -69.999, -32.699 ] ] ], [ [ [ -70.099, -32.033 ], [ -70.099, -32.066 ], [ -70.066, -32.066 ], [ -70.066, -32.099 ], [ -70.099, -32.099 ], [ -70.133, -32.099 ], [ -70.133, -32.066 ], [ -70.133, -32.033 ], [ -70.099, -32.033 ] ] ], [ [ [ -69.966, -32.099 ], [ -69.966, -32.133 ], [ -69.999, -32.133 ], [ -69.999, -32.099 ], [ -70.033, -32.099 ], [ -70.033, -32.066 ], [ -69.999, -32.066 ], [ -69.999, -32.033 ], [ -69.966, -32.033 ], [ -69.966, -32.066 ], [ -69.966, -32.099 ] ] ], [ [ [ -70.099, -31.999 ], [ -70.133, -31.999 ], [ -70.133, -31.966 ], [ -70.133, -31.933 ], [ -70.099, -31.933 ], [ -70.066, -31.933 ], [ -70.066, -31.966 ], [ -70.066, -31.999 ], [ -70.099, -31.999 ] ] ], [ [ [ -69.966, -31.466 ], [ -69.966, -31.499 ], [ -69.999, -31.499 ], [ -69.999, -31.466 ], [ -70.033, -31.466 ], [ -70.033, -31.433 ], [ -69.999, -31.433 ], [ -69.999, -31.399 ], [ -69.966, -31.399 ], [ -69.966, -31.433 ], [ -69.966, -31.466 ] ] ], [ [ [ -69.766, -30.366 ], [ -69.766, -30.399 ], [ -69.733, -30.399 ], [ -69.733, -30.433 ], [ -69.733, -30.466 ], [ -69.766, -30.466 ], [ -69.799, -30.466 ], [ -69.799, -30.433 ], [ -69.833, -30.433 ], [ -69.833, -30.399 ], [ -69.833, -30.366 ], [ -69.799, -30.366 ], [ -69.766, -30.366 ] ] ], [ [ [ -69.866, -30.299 ], [ -69.833, -30.299 ], [ -69.833, -30.333 ], [ -69.866, -30.333 ], [ -69.866, -30.299 ] ] ], [ [ [ -69.866, -30.299 ], [ -69.899, -30.299 ], [ -69.900, -30.298 ], [ -69.901, -30.296 ], [ -69.896, -30.293 ], [ -69.895, -30.290 ], [ -69.894, -30.286 ], [ -69.897, -30.280 ], [ -69.895, -30.277 ], [ -69.894, -30.274 ], [ -69.894, -30.272 ], [ -69.891, -30.271 ], [ -69.888, -30.274 ], [ -69.886, -30.273 ], [ -69.882, -30.272 ], [ -69.883, -30.268 ], [ -69.882, -30.266 ], [ -69.866, -30.266 ], [ -69.866, -30.299 ] ] ], [ [ [ -69.466, -29.566 ], [ -69.433, -29.566 ], [ -69.433, -29.599 ], [ -69.433, -29.633 ], [ -69.433, -29.666 ], [ -69.433, -29.699 ], [ -69.466, -29.699 ], [ -69.499, -29.699 ], [ -69.499, -29.666 ], [ -69.499, -29.633 ], [ -69.499, -29.599 ], [ -69.466, -29.599 ], [ -69.466, -29.566 ] ] ], [ [ [ -69.466, -29.566 ], [ -69.499, -29.566 ], [ -69.499, -29.533 ], [ -69.466, -29.533 ], [ -69.466, -29.566 ] ] ], [ [ [ -67.799, -29.033 ], [ -67.799, -29.066 ], [ -67.799, -29.099 ], [ -67.833, -29.099 ], [ -67.833, -29.066 ], [ -67.833, -29.033 ], [ -67.866, -29.033 ], [ -67.866, -28.999 ], [ -67.833, -28.999 ], [ -67.833, -28.966 ], [ -67.833, -28.933 ], [ -67.799, -28.933 ], [ -67.799, -28.966 ], [ -67.799, -28.999 ], [ -67.799, -29.033 ] ] ], [ [ [ -68.966, -28.033 ], [ -68.966, -28.066 ], [ -68.933, -28.066 ], [ -68.933, -28.099 ], [ -68.966, -28.099 ], [ -68.999, -28.099 ], [ -68.999, -28.066 ], [ -68.999, -28.033 ], [ -68.966, -28.033 ] ] ], [ [ [ -68.633, -27.999 ], [ -68.666, -27.999 ], [ -68.666, -27.966 ], [ -68.633, -27.966 ], [ -68.633, -27.999 ] ] ], [ [ [ -68.699, -27.899 ], [ -68.699, -27.933 ], [ -68.699, -27.966 ], [ -68.699, -27.999 ], [ -68.699, -28.033 ], [ -68.733, -28.033 ], [ -68.733, -28.066 ], [ -68.766, -28.066 ], [ -68.799, -28.066 ], [ -68.799, -28.033 ], [ -68.799, -27.999 ], [ -68.766, -27.999 ], [ -68.766, -27.966 ], [ -68.799, -27.966 ], [ -68.799, -27.933 ], [ -68.799, -27.899 ], [ -68.799, -27.866 ], [ -68.766, -27.866 ], [ -68.733, -27.866 ], [ -68.733, -27.899 ], [ -68.699, -27.899 ] ] ], [ [ [ -68.699, -27.899 ], [ -68.699, -27.866 ], [ -68.666, -27.866 ], [ -68.666, -27.899 ], [ -68.699, -27.899 ] ] ], [ [ [ -68.833, -27.866 ], [ -68.833, -27.899 ], [ -68.866, -27.899 ], [ -68.866, -27.933 ], [ -68.866, -27.966 ], [ -68.899, -27.966 ], [ -68.899, -27.999 ], [ -68.866, -27.999 ], [ -68.866, -28.033 ], [ -68.899, -28.033 ], [ -68.933, -28.033 ], [ -68.933, -27.999 ], [ -68.933, -27.966 ], [ -68.966, -27.966 ], [ -68.966, -27.933 ], [ -68.966, -27.899 ], [ -68.933, -27.899 ], [ -68.933, -27.866 ], [ -68.933, -27.833 ], [ -68.899, -27.833 ], [ -68.899, -27.866 ], [ -68.866, -27.866 ], [ -68.833, -27.866 ] ] ], [ [ [ -68.799, -27.866 ], [ -68.833, -27.866 ], [ -68.833, -27.833 ], [ -68.799, -27.833 ], [ -68.799, -27.866 ] ] ], [ [ [ -68.799, -27.699 ], [ -68.799, -27.733 ], [ -68.766, -27.733 ], [ -68.733, -27.733 ], [ -68.733, -27.766 ], [ -68.699, -27.766 ], [ -68.699, -27.799 ], [ -68.666, -27.799 ], [ -68.666, -27.833 ], [ -68.699, -27.833 ], [ -68.733, -27.833 ], [ -68.766, -27.833 ], [ -68.766, -27.799 ], [ -68.799, -27.799 ], [ -68.833, -27.799 ], [ -68.866, -27.799 ], [ -68.866, -27.766 ], [ -68.866, -27.733 ], [ -68.866, -27.699 ], [ -68.833, -27.699 ], [ -68.799, -27.699 ] ] ], [ [ [ -68.758, -27.107 ], [ -68.751, -27.113 ], [ -68.749, -27.109 ], [ -68.745, -27.105 ], [ -68.740, -27.102 ], [ -68.734, -27.101 ], [ -68.726, -27.103 ], [ -68.718, -27.105 ], [ -68.713, -27.104 ], [ -68.708, -27.101 ], [ -68.703, -27.100 ], [ -68.699, -27.100 ], [ -68.699, -27.133 ], [ -68.733, -27.133 ], [ -68.766, -27.133 ], [ -68.799, -27.133 ], [ -68.799, -27.166 ], [ -68.833, -27.166 ], [ -68.839, -27.160 ], [ -68.841, -27.154 ], [ -68.834, -27.151 ], [ -68.827, -27.149 ], [ -68.819, -27.147 ], [ -68.814, -27.145 ], [ -68.808, -27.145 ], [ -68.805, -27.140 ], [ -68.801, -27.132 ], [ -68.801, -27.132 ], [ -68.799, -27.127 ], [ -68.796, -27.121 ], [ -68.793, -27.114 ], [ -68.790, -27.108 ], [ -68.787, -27.104 ], [ -68.778, -27.098 ], [ -68.770, -27.102 ], [ -68.766, -27.104 ], [ -68.763, -27.105 ], [ -68.758, -27.107 ] ] ], [ [ [ -68.463, -27.089 ], [ -68.450, -27.095 ], [ -68.451, -27.089 ], [ -68.449, -27.086 ], [ -68.444, -27.082 ], [ -68.442, -27.079 ], [ -68.438, -27.077 ], [ -68.436, -27.075 ], [ -68.430, -27.069 ], [ -68.432, -27.065 ], [ -68.431, -27.063 ], [ -68.429, -27.064 ], [ -68.419, -27.065 ], [ -68.412, -27.064 ], [ -68.407, -27.064 ], [ -68.404, -27.067 ], [ -68.399, -27.063 ], [ -68.399, -27.099 ], [ -68.433, -27.099 ], [ -68.433, -27.133 ], [ -68.433, -27.166 ], [ -68.433, -27.199 ], [ -68.466, -27.199 ], [ -68.466, -27.233 ], [ -68.499, -27.233 ], [ -68.499, -27.266 ], [ -68.466, -27.266 ], [ -68.466, -27.299 ], [ -68.499, -27.299 ], [ -68.499, -27.333 ], [ -68.533, -27.333 ], [ -68.566, -27.333 ], [ -68.566, -27.299 ], [ -68.566, -27.266 ], [ -68.599, -27.266 ], [ -68.599, -27.233 ], [ -68.633, -27.233 ], [ -68.633, -27.199 ], [ -68.633, -27.166 ], [ -68.628, -27.162 ], [ -68.623, -27.165 ], [ -68.618, -27.169 ], [ -68.610, -27.163 ], [ -68.607, -27.159 ], [ -68.602, -27.159 ], [ -68.599, -27.160 ], [ -68.595, -27.162 ], [ -68.586, -27.169 ], [ -68.579, -27.174 ], [ -68.572, -27.179 ], [ -68.569, -27.171 ], [ -68.570, -27.165 ], [ -68.569, -27.163 ], [ -68.568, -27.159 ], [ -68.567, -27.157 ], [ -68.567, -27.152 ], [ -68.564, -27.145 ], [ -68.561, -27.140 ], [ -68.556, -27.137 ], [ -68.554, -27.134 ], [ -68.554, -27.133 ], [ -68.555, -27.129 ], [ -68.559, -27.124 ], [ -68.558, -27.120 ], [ -68.556, -27.114 ], [ -68.551, -27.114 ], [ -68.540, -27.109 ], [ -68.539, -27.109 ], [ -68.528, -27.118 ], [ -68.522, -27.122 ], [ -68.518, -27.125 ], [ -68.513, -27.128 ], [ -68.508, -27.130 ], [ -68.500, -27.133 ], [ -68.499, -27.133 ], [ -68.496, -27.135 ], [ -68.491, -27.135 ], [ -68.487, -27.133 ], [ -68.484, -27.127 ], [ -68.480, -27.122 ], [ -68.476, -27.120 ], [ -68.479, -27.117 ], [ -68.479, -27.114 ], [ -68.477, -27.113 ], [ -68.473, -27.111 ], [ -68.483, -27.060 ], [ -68.484, -27.058 ], [ -68.479, -27.069 ], [ -68.471, -27.079 ], [ -68.463, -27.089 ] ] ], [ [ [ -68.266, -27.033 ], [ -68.266, -27.066 ], [ -68.299, -27.066 ], [ -68.333, -27.066 ], [ -68.333, -27.034 ], [ -68.329, -27.034 ], [ -68.320, -27.036 ], [ -68.316, -27.036 ], [ -68.308, -27.037 ], [ -68.301, -27.036 ], [ -68.299, -27.035 ], [ -68.295, -27.033 ], [ -68.296, -27.033 ], [ -68.296, -27.028 ], [ -68.299, -27.020 ], [ -68.305, -27.010 ], [ -68.307, -27.007 ], [ -68.299, -26.999 ], [ -68.266, -26.999 ], [ -68.266, -27.033 ] ] ], [ [ [ -68.233, -26.933 ], [ -68.266, -26.933 ], [ -68.275, -26.924 ], [ -68.269, -26.924 ], [ -68.263, -26.919 ], [ -68.267, -26.909 ], [ -68.272, -26.906 ], [ -68.266, -26.899 ], [ -68.233, -26.899 ], [ -68.233, -26.933 ] ] ], [ [ [ -67.966, -26.799 ], [ -67.999, -26.799 ], [ -67.999, -26.766 ], [ -67.966, -26.766 ], [ -67.966, -26.799 ] ] ], [ [ [ -68.333, -26.666 ], [ -68.366, -26.666 ], [ -68.366, -26.633 ], [ -68.366, -26.599 ], [ -68.333, -26.599 ], [ -68.333, -26.633 ], [ -68.333, -26.666 ] ] ], [ [ [ -67.066, -26.566 ], [ -67.099, -26.566 ], [ -67.099, -26.533 ], [ -67.066, -26.533 ], [ -67.066, -26.499 ], [ -67.033, -26.499 ], [ -67.033, -26.533 ], [ -67.033, -26.566 ], [ -67.066, -26.566 ] ] ], [ [ [ -68.579, -26.453 ], [ -68.566, -26.466 ], [ -68.533, -26.466 ], [ -68.533, -26.499 ], [ -68.499, -26.499 ], [ -68.499, -26.533 ], [ -68.533, -26.533 ], [ -68.548, -26.548 ], [ -68.568, -26.521 ], [ -68.574, -26.515 ], [ -68.585, -26.493 ], [ -68.579, -26.453 ] ] ], [ [ [ -67.033, -26.399 ], [ -67.066, -26.399 ], [ -67.066, -26.366 ], [ -67.033, -26.366 ], [ -66.999, -26.366 ], [ -66.999, -26.399 ], [ -67.033, -26.399 ] ] ], [ [ [ -66.933, -25.999 ], [ -66.966, -25.999 ], [ -66.966, -25.966 ], [ -66.966, -25.933 ], [ -66.933, -25.933 ], [ -66.899, -25.933 ], [ -66.899, -25.966 ], [ -66.899, -25.999 ], [ -66.933, -25.999 ] ] ], [ [ [ -67.899, -25.533 ], [ -67.899, -25.566 ], [ -67.866, -25.566 ], [ -67.866, -25.599 ], [ -67.899, -25.599 ], [ -67.933, -25.599 ], [ -67.933, -25.566 ], [ -67.933, -25.533 ], [ -67.899, -25.533 ] ] ], [ [ [ -66.366, -24.966 ], [ -66.399, -24.966 ], [ -66.399, -24.933 ], [ -66.366, -24.933 ], [ -66.366, -24.966 ] ] ] ] } }
]
}
