{
"type": "FeatureCollection",
                                                                                                                                  
"features": [
{ "type": "Feature", "properties": { "pm_icon": "AR_2b", "hzs": "2b" }, "geometry": { "type": "MultiPolygon", "coordinates": [ [ [ [ -69.566, -34.399 ], [ -69.599, -34.399 ], [ -69.599, -34.366 ], [ -69.599, -34.333 ], [ -69.566, -34.333 ], [ -69.566, -34.366 ], [ -69.566, -34.399 ] ] ], [ [ [ -69.999, -34.299 ], [ -70.027, -34.299 ], [ -70.030, -34.295 ], [ -70.031, -34.294 ], [ -70.031, -34.292 ], [ -70.031, -34.291 ], [ -70.030, -34.289 ], [ -70.030, -34.288 ], [ -70.028, -34.287 ], [ -70.025, -34.286 ], [ -70.024, -34.285 ], [ -70.023, -34.283 ], [ -70.023, -34.282 ], [ -70.020, -34.281 ], [ -70.019, -34.281 ], [ -70.018, -34.281 ], [ -70.018, -34.281 ], [ -70.018, -34.280 ], [ -70.019, -34.278 ], [ -70.019, -34.277 ], [ -70.019, -34.277 ], [ -70.019, -34.276 ], [ -70.017, -34.276 ], [ -70.016, -34.276 ], [ -70.014, -34.275 ], [ -70.013, -34.275 ], [ -70.012, -34.274 ], [ -70.013, -34.273 ], [ -70.012, -34.272 ], [ -70.012, -34.271 ], [ -70.011, -34.269 ], [ -70.010, -34.267 ], [ -70.009, -34.266 ], [ -70.007, -34.265 ], [ -70.005, -34.264 ], [ -70.004, -34.263 ], [ -70.001, -34.261 ], [ -69.999, -34.260 ], [ -69.999, -34.299 ] ] ], [ [ [ -69.599, -34.166 ], [ -69.633, -34.166 ], [ -69.633, -34.133 ], [ -69.599, -34.133 ], [ -69.599, -34.166 ] ] ], [ [ [ -69.533, -34.133 ], [ -69.566, -34.133 ], [ -69.566, -34.099 ], [ -69.533, -34.099 ], [ -69.533, -34.133 ] ] ], [ [ [ -69.833, -33.933 ], [ -69.833, -33.966 ], [ -69.847, -33.980 ], [ -69.849, -33.977 ], [ -69.851, -33.975 ], [ -69.853, -33.972 ], [ -69.854, -33.968 ], [ -69.852, -33.962 ], [ -69.861, -33.962 ], [ -69.866, -33.963 ], [ -69.866, -33.933 ], [ -69.833, -33.933 ] ] ], [ [ [ -69.833, -33.799 ], [ -69.866, -33.799 ], [ -69.866, -33.766 ], [ -69.833, -33.766 ], [ -69.833, -33.799 ] ] ], [ [ [ -69.799, -33.733 ], [ -69.833, -33.733 ], [ -69.833, -33.699 ], [ -69.799, -33.699 ], [ -69.799, -33.733 ] ] ], [ [ [ -69.499, -33.733 ], [ -69.499, -33.766 ], [ -69.499, -33.799 ], [ -69.533, -33.799 ], [ -69.566, -33.799 ], [ -69.599, -33.799 ], [ -69.599, -33.766 ], [ -69.566, -33.766 ], [ -69.533, -33.766 ], [ -69.533, -33.733 ], [ -69.566, -33.733 ], [ -69.566, -33.699 ], [ -69.566, -33.666 ], [ -69.533, -33.666 ], [ -69.499, -33.666 ], [ -69.499, -33.699 ], [ -69.499, -33.733 ] ] ], [ [ [ -69.866, -33.699 ], [ -69.868, -33.702 ], [ -69.870, -33.698 ], [ -69.872, -33.695 ], [ -69.873, -33.693 ], [ -69.877, -33.689 ], [ -69.880, -33.687 ], [ -69.883, -33.685 ], [ -69.884, -33.683 ], [ -69.884, -33.681 ], [ -69.882, -33.676 ], [ -69.881, -33.672 ], [ -69.881, -33.667 ], [ -69.880, -33.662 ], [ -69.880, -33.659 ], [ -69.877, -33.657 ], [ -69.876, -33.656 ], [ -69.866, -33.666 ], [ -69.866, -33.699 ] ] ], [ [ [ -69.833, -33.566 ], [ -69.869, -33.566 ], [ -69.869, -33.565 ], [ -69.871, -33.561 ], [ -69.873, -33.557 ], [ -69.873, -33.554 ], [ -69.871, -33.548 ], [ -69.871, -33.543 ], [ -69.870, -33.539 ], [ -69.867, -33.536 ], [ -69.862, -33.533 ], [ -69.858, -33.530 ], [ -69.857, -33.527 ], [ -69.854, -33.525 ], [ -69.849, -33.521 ], [ -69.846, -33.520 ], [ -69.833, -33.533 ], [ -69.833, -33.566 ] ] ], [ [ [ -69.633, -33.566 ], [ -69.666, -33.566 ], [ -69.666, -33.533 ], [ -69.666, -33.499 ], [ -69.633, -33.499 ], [ -69.633, -33.533 ], [ -69.633, -33.566 ] ] ], [ [ [ -69.766, -33.566 ], [ -69.799, -33.566 ], [ -69.799, -33.533 ], [ -69.799, -33.499 ], [ -69.799, -33.466 ], [ -69.766, -33.466 ], [ -69.766, -33.499 ], [ -69.766, -33.533 ], [ -69.766, -33.566 ] ] ], [ [ [ -69.633, -33.566 ], [ -69.599, -33.566 ], [ -69.599, -33.533 ], [ -69.599, -33.499 ], [ -69.599, -33.466 ], [ -69.566, -33.466 ], [ -69.566, -33.499 ], [ -69.566, -33.533 ], [ -69.566, -33.566 ], [ -69.566, -33.599 ], [ -69.599, -33.599 ], [ -69.633, -33.599 ], [ -69.633, -33.566 ] ] ], [ [ [ -69.599, -33.466 ], [ -69.633, -33.466 ], [ -69.666, -33.466 ], [ -69.666, -33.433 ], [ -69.633, -33.433 ], [ -69.599, -33.433 ], [ -69.599, -33.466 ] ] ], [ [ [ -69.733, -33.399 ], [ -69.733, -33.433 ], [ -69.766, -33.433 ], [ -69.766, -33.399 ], [ -69.733, -33.399 ] ] ], [ [ [ -69.733, -33.399 ], [ -69.733, -33.366 ], [ -69.733, -33.333 ], [ -69.699, -33.333 ], [ -69.666, -33.333 ], [ -69.666, -33.366 ], [ -69.699, -33.366 ], [ -69.699, -33.399 ], [ -69.733, -33.399 ] ] ], [ [ [ -69.733, -33.333 ], [ -69.766, -33.333 ], [ -69.766, -33.299 ], [ -69.733, -33.299 ], [ -69.733, -33.333 ] ] ], [ [ [ -69.766, -33.299 ], [ -69.794, -33.300 ], [ -69.797, -33.293 ], [ -69.800, -33.287 ], [ -69.807, -33.289 ], [ -69.811, -33.289 ], [ -69.816, -33.288 ], [ -69.821, -33.284 ], [ -69.824, -33.281 ], [ -69.829, -33.278 ], [ -69.831, -33.275 ], [ -69.834, -33.273 ], [ -69.839, -33.272 ], [ -69.833, -33.266 ], [ -69.799, -33.266 ], [ -69.766, -33.266 ], [ -69.766, -33.299 ] ] ], [ [ [ -69.999, -33.266 ], [ -70.014, -33.281 ], [ -70.020, -33.278 ], [ -70.027, -33.275 ], [ -70.032, -33.273 ], [ -70.037, -33.270 ], [ -70.037, -33.264 ], [ -70.035, -33.259 ], [ -70.032, -33.254 ], [ -70.029, -33.249 ], [ -70.029, -33.245 ], [ -70.028, -33.237 ], [ -70.027, -33.233 ], [ -70.027, -33.233 ], [ -69.999, -33.233 ], [ -69.999, -33.266 ] ] ], [ [ [ -69.866, -33.233 ], [ -69.866, -33.279 ], [ -69.870, -33.277 ], [ -69.874, -33.275 ], [ -69.878, -33.275 ], [ -69.883, -33.275 ], [ -69.887, -33.276 ], [ -69.895, -33.275 ], [ -69.899, -33.275 ], [ -69.899, -33.233 ], [ -69.866, -33.233 ] ] ], [ [ [ -69.666, -33.299 ], [ -69.699, -33.299 ], [ -69.699, -33.266 ], [ -69.699, -33.233 ], [ -69.666, -33.233 ], [ -69.666, -33.266 ], [ -69.666, -33.299 ] ] ], [ [ [ -70.033, -33.199 ], [ -70.033, -33.231 ], [ -70.035, -33.230 ], [ -70.041, -33.229 ], [ -70.047, -33.227 ], [ -70.054, -33.225 ], [ -70.056, -33.221 ], [ -70.059, -33.216 ], [ -70.061, -33.213 ], [ -70.065, -33.206 ], [ -70.068, -33.199 ], [ -70.033, -33.199 ] ] ], [ [ [ -69.699, -33.199 ], [ -69.733, -33.199 ], [ -69.733, -33.166 ], [ -69.699, -33.166 ], [ -69.699, -33.199 ] ] ], [ [ [ -69.633, -33.166 ], [ -69.599, -33.166 ], [ -69.599, -33.199 ], [ -69.633, -33.199 ], [ -69.633, -33.166 ] ] ], [ [ [ -69.633, -33.166 ], [ -69.666, -33.166 ], [ -69.666, -33.133 ], [ -69.633, -33.133 ], [ -69.633, -33.166 ] ] ], [ [ [ -69.533, -33.166 ], [ -69.566, -33.166 ], [ -69.566, -33.133 ], [ -69.533, -33.133 ], [ -69.533, -33.166 ] ] ], [ [ [ -69.899, -33.099 ], [ -69.899, -33.133 ], [ -69.933, -33.133 ], [ -69.966, -33.133 ], [ -69.966, -33.099 ], [ -69.933, -33.099 ], [ -69.899, -33.099 ] ] ], [ [ [ -69.699, -33.099 ], [ -69.699, -33.133 ], [ -69.733, -33.133 ], [ -69.733, -33.099 ], [ -69.699, -33.099 ] ] ], [ [ [ -69.899, -33.099 ], [ -69.899, -33.066 ], [ -69.866, -33.066 ], [ -69.866, -33.099 ], [ -69.899, -33.099 ] ] ], [ [ [ -69.699, -33.099 ], [ -69.699, -33.066 ], [ -69.666, -33.066 ], [ -69.666, -33.099 ], [ -69.699, -33.099 ] ] ], [ [ [ -69.599, -33.066 ], [ -69.599, -33.099 ], [ -69.633, -33.099 ], [ -69.633, -33.066 ], [ -69.599, -33.066 ] ] ], [ [ [ -69.399, -33.066 ], [ -69.433, -33.066 ], [ -69.433, -33.033 ], [ -69.399, -33.033 ], [ -69.399, -33.066 ] ] ], [ [ [ -69.866, -33.033 ], [ -69.899, -33.033 ], [ -69.899, -32.999 ], [ -69.866, -32.999 ], [ -69.866, -33.033 ] ] ], [ [ [ -69.599, -33.066 ], [ -69.599, -33.033 ], [ -69.599, -32.999 ], [ -69.566, -32.999 ], [ -69.566, -33.033 ], [ -69.566, -33.066 ], [ -69.599, -33.066 ] ] ], [ [ [ -69.533, -32.999 ], [ -69.499, -32.999 ], [ -69.499, -33.033 ], [ -69.499, -33.066 ], [ -69.533, -33.066 ], [ -69.533, -33.033 ], [ -69.533, -32.999 ] ] ], [ [ [ -69.933, -32.966 ], [ -69.933, -32.999 ], [ -69.966, -32.999 ], [ -69.966, -33.033 ], [ -69.999, -33.033 ], [ -69.999, -32.995 ], [ -69.994, -32.996 ], [ -69.988, -32.997 ], [ -69.985, -32.996 ], [ -69.984, -32.996 ], [ -69.983, -32.990 ], [ -69.980, -32.987 ], [ -69.980, -32.981 ], [ -69.980, -32.980 ], [ -69.966, -32.966 ], [ -69.933, -32.966 ] ] ], [ [ [ -69.599, -32.999 ], [ -69.633, -32.999 ], [ -69.633, -32.966 ], [ -69.599, -32.966 ], [ -69.599, -32.999 ] ] ], [ [ [ -69.633, -32.966 ], [ -69.666, -32.966 ], [ -69.666, -32.933 ], [ -69.633, -32.933 ], [ -69.633, -32.966 ] ] ], [ [ [ -69.666, -32.933 ], [ -69.699, -32.933 ], [ -69.699, -32.899 ], [ -69.666, -32.899 ], [ -69.666, -32.933 ] ] ], [ [ [ -69.533, -32.999 ], [ -69.566, -32.999 ], [ -69.566, -32.966 ], [ -69.566, -32.933 ], [ -69.599, -32.933 ], [ -69.599, -32.899 ], [ -69.566, -32.899 ], [ -69.533, -32.899 ], [ -69.533, -32.933 ], [ -69.533, -32.966 ], [ -69.533, -32.999 ] ] ], [ [ [ -69.433, -32.899 ], [ -69.399, -32.899 ], [ -69.399, -32.933 ], [ -69.399, -32.966 ], [ -69.433, -32.966 ], [ -69.433, -32.933 ], [ -69.433, -32.899 ] ] ], [ [ [ -69.433, -32.899 ], [ -69.466, -32.899 ], [ -69.466, -32.866 ], [ -69.433, -32.866 ], [ -69.433, -32.899 ] ] ], [ [ [ -69.599, -32.899 ], [ -69.633, -32.899 ], [ -69.633, -32.866 ], [ -69.633, -32.833 ], [ -69.599, -32.833 ], [ -69.599, -32.866 ], [ -69.599, -32.899 ] ] ], [ [ [ -70.066, -32.733 ], [ -70.033, -32.733 ], [ -70.033, -32.766 ], [ -70.066, -32.766 ], [ -70.066, -32.733 ] ] ], [ [ [ -70.066, -32.733 ], [ -70.099, -32.733 ], [ -70.099, -32.699 ], [ -70.099, -32.666 ], [ -70.066, -32.666 ], [ -70.033, -32.666 ], [ -70.033, -32.699 ], [ -70.066, -32.699 ], [ -70.066, -32.733 ] ] ], [ [ [ -69.966, -32.699 ], [ -69.999, -32.699 ], [ -69.999, -32.666 ], [ -69.966, -32.666 ], [ -69.966, -32.699 ] ] ], [ [ [ -69.899, -32.766 ], [ -69.933, -32.766 ], [ -69.933, -32.733 ], [ -69.933, -32.699 ], [ -69.933, -32.666 ], [ -69.899, -32.666 ], [ -69.899, -32.699 ], [ -69.899, -32.733 ], [ -69.899, -32.766 ] ] ], [ [ [ -69.933, -32.633 ], [ -69.966, -32.633 ], [ -69.966, -32.599 ], [ -69.933, -32.599 ], [ -69.933, -32.633 ] ] ], [ [ [ -69.766, -32.599 ], [ -69.766, -32.633 ], [ -69.733, -32.633 ], [ -69.733, -32.666 ], [ -69.766, -32.666 ], [ -69.799, -32.666 ], [ -69.799, -32.633 ], [ -69.799, -32.599 ], [ -69.766, -32.599 ] ] ], [ [ [ -70.099, -32.533 ], [ -70.099, -32.566 ], [ -70.066, -32.566 ], [ -70.033, -32.566 ], [ -70.033, -32.599 ], [ -70.066, -32.599 ], [ -70.099, -32.599 ], [ -70.133, -32.599 ], [ -70.163, -32.599 ], [ -70.162, -32.596 ], [ -70.158, -32.592 ], [ -70.157, -32.590 ], [ -70.155, -32.586 ], [ -70.154, -32.583 ], [ -70.151, -32.580 ], [ -70.148, -32.580 ], [ -70.144, -32.580 ], [ -70.138, -32.578 ], [ -70.135, -32.577 ], [ -70.130, -32.576 ], [ -70.126, -32.576 ], [ -70.123, -32.576 ], [ -70.124, -32.572 ], [ -70.125, -32.568 ], [ -70.127, -32.564 ], [ -70.126, -32.560 ], [ -70.125, -32.556 ], [ -70.127, -32.552 ], [ -70.125, -32.546 ], [ -70.124, -32.542 ], [ -70.123, -32.538 ], [ -70.124, -32.534 ], [ -70.125, -32.533 ], [ -70.099, -32.533 ] ] ], [ [ [ -69.699, -32.599 ], [ -69.733, -32.599 ], [ -69.733, -32.566 ], [ -69.733, -32.533 ], [ -69.699, -32.533 ], [ -69.699, -32.566 ], [ -69.699, -32.599 ] ] ], [ [ [ -69.766, -32.533 ], [ -69.799, -32.533 ], [ -69.799, -32.499 ], [ -69.766, -32.499 ], [ -69.766, -32.533 ] ] ], [ [ [ -70.033, -32.533 ], [ -70.066, -32.533 ], [ -70.066, -32.499 ], [ -70.066, -32.466 ], [ -70.033, -32.466 ], [ -70.033, -32.499 ], [ -70.033, -32.533 ] ] ], [ [ [ -69.699, -32.499 ], [ -69.733, -32.499 ], [ -69.733, -32.466 ], [ -69.699, -32.466 ], [ -69.699, -32.499 ] ] ], [ [ [ -69.733, -32.299 ], [ -69.733, -32.333 ], [ -69.699, -32.333 ], [ -69.699, -32.366 ], [ -69.733, -32.366 ], [ -69.766, -32.366 ], [ -69.799, -32.366 ], [ -69.799, -32.333 ], [ -69.766, -32.333 ], [ -69.766, -32.299 ], [ -69.733, -32.299 ] ] ], [ [ [ -69.933, -32.199 ], [ -69.966, -32.199 ], [ -69.966, -32.166 ], [ -69.933, -32.166 ], [ -69.933, -32.199 ] ] ], [ [ [ -69.599, -32.166 ], [ -69.599, -32.199 ], [ -69.566, -32.199 ], [ -69.566, -32.233 ], [ -69.599, -32.233 ], [ -69.599, -32.266 ], [ -69.633, -32.266 ], [ -69.633, -32.299 ], [ -69.633, -32.333 ], [ -69.666, -32.333 ], [ -69.666, -32.299 ], [ -69.666, -32.266 ], [ -69.666, -32.233 ], [ -69.666, -32.199 ], [ -69.633, -32.199 ], [ -69.633, -32.166 ], [ -69.633, -32.133 ], [ -69.599, -32.133 ], [ -69.599, -32.166 ] ] ], [ [ [ -70.133, -32.099 ], [ -70.099, -32.099 ], [ -70.099, -32.133 ], [ -70.133, -32.133 ], [ -70.133, -32.099 ] ] ], [ [ [ -70.133, -32.099 ], [ -70.166, -32.099 ], [ -70.166, -32.066 ], [ -70.133, -32.066 ], [ -70.133, -32.099 ] ] ], [ [ [ -70.033, -32.066 ], [ -70.066, -32.066 ], [ -70.066, -32.033 ], [ -70.033, -32.033 ], [ -70.033, -32.066 ] ] ], [ [ [ -69.966, -32.033 ], [ -69.933, -32.033 ], [ -69.933, -32.066 ], [ -69.933, -32.099 ], [ -69.966, -32.099 ], [ -69.966, -32.066 ], [ -69.966, -32.033 ] ] ], [ [ [ -70.133, -32.033 ], [ -70.166, -32.033 ], [ -70.166, -31.999 ], [ -70.133, -31.999 ], [ -70.133, -32.033 ] ] ], [ [ [ -69.966, -32.033 ], [ -69.999, -32.033 ], [ -69.999, -31.999 ], [ -69.966, -31.999 ], [ -69.966, -32.033 ] ] ], [ [ [ -70.166, -31.966 ], [ -70.199, -31.966 ], [ -70.213, -31.952 ], [ -70.213, -31.951 ], [ -70.214, -31.950 ], [ -70.216, -31.949 ], [ -70.199, -31.933 ], [ -70.166, -31.933 ], [ -70.166, -31.966 ] ] ], [ [ [ -70.066, -31.933 ], [ -70.099, -31.933 ], [ -70.099, -31.899 ], [ -70.066, -31.899 ], [ -70.066, -31.933 ] ] ], [ [ [ -70.266, -31.866 ], [ -70.266, -31.904 ], [ -70.268, -31.902 ], [ -70.268, -31.900 ], [ -70.268, -31.897 ], [ -70.270, -31.894 ], [ -70.271, -31.891 ], [ -70.273, -31.889 ], [ -70.276, -31.887 ], [ -70.279, -31.884 ], [ -70.285, -31.883 ], [ -70.290, -31.883 ], [ -70.294, -31.884 ], [ -70.298, -31.884 ], [ -70.306, -31.883 ], [ -70.313, -31.881 ], [ -70.314, -31.881 ], [ -70.299, -31.866 ], [ -70.266, -31.866 ] ] ], [ [ [ -70.166, -31.866 ], [ -70.199, -31.866 ], [ -70.199, -31.833 ], [ -70.199, -31.799 ], [ -70.199, -31.766 ], [ -70.166, -31.766 ], [ -70.166, -31.799 ], [ -70.166, -31.833 ], [ -70.166, -31.866 ] ] ], [ [ [ -69.866, -31.666 ], [ -69.866, -31.699 ], [ -69.899, -31.699 ], [ -69.933, -31.699 ], [ -69.933, -31.666 ], [ -69.899, -31.666 ], [ -69.866, -31.666 ] ] ], [ [ [ -69.866, -31.666 ], [ -69.866, -31.633 ], [ -69.866, -31.599 ], [ -69.833, -31.599 ], [ -69.833, -31.633 ], [ -69.833, -31.666 ], [ -69.866, -31.666 ] ] ], [ [ [ -69.899, -31.599 ], [ -69.933, -31.599 ], [ -69.933, -31.566 ], [ -69.899, -31.566 ], [ -69.899, -31.599 ] ] ], [ [ [ -69.966, -31.599 ], [ -69.999, -31.599 ], [ -69.999, -31.566 ], [ -69.999, -31.533 ], [ -69.966, -31.533 ], [ -69.966, -31.566 ], [ -69.966, -31.599 ] ] ], [ [ [ -69.933, -31.499 ], [ -69.899, -31.499 ], [ -69.899, -31.533 ], [ -69.933, -31.533 ], [ -69.933, -31.499 ] ] ], [ [ [ -70.033, -31.499 ], [ -70.066, -31.499 ], [ -70.066, -31.466 ], [ -70.033, -31.466 ], [ -69.999, -31.466 ], [ -69.999, -31.499 ], [ -70.033, -31.499 ] ] ], [ [ [ -69.933, -31.499 ], [ -69.966, -31.499 ], [ -69.966, -31.466 ], [ -69.966, -31.433 ], [ -69.933, -31.433 ], [ -69.933, -31.466 ], [ -69.933, -31.499 ] ] ], [ [ [ -70.199, -31.433 ], [ -70.233, -31.433 ], [ -70.233, -31.399 ], [ -70.199, -31.399 ], [ -70.199, -31.433 ] ] ], [ [ [ -69.933, -31.433 ], [ -69.933, -31.399 ], [ -69.899, -31.399 ], [ -69.899, -31.433 ], [ -69.933, -31.433 ] ] ], [ [ [ -70.099, -31.399 ], [ -70.133, -31.399 ], [ -70.133, -31.366 ], [ -70.099, -31.366 ], [ -70.066, -31.366 ], [ -70.066, -31.399 ], [ -70.099, -31.399 ] ] ], [ [ [ -69.999, -31.399 ], [ -70.033, -31.399 ], [ -70.033, -31.366 ], [ -69.999, -31.366 ], [ -69.999, -31.399 ] ] ], [ [ [ -69.933, -31.399 ], [ -69.966, -31.399 ], [ -69.966, -31.366 ], [ -69.933, -31.366 ], [ -69.933, -31.399 ] ] ], [ [ [ -70.166, -31.333 ], [ -70.199, -31.333 ], [ -70.199, -31.299 ], [ -70.166, -31.299 ], [ -70.133, -31.299 ], [ -70.133, -31.333 ], [ -70.166, -31.333 ] ] ], [ [ [ -70.033, -31.333 ], [ -70.066, -31.333 ], [ -70.066, -31.299 ], [ -70.033, -31.299 ], [ -70.033, -31.333 ] ] ], [ [ [ -70.166, -31.266 ], [ -70.199, -31.266 ], [ -70.199, -31.233 ], [ -70.166, -31.233 ], [ -70.166, -31.266 ] ] ], [ [ [ -69.833, -31.266 ], [ -69.866, -31.266 ], [ -69.866, -31.233 ], [ -69.833, -31.233 ], [ -69.833, -31.266 ] ] ], [ [ [ -69.933, -31.199 ], [ -69.933, -31.233 ], [ -69.899, -31.233 ], [ -69.899, -31.266 ], [ -69.933, -31.266 ], [ -69.966, -31.266 ], [ -69.966, -31.233 ], [ -69.999, -31.233 ], [ -69.999, -31.266 ], [ -70.033, -31.266 ], [ -70.033, -31.233 ], [ -70.033, -31.199 ], [ -69.999, -31.199 ], [ -69.999, -31.166 ], [ -69.966, -31.166 ], [ -69.933, -31.166 ], [ -69.933, -31.199 ] ] ], [ [ [ -69.866, -31.199 ], [ -69.899, -31.199 ], [ -69.899, -31.166 ], [ -69.899, -31.133 ], [ -69.899, -31.099 ], [ -69.866, -31.099 ], [ -69.866, -31.066 ], [ -69.866, -31.033 ], [ -69.833, -31.033 ], [ -69.833, -31.066 ], [ -69.833, -31.099 ], [ -69.833, -31.133 ], [ -69.833, -31.166 ], [ -69.833, -31.199 ], [ -69.866, -31.199 ] ] ], [ [ [ -70.033, -30.599 ], [ -70.033, -30.633 ], [ -70.066, -30.633 ], [ -70.066, -30.599 ], [ -70.033, -30.599 ] ] ], [ [ [ -70.033, -30.599 ], [ -70.033, -30.566 ], [ -69.999, -30.566 ], [ -69.999, -30.599 ], [ -70.033, -30.599 ] ] ], [ [ [ -69.799, -30.566 ], [ -69.766, -30.566 ], [ -69.766, -30.599 ], [ -69.799, -30.599 ], [ -69.799, -30.566 ] ] ], [ [ [ -69.733, -30.666 ], [ -69.733, -30.699 ], [ -69.766, -30.699 ], [ -69.766, -30.666 ], [ -69.799, -30.666 ], [ -69.799, -30.633 ], [ -69.766, -30.633 ], [ -69.733, -30.633 ], [ -69.733, -30.599 ], [ -69.733, -30.566 ], [ -69.699, -30.566 ], [ -69.699, -30.599 ], [ -69.699, -30.633 ], [ -69.699, -30.666 ], [ -69.733, -30.666 ] ] ], [ [ [ -70.033, -30.566 ], [ -70.066, -30.566 ], [ -70.066, -30.533 ], [ -70.033, -30.533 ], [ -70.033, -30.566 ] ] ], [ [ [ -69.633, -30.566 ], [ -69.666, -30.566 ], [ -69.666, -30.533 ], [ -69.633, -30.533 ], [ -69.633, -30.566 ] ] ], [ [ [ -69.799, -30.566 ], [ -69.833, -30.566 ], [ -69.833, -30.533 ], [ -69.833, -30.499 ], [ -69.799, -30.499 ], [ -69.799, -30.533 ], [ -69.799, -30.566 ] ] ], [ [ [ -69.699, -30.499 ], [ -69.733, -30.499 ], [ -69.733, -30.466 ], [ -69.699, -30.466 ], [ -69.666, -30.466 ], [ -69.666, -30.499 ], [ -69.699, -30.499 ] ] ], [ [ [ -70.133, -30.499 ], [ -70.190, -30.499 ], [ -70.192, -30.495 ], [ -70.194, -30.491 ], [ -70.191, -30.489 ], [ -70.187, -30.486 ], [ -70.180, -30.483 ], [ -70.174, -30.479 ], [ -70.170, -30.477 ], [ -70.165, -30.473 ], [ -70.162, -30.471 ], [ -70.157, -30.469 ], [ -70.153, -30.466 ], [ -70.149, -30.463 ], [ -70.145, -30.462 ], [ -70.142, -30.460 ], [ -70.140, -30.459 ], [ -70.133, -30.466 ], [ -70.133, -30.499 ] ] ], [ [ [ -69.699, -30.399 ], [ -69.666, -30.399 ], [ -69.666, -30.433 ], [ -69.699, -30.433 ], [ -69.699, -30.399 ] ] ], [ [ [ -69.966, -30.466 ], [ -69.999, -30.466 ], [ -69.999, -30.433 ], [ -69.999, -30.399 ], [ -70.009, -30.390 ], [ -70.004, -30.388 ], [ -70.002, -30.386 ], [ -69.997, -30.382 ], [ -69.994, -30.379 ], [ -69.989, -30.378 ], [ -69.982, -30.380 ], [ -69.976, -30.381 ], [ -69.971, -30.383 ], [ -69.966, -30.384 ], [ -69.966, -30.399 ], [ -69.966, -30.433 ], [ -69.966, -30.466 ] ] ], [ [ [ -69.699, -30.399 ], [ -69.733, -30.399 ], [ -69.733, -30.366 ], [ -69.699, -30.366 ], [ -69.699, -30.399 ] ] ], [ [ [ -70.133, -30.366 ], [ -70.142, -30.375 ], [ -70.143, -30.373 ], [ -70.145, -30.371 ], [ -70.149, -30.368 ], [ -70.153, -30.364 ], [ -70.154, -30.361 ], [ -70.155, -30.358 ], [ -70.153, -30.355 ], [ -70.153, -30.351 ], [ -70.154, -30.347 ], [ -70.153, -30.345 ], [ -70.151, -30.343 ], [ -70.148, -30.340 ], [ -70.145, -30.340 ], [ -70.139, -30.341 ], [ -70.133, -30.341 ], [ -70.133, -30.341 ], [ -70.133, -30.366 ] ] ], [ [ [ -69.866, -30.333 ], [ -69.866, -30.366 ], [ -69.899, -30.366 ], [ -69.916, -30.350 ], [ -69.913, -30.350 ], [ -69.906, -30.353 ], [ -69.900, -30.354 ], [ -69.897, -30.355 ], [ -69.894, -30.353 ], [ -69.891, -30.350 ], [ -69.893, -30.348 ], [ -69.896, -30.346 ], [ -69.900, -30.345 ], [ -69.903, -30.341 ], [ -69.905, -30.335 ], [ -69.905, -30.333 ], [ -69.866, -30.333 ] ] ], [ [ [ -69.766, -30.333 ], [ -69.766, -30.366 ], [ -69.799, -30.366 ], [ -69.799, -30.333 ], [ -69.766, -30.333 ] ] ], [ [ [ -69.766, -30.333 ], [ -69.766, -30.299 ], [ -69.733, -30.299 ], [ -69.733, -30.333 ], [ -69.766, -30.333 ] ] ], [ [ [ -69.766, -30.299 ], [ -69.799, -30.299 ], [ -69.799, -30.266 ], [ -69.766, -30.266 ], [ -69.766, -30.299 ] ] ], [ [ [ -69.733, -30.299 ], [ -69.733, -30.266 ], [ -69.733, -30.233 ], [ -69.699, -30.233 ], [ -69.666, -30.233 ], [ -69.666, -30.266 ], [ -69.633, -30.266 ], [ -69.633, -30.299 ], [ -69.666, -30.299 ], [ -69.699, -30.299 ], [ -69.733, -30.299 ] ] ], [ [ [ -69.799, -30.266 ], [ -69.833, -30.266 ], [ -69.833, -30.233 ], [ -69.848, -30.218 ], [ -69.842, -30.219 ], [ -69.837, -30.219 ], [ -69.834, -30.219 ], [ -69.832, -30.215 ], [ -69.831, -30.211 ], [ -69.830, -30.206 ], [ -69.829, -30.200 ], [ -69.828, -30.199 ], [ -69.799, -30.199 ], [ -69.799, -30.233 ], [ -69.799, -30.266 ] ] ], [ [ [ -69.766, -30.166 ], [ -69.733, -30.166 ], [ -69.733, -30.199 ], [ -69.766, -30.199 ], [ -69.766, -30.166 ] ] ], [ [ [ -69.833, -30.099 ], [ -69.833, -30.125 ], [ -69.833, -30.126 ], [ -69.837, -30.128 ], [ -69.841, -30.129 ], [ -69.847, -30.130 ], [ -69.850, -30.127 ], [ -69.853, -30.123 ], [ -69.858, -30.123 ], [ -69.860, -30.121 ], [ -69.862, -30.117 ], [ -69.864, -30.111 ], [ -69.869, -30.111 ], [ -69.875, -30.111 ], [ -69.877, -30.110 ], [ -69.866, -30.099 ], [ -69.833, -30.099 ] ] ], [ [ [ -69.766, -30.166 ], [ -69.799, -30.166 ], [ -69.812, -30.154 ], [ -69.810, -30.152 ], [ -69.811, -30.150 ], [ -69.808, -30.146 ], [ -69.809, -30.143 ], [ -69.809, -30.143 ], [ -69.799, -30.133 ], [ -69.799, -30.099 ], [ -69.766, -30.099 ], [ -69.766, -30.133 ], [ -69.766, -30.166 ] ] ], [ [ [ -69.666, -30.099 ], [ -69.633, -30.099 ], [ -69.633, -30.133 ], [ -69.666, -30.133 ], [ -69.666, -30.099 ] ] ], [ [ [ -69.666, -30.099 ], [ -69.699, -30.099 ], [ -69.733, -30.099 ], [ -69.766, -30.099 ], [ -69.766, -30.066 ], [ -69.733, -30.066 ], [ -69.733, -30.033 ], [ -69.733, -29.999 ], [ -69.699, -29.999 ], [ -69.699, -30.033 ], [ -69.699, -30.066 ], [ -69.666, -30.066 ], [ -69.666, -30.099 ] ] ], [ [ [ -69.930, -30.119 ], [ -69.935, -30.120 ], [ -69.940, -30.117 ], [ -69.944, -30.115 ], [ -69.945, -30.111 ], [ -69.942, -30.106 ], [ -69.942, -30.102 ], [ -69.943, -30.098 ], [ -69.944, -30.094 ], [ -69.948, -30.092 ], [ -69.955, -30.091 ], [ -69.961, -30.087 ], [ -69.964, -30.084 ], [ -69.962, -30.080 ], [ -69.958, -30.077 ], [ -69.962, -30.073 ], [ -69.959, -30.069 ], [ -69.949, -30.064 ], [ -69.943, -30.058 ], [ -69.940, -30.052 ], [ -69.935, -30.050 ], [ -69.932, -30.045 ], [ -69.927, -30.041 ], [ -69.923, -30.037 ], [ -69.922, -30.033 ], [ -69.919, -30.026 ], [ -69.918, -30.021 ], [ -69.920, -30.015 ], [ -69.925, -30.009 ], [ -69.925, -30.005 ], [ -69.926, -30.002 ], [ -69.924, -29.998 ], [ -69.922, -29.993 ], [ -69.917, -29.991 ], [ -69.914, -29.985 ], [ -69.899, -29.999 ], [ -69.899, -30.033 ], [ -69.899, -30.066 ], [ -69.899, -30.105 ], [ -69.903, -30.106 ], [ -69.908, -30.107 ], [ -69.912, -30.110 ], [ -69.917, -30.111 ], [ -69.921, -30.115 ], [ -69.926, -30.118 ], [ -69.930, -30.119 ] ] ], [ [ [ -69.699, -29.999 ], [ -69.699, -29.966 ], [ -69.666, -29.966 ], [ -69.666, -29.999 ], [ -69.699, -29.999 ] ] ], [ [ [ -69.566, -29.933 ], [ -69.533, -29.933 ], [ -69.533, -29.966 ], [ -69.566, -29.966 ], [ -69.566, -29.933 ] ] ], [ [ [ -69.666, -29.966 ], [ -69.666, -29.933 ], [ -69.666, -29.899 ], [ -69.633, -29.899 ], [ -69.633, -29.933 ], [ -69.633, -29.966 ], [ -69.666, -29.966 ] ] ], [ [ [ -69.866, -29.866 ], [ -69.833, -29.866 ], [ -69.833, -29.899 ], [ -69.866, -29.899 ], [ -69.866, -29.866 ] ] ], [ [ [ -69.866, -29.866 ], [ -69.881, -29.866 ], [ -69.881, -29.866 ], [ -69.881, -29.860 ], [ -69.882, -29.856 ], [ -69.886, -29.853 ], [ -69.891, -29.853 ], [ -69.895, -29.851 ], [ -69.899, -29.847 ], [ -69.900, -29.844 ], [ -69.900, -29.840 ], [ -69.899, -29.836 ], [ -69.896, -29.833 ], [ -69.866, -29.833 ], [ -69.866, -29.866 ] ] ], [ [ [ -69.866, -29.699 ], [ -69.866, -29.733 ], [ -69.866, -29.766 ], [ -69.893, -29.766 ], [ -69.893, -29.763 ], [ -69.894, -29.759 ], [ -69.897, -29.755 ], [ -69.896, -29.751 ], [ -69.890, -29.747 ], [ -69.890, -29.744 ], [ -69.888, -29.742 ], [ -69.886, -29.738 ], [ -69.882, -29.735 ], [ -69.880, -29.735 ], [ -69.879, -29.730 ], [ -69.880, -29.724 ], [ -69.883, -29.723 ], [ -69.885, -29.722 ], [ -69.887, -29.719 ], [ -69.885, -29.713 ], [ -69.884, -29.711 ], [ -69.881, -29.708 ], [ -69.876, -29.708 ], [ -69.874, -29.704 ], [ -69.879, -29.701 ], [ -69.883, -29.699 ], [ -69.866, -29.699 ] ] ], [ [ [ -69.566, -29.933 ], [ -69.599, -29.933 ], [ -69.599, -29.899 ], [ -69.633, -29.899 ], [ -69.633, -29.866 ], [ -69.633, -29.833 ], [ -69.599, -29.833 ], [ -69.599, -29.799 ], [ -69.599, -29.766 ], [ -69.566, -29.766 ], [ -69.533, -29.766 ], [ -69.533, -29.733 ], [ -69.533, -29.699 ], [ -69.499, -29.699 ], [ -69.499, -29.733 ], [ -69.499, -29.766 ], [ -69.466, -29.766 ], [ -69.466, -29.799 ], [ -69.499, -29.799 ], [ -69.533, -29.799 ], [ -69.533, -29.833 ], [ -69.566, -29.833 ], [ -69.566, -29.866 ], [ -69.566, -29.899 ], [ -69.566, -29.933 ] ] ], [ [ [ -69.366, -29.699 ], [ -69.399, -29.699 ], [ -69.399, -29.666 ], [ -69.366, -29.666 ], [ -69.366, -29.699 ] ] ], [ [ [ -69.866, -29.633 ], [ -69.833, -29.633 ], [ -69.833, -29.666 ], [ -69.866, -29.666 ], [ -69.866, -29.633 ] ] ], [ [ [ -69.866, -29.633 ], [ -69.899, -29.633 ], [ -69.899, -29.666 ], [ -69.930, -29.666 ], [ -69.932, -29.665 ], [ -69.934, -29.662 ], [ -69.937, -29.657 ], [ -69.940, -29.651 ], [ -69.941, -29.644 ], [ -69.940, -29.637 ], [ -69.939, -29.630 ], [ -69.937, -29.621 ], [ -69.940, -29.614 ], [ -69.939, -29.610 ], [ -69.937, -29.604 ], [ -69.935, -29.599 ], [ -69.899, -29.599 ], [ -69.866, -29.599 ], [ -69.866, -29.633 ] ] ], [ [ [ -69.499, -29.666 ], [ -69.533, -29.666 ], [ -69.533, -29.633 ], [ -69.533, -29.599 ], [ -69.499, -29.599 ], [ -69.499, -29.633 ], [ -69.499, -29.666 ] ] ], [ [ [ -69.399, -29.633 ], [ -69.433, -29.633 ], [ -69.433, -29.599 ], [ -69.433, -29.566 ], [ -69.399, -29.566 ], [ -69.399, -29.599 ], [ -69.399, -29.633 ] ] ], [ [ [ -69.033, -29.633 ], [ -69.066, -29.633 ], [ -69.066, -29.599 ], [ -69.066, -29.566 ], [ -69.066, -29.533 ], [ -69.033, -29.533 ], [ -69.033, -29.566 ], [ -69.033, -29.599 ], [ -69.033, -29.633 ] ] ], [ [ [ -69.799, -29.533 ], [ -69.833, -29.533 ], [ -69.833, -29.499 ], [ -69.799, -29.499 ], [ -69.799, -29.533 ] ] ], [ [ [ -69.733, -29.499 ], [ -69.699, -29.499 ], [ -69.699, -29.533 ], [ -69.733, -29.533 ], [ -69.733, -29.499 ] ] ], [ [ [ -69.466, -29.499 ], [ -69.499, -29.499 ], [ -69.499, -29.466 ], [ -69.466, -29.466 ], [ -69.466, -29.499 ] ] ], [ [ [ -68.999, -29.499 ], [ -69.033, -29.499 ], [ -69.033, -29.466 ], [ -68.999, -29.466 ], [ -68.999, -29.499 ] ] ], [ [ [ -69.733, -29.499 ], [ -69.766, -29.499 ], [ -69.766, -29.466 ], [ -69.766, -29.433 ], [ -69.733, -29.433 ], [ -69.733, -29.466 ], [ -69.733, -29.499 ] ] ], [ [ [ -69.533, -29.433 ], [ -69.566, -29.433 ], [ -69.566, -29.399 ], [ -69.533, -29.399 ], [ -69.533, -29.433 ] ] ], [ [ [ -69.999, -29.366 ], [ -69.999, -29.393 ], [ -70.002, -29.391 ], [ -70.008, -29.387 ], [ -70.016, -29.385 ], [ -70.017, -29.383 ], [ -70.018, -29.383 ], [ -70.016, -29.379 ], [ -70.014, -29.373 ], [ -70.013, -29.369 ], [ -70.018, -29.366 ], [ -70.022, -29.365 ], [ -70.017, -29.361 ], [ -70.012, -29.357 ], [ -70.011, -29.355 ], [ -69.999, -29.366 ] ] ], [ [ [ -69.799, -29.366 ], [ -69.833, -29.366 ], [ -69.833, -29.333 ], [ -69.799, -29.333 ], [ -69.799, -29.366 ] ] ], [ [ [ -69.966, -29.271 ], [ -69.966, -29.299 ], [ -69.998, -29.299 ], [ -70.000, -29.296 ], [ -70.000, -29.294 ], [ -70.000, -29.293 ], [ -69.999, -29.290 ], [ -69.997, -29.287 ], [ -69.995, -29.284 ], [ -69.993, -29.282 ], [ -69.990, -29.280 ], [ -69.988, -29.279 ], [ -69.987, -29.279 ], [ -69.985, -29.276 ], [ -69.980, -29.275 ], [ -69.975, -29.274 ], [ -69.970, -29.274 ], [ -69.967, -29.272 ], [ -69.966, -29.271 ] ] ], [ [ [ -67.866, -29.133 ], [ -67.833, -29.133 ], [ -67.833, -29.166 ], [ -67.866, -29.166 ], [ -67.866, -29.133 ] ] ], [ [ [ -69.820, -29.130 ], [ -69.813, -29.131 ], [ -69.807, -29.130 ], [ -69.802, -29.130 ], [ -69.799, -29.133 ], [ -69.766, -29.133 ], [ -69.766, -29.166 ], [ -69.799, -29.166 ], [ -69.833, -29.166 ], [ -69.833, -29.129 ], [ -69.830, -29.129 ], [ -69.824, -29.130 ], [ -69.820, -29.130 ] ] ], [ [ [ -69.599, -29.166 ], [ -69.633, -29.166 ], [ -69.633, -29.133 ], [ -69.599, -29.133 ], [ -69.599, -29.099 ], [ -69.566, -29.099 ], [ -69.566, -29.133 ], [ -69.566, -29.166 ], [ -69.599, -29.166 ] ] ], [ [ [ -67.866, -29.133 ], [ -67.899, -29.133 ], [ -67.899, -29.099 ], [ -67.866, -29.099 ], [ -67.866, -29.133 ] ] ], [ [ [ -67.833, -29.133 ], [ -67.833, -29.099 ], [ -67.799, -29.099 ], [ -67.799, -29.133 ], [ -67.833, -29.133 ] ] ], [ [ [ -67.766, -29.066 ], [ -67.799, -29.066 ], [ -67.799, -29.033 ], [ -67.766, -29.033 ], [ -67.766, -29.066 ] ] ], [ [ [ -69.766, -29.099 ], [ -69.785, -29.099 ], [ -69.785, -29.099 ], [ -69.788, -29.094 ], [ -69.790, -29.089 ], [ -69.793, -29.084 ], [ -69.795, -29.081 ], [ -69.793, -29.077 ], [ -69.793, -29.073 ], [ -69.794, -29.069 ], [ -69.791, -29.065 ], [ -69.792, -29.059 ], [ -69.793, -29.054 ], [ -69.792, -29.050 ], [ -69.790, -29.045 ], [ -69.789, -29.043 ], [ -69.787, -29.039 ], [ -69.787, -29.033 ], [ -69.787, -29.027 ], [ -69.783, -29.021 ], [ -69.782, -29.019 ], [ -69.784, -29.014 ], [ -69.777, -29.010 ], [ -69.775, -29.004 ], [ -69.772, -29.001 ], [ -69.771, -28.999 ], [ -69.770, -28.996 ], [ -69.766, -28.999 ], [ -69.766, -29.033 ], [ -69.766, -29.066 ], [ -69.766, -29.099 ] ] ], [ [ [ -67.866, -29.033 ], [ -67.899, -29.033 ], [ -67.899, -28.999 ], [ -67.899, -28.966 ], [ -67.866, -28.966 ], [ -67.866, -28.999 ], [ -67.866, -29.033 ] ] ], [ [ [ -67.766, -28.999 ], [ -67.799, -28.999 ], [ -67.799, -28.966 ], [ -67.766, -28.966 ], [ -67.733, -28.966 ], [ -67.733, -28.999 ], [ -67.766, -28.999 ] ] ], [ [ [ -69.733, -28.933 ], [ -69.755, -28.933 ], [ -69.759, -28.929 ], [ -69.764, -28.926 ], [ -69.766, -28.924 ], [ -69.767, -28.920 ], [ -69.767, -28.914 ], [ -69.766, -28.908 ], [ -69.765, -28.902 ], [ -69.764, -28.897 ], [ -69.763, -28.894 ], [ -69.758, -28.890 ], [ -69.753, -28.887 ], [ -69.749, -28.884 ], [ -69.749, -28.884 ], [ -69.733, -28.899 ], [ -69.733, -28.933 ] ] ], [ [ [ -67.833, -28.899 ], [ -67.866, -28.899 ], [ -67.866, -28.866 ], [ -67.866, -28.833 ], [ -67.833, -28.833 ], [ -67.799, -28.833 ], [ -67.799, -28.866 ], [ -67.833, -28.866 ], [ -67.833, -28.899 ] ] ], [ [ [ -69.633, -28.766 ], [ -69.633, -28.799 ], [ -69.666, -28.799 ], [ -69.706, -28.799 ], [ -69.707, -28.795 ], [ -69.707, -28.790 ], [ -69.706, -28.785 ], [ -69.704, -28.780 ], [ -69.700, -28.779 ], [ -69.696, -28.777 ], [ -69.693, -28.773 ], [ -69.691, -28.772 ], [ -69.688, -28.770 ], [ -69.680, -28.770 ], [ -69.690, -28.768 ], [ -69.693, -28.767 ], [ -69.693, -28.766 ], [ -69.666, -28.766 ], [ -69.633, -28.766 ] ] ], [ [ [ -69.399, -28.766 ], [ -69.433, -28.766 ], [ -69.433, -28.733 ], [ -69.399, -28.733 ], [ -69.366, -28.733 ], [ -69.366, -28.766 ], [ -69.399, -28.766 ] ] ], [ [ [ -69.699, -28.733 ], [ -69.712, -28.746 ], [ -69.713, -28.745 ], [ -69.718, -28.745 ], [ -69.724, -28.744 ], [ -69.727, -28.745 ], [ -69.731, -28.747 ], [ -69.733, -28.747 ], [ -69.735, -28.744 ], [ -69.733, -28.740 ], [ -69.728, -28.734 ], [ -69.726, -28.730 ], [ -69.725, -28.727 ], [ -69.727, -28.724 ], [ -69.728, -28.720 ], [ -69.728, -28.715 ], [ -69.727, -28.710 ], [ -69.729, -28.707 ], [ -69.731, -28.703 ], [ -69.731, -28.699 ], [ -69.699, -28.699 ], [ -69.699, -28.733 ] ] ], [ [ [ -69.299, -28.633 ], [ -69.333, -28.633 ], [ -69.333, -28.599 ], [ -69.299, -28.599 ], [ -69.299, -28.633 ] ] ], [ [ [ -69.566, -28.633 ], [ -69.599, -28.633 ], [ -69.599, -28.599 ], [ -69.566, -28.599 ], [ -69.566, -28.566 ], [ -69.533, -28.566 ], [ -69.533, -28.599 ], [ -69.533, -28.633 ], [ -69.566, -28.633 ] ] ], [ [ [ -67.833, -28.599 ], [ -67.866, -28.599 ], [ -67.866, -28.566 ], [ -67.833, -28.566 ], [ -67.833, -28.599 ] ] ], [ [ [ -69.633, -28.566 ], [ -69.669, -28.566 ], [ -69.669, -28.562 ], [ -69.669, -28.559 ], [ -69.669, -28.555 ], [ -69.665, -28.554 ], [ -69.665, -28.549 ], [ -69.662, -28.547 ], [ -69.660, -28.540 ], [ -69.654, -28.538 ], [ -69.651, -28.535 ], [ -69.652, -28.533 ], [ -69.633, -28.533 ], [ -69.633, -28.566 ] ] ], [ [ [ -69.599, -28.499 ], [ -69.566, -28.499 ], [ -69.566, -28.533 ], [ -69.599, -28.533 ], [ -69.599, -28.499 ] ] ], [ [ [ -69.599, -28.499 ], [ -69.633, -28.499 ], [ -69.633, -28.466 ], [ -69.599, -28.466 ], [ -69.599, -28.499 ] ] ], [ [ [ -68.899, -28.566 ], [ -68.933, -28.566 ], [ -68.933, -28.533 ], [ -68.933, -28.499 ], [ -68.933, -28.466 ], [ -68.899, -28.466 ], [ -68.866, -28.466 ], [ -68.866, -28.499 ], [ -68.899, -28.499 ], [ -68.899, -28.533 ], [ -68.899, -28.566 ] ] ], [ [ [ -68.766, -28.433 ], [ -68.799, -28.433 ], [ -68.799, -28.399 ], [ -68.799, -28.366 ], [ -68.799, -28.333 ], [ -68.766, -28.333 ], [ -68.766, -28.366 ], [ -68.766, -28.399 ], [ -68.766, -28.433 ] ] ], [ [ [ -69.499, -28.333 ], [ -69.499, -28.366 ], [ -69.533, -28.366 ], [ -69.566, -28.366 ], [ -69.572, -28.360 ], [ -69.571, -28.358 ], [ -69.570, -28.350 ], [ -69.565, -28.345 ], [ -69.561, -28.343 ], [ -69.558, -28.345 ], [ -69.558, -28.348 ], [ -69.552, -28.349 ], [ -69.550, -28.344 ], [ -69.548, -28.337 ], [ -69.546, -28.336 ], [ -69.544, -28.337 ], [ -69.536, -28.332 ], [ -69.532, -28.334 ], [ -69.528, -28.332 ], [ -69.522, -28.327 ], [ -69.523, -28.325 ], [ -69.524, -28.321 ], [ -69.521, -28.315 ], [ -69.518, -28.310 ], [ -69.513, -28.309 ], [ -69.512, -28.306 ], [ -69.511, -28.298 ], [ -69.509, -28.293 ], [ -69.508, -28.291 ], [ -69.499, -28.299 ], [ -69.499, -28.333 ] ] ], [ [ [ -68.966, -28.299 ], [ -68.966, -28.333 ], [ -68.933, -28.333 ], [ -68.933, -28.366 ], [ -68.966, -28.366 ], [ -68.966, -28.399 ], [ -68.999, -28.399 ], [ -68.999, -28.366 ], [ -69.033, -28.366 ], [ -69.066, -28.366 ], [ -69.066, -28.333 ], [ -69.066, -28.299 ], [ -69.033, -28.299 ], [ -69.033, -28.333 ], [ -68.999, -28.333 ], [ -68.999, -28.299 ], [ -68.999, -28.266 ], [ -68.966, -28.266 ], [ -68.966, -28.299 ] ] ], [ [ [ -69.366, -28.199 ], [ -69.366, -28.233 ], [ -69.399, -28.233 ], [ -69.399, -28.211 ], [ -69.396, -28.220 ], [ -69.391, -28.224 ], [ -69.388, -28.219 ], [ -69.384, -28.213 ], [ -69.382, -28.203 ], [ -69.382, -28.197 ], [ -69.382, -28.193 ], [ -69.384, -28.189 ], [ -69.383, -28.184 ], [ -69.382, -28.183 ], [ -69.366, -28.199 ] ] ], [ [ [ -68.399, -28.133 ], [ -68.433, -28.133 ], [ -68.433, -28.099 ], [ -68.399, -28.099 ], [ -68.399, -28.133 ] ] ], [ [ [ -69.066, -28.066 ], [ -69.066, -28.099 ], [ -69.066, -28.133 ], [ -69.033, -28.133 ], [ -68.999, -28.133 ], [ -68.999, -28.166 ], [ -69.033, -28.166 ], [ -69.066, -28.166 ], [ -69.099, -28.166 ], [ -69.099, -28.133 ], [ -69.099, -28.099 ], [ -69.099, -28.066 ], [ -69.066, -28.066 ] ] ], [ [ [ -68.833, -28.066 ], [ -68.833, -28.099 ], [ -68.799, -28.099 ], [ -68.799, -28.133 ], [ -68.766, -28.133 ], [ -68.733, -28.133 ], [ -68.733, -28.099 ], [ -68.699, -28.099 ], [ -68.666, -28.099 ], [ -68.666, -28.133 ], [ -68.666, -28.166 ], [ -68.699, -28.166 ], [ -68.733, -28.166 ], [ -68.733, -28.199 ], [ -68.733, -28.233 ], [ -68.733, -28.266 ], [ -68.766, -28.266 ], [ -68.766, -28.233 ], [ -68.766, -28.199 ], [ -68.766, -28.166 ], [ -68.799, -28.166 ], [ -68.799, -28.199 ], [ -68.799, -28.233 ], [ -68.833, -28.233 ], [ -68.866, -28.233 ], [ -68.866, -28.199 ], [ -68.833, -28.199 ], [ -68.833, -28.166 ], [ -68.866, -28.166 ], [ -68.899, -28.166 ], [ -68.899, -28.199 ], [ -68.933, -28.199 ], [ -68.966, -28.199 ], [ -68.966, -28.166 ], [ -68.966, -28.133 ], [ -68.933, -28.133 ], [ -68.933, -28.099 ], [ -68.899, -28.099 ], [ -68.866, -28.099 ], [ -68.866, -28.066 ], [ -68.833, -28.066 ] ] ], [ [ [ -68.633, -28.033 ], [ -68.633, -28.066 ], [ -68.666, -28.066 ], [ -68.666, -28.033 ], [ -68.633, -28.033 ] ] ], [ [ [ -68.633, -28.033 ], [ -68.633, -27.999 ], [ -68.599, -27.999 ], [ -68.599, -28.033 ], [ -68.633, -28.033 ] ] ], [ [ [ -68.599, -27.999 ], [ -68.599, -27.966 ], [ -68.566, -27.966 ], [ -68.566, -27.999 ], [ -68.599, -27.999 ] ] ], [ [ [ -68.599, -27.966 ], [ -68.633, -27.966 ], [ -68.633, -27.933 ], [ -68.599, -27.933 ], [ -68.599, -27.966 ] ] ], [ [ [ -69.099, -27.933 ], [ -69.133, -27.933 ], [ -69.133, -27.966 ], [ -69.166, -27.966 ], [ -69.170, -27.962 ], [ -69.167, -27.959 ], [ -69.166, -27.956 ], [ -69.164, -27.953 ], [ -69.161, -27.951 ], [ -69.155, -27.948 ], [ -69.155, -27.945 ], [ -69.154, -27.940 ], [ -69.155, -27.936 ], [ -69.155, -27.932 ], [ -69.153, -27.929 ], [ -69.147, -27.926 ], [ -69.146, -27.924 ], [ -69.143, -27.918 ], [ -69.138, -27.913 ], [ -69.134, -27.909 ], [ -69.132, -27.903 ], [ -69.132, -27.896 ], [ -69.131, -27.891 ], [ -69.128, -27.884 ], [ -69.129, -27.877 ], [ -69.131, -27.872 ], [ -69.131, -27.868 ], [ -69.129, -27.866 ], [ -69.127, -27.865 ], [ -69.122, -27.863 ], [ -69.117, -27.859 ], [ -69.113, -27.854 ], [ -69.109, -27.846 ], [ -69.112, -27.841 ], [ -69.112, -27.837 ], [ -69.108, -27.835 ], [ -69.107, -27.833 ], [ -69.066, -27.833 ], [ -69.066, -27.866 ], [ -69.066, -27.899 ], [ -69.099, -27.899 ], [ -69.099, -27.933 ] ] ], [ [ [ -68.566, -27.866 ], [ -68.566, -27.899 ], [ -68.599, -27.899 ], [ -68.633, -27.899 ], [ -68.633, -27.866 ], [ -68.633, -27.833 ], [ -68.599, -27.833 ], [ -68.599, -27.866 ], [ -68.566, -27.866 ] ] ], [ [ [ -68.466, -27.833 ], [ -68.466, -27.866 ], [ -68.499, -27.866 ], [ -68.533, -27.866 ], [ -68.566, -27.866 ], [ -68.566, -27.833 ], [ -68.533, -27.833 ], [ -68.533, -27.799 ], [ -68.499, -27.799 ], [ -68.499, -27.833 ], [ -68.466, -27.833 ] ] ], [ [ [ -68.699, -27.733 ], [ -68.666, -27.733 ], [ -68.666, -27.766 ], [ -68.699, -27.766 ], [ -68.699, -27.733 ] ] ], [ [ [ -68.566, -27.733 ], [ -68.599, -27.733 ], [ -68.599, -27.699 ], [ -68.566, -27.699 ], [ -68.566, -27.733 ] ] ], [ [ [ -68.466, -27.833 ], [ -68.466, -27.799 ], [ -68.433, -27.799 ], [ -68.433, -27.766 ], [ -68.433, -27.733 ], [ -68.399, -27.733 ], [ -68.366, -27.733 ], [ -68.366, -27.699 ], [ -68.333, -27.699 ], [ -68.299, -27.699 ], [ -68.299, -27.733 ], [ -68.333, -27.733 ], [ -68.333, -27.766 ], [ -68.333, -27.799 ], [ -68.366, -27.799 ], [ -68.399, -27.799 ], [ -68.399, -27.833 ], [ -68.399, -27.866 ], [ -68.366, -27.866 ], [ -68.366, -27.899 ], [ -68.399, -27.899 ], [ -68.433, -27.899 ], [ -68.433, -27.866 ], [ -68.433, -27.833 ], [ -68.466, -27.833 ] ] ], [ [ [ -68.566, -27.699 ], [ -68.566, -27.666 ], [ -68.533, -27.666 ], [ -68.533, -27.699 ], [ -68.566, -27.699 ] ] ], [ [ [ -68.199, -27.533 ], [ -68.233, -27.533 ], [ -68.233, -27.499 ], [ -68.199, -27.499 ], [ -68.199, -27.533 ] ] ], [ [ [ -68.766, -27.499 ], [ -68.799, -27.499 ], [ -68.799, -27.466 ], [ -68.766, -27.466 ], [ -68.766, -27.499 ] ] ], [ [ [ -68.766, -27.499 ], [ -68.733, -27.499 ], [ -68.733, -27.466 ], [ -68.733, -27.433 ], [ -68.699, -27.433 ], [ -68.699, -27.466 ], [ -68.699, -27.499 ], [ -68.699, -27.533 ], [ -68.699, -27.566 ], [ -68.699, -27.599 ], [ -68.733, -27.599 ], [ -68.733, -27.566 ], [ -68.733, -27.533 ], [ -68.766, -27.533 ], [ -68.766, -27.499 ] ] ], [ [ [ -68.699, -27.733 ], [ -68.733, -27.733 ], [ -68.733, -27.699 ], [ -68.766, -27.699 ], [ -68.766, -27.666 ], [ -68.799, -27.666 ], [ -68.833, -27.666 ], [ -68.866, -27.666 ], [ -68.899, -27.666 ], [ -68.899, -27.699 ], [ -68.933, -27.699 ], [ -68.933, -27.733 ], [ -68.966, -27.733 ], [ -68.999, -27.733 ], [ -68.999, -27.766 ], [ -68.999, -27.799 ], [ -68.966, -27.799 ], [ -68.966, -27.833 ], [ -68.966, -27.866 ], [ -68.966, -27.899 ], [ -68.999, -27.899 ], [ -68.999, -27.933 ], [ -68.999, -27.966 ], [ -68.999, -27.999 ], [ -68.999, -28.033 ], [ -69.033, -28.033 ], [ -69.033, -28.066 ], [ -69.066, -28.066 ], [ -69.066, -28.033 ], [ -69.066, -27.999 ], [ -69.099, -27.999 ], [ -69.099, -27.966 ], [ -69.099, -27.933 ], [ -69.066, -27.933 ], [ -69.033, -27.933 ], [ -69.033, -27.899 ], [ -69.033, -27.866 ], [ -68.999, -27.866 ], [ -68.999, -27.833 ], [ -69.033, -27.833 ], [ -69.066, -27.833 ], [ -69.066, -27.799 ], [ -69.066, -27.766 ], [ -69.066, -27.733 ], [ -69.033, -27.733 ], [ -69.033, -27.699 ], [ -69.044, -27.688 ], [ -69.044, -27.688 ], [ -69.043, -27.684 ], [ -69.042, -27.681 ], [ -69.045, -27.678 ], [ -69.051, -27.675 ], [ -69.057, -27.671 ], [ -69.058, -27.669 ], [ -69.061, -27.665 ], [ -69.060, -27.659 ], [ -69.058, -27.656 ], [ -69.057, -27.651 ], [ -69.056, -27.647 ], [ -69.055, -27.642 ], [ -69.055, -27.638 ], [ -69.054, -27.634 ], [ -69.054, -27.633 ], [ -69.033, -27.633 ], [ -69.033, -27.599 ], [ -69.030, -27.599 ], [ -69.027, -27.597 ], [ -69.025, -27.594 ], [ -69.025, -27.592 ], [ -69.024, -27.589 ], [ -69.023, -27.586 ], [ -69.021, -27.586 ], [ -69.017, -27.584 ], [ -69.015, -27.584 ], [ -68.999, -27.599 ], [ -68.999, -27.633 ], [ -68.966, -27.633 ], [ -68.966, -27.666 ], [ -68.933, -27.666 ], [ -68.933, -27.633 ], [ -68.966, -27.633 ], [ -68.966, -27.599 ], [ -68.933, -27.599 ], [ -68.899, -27.599 ], [ -68.899, -27.566 ], [ -68.933, -27.566 ], [ -68.933, -27.533 ], [ -68.946, -27.520 ], [ -68.942, -27.515 ], [ -68.945, -27.506 ], [ -68.948, -27.500 ], [ -68.950, -27.494 ], [ -68.953, -27.487 ], [ -68.955, -27.485 ], [ -68.959, -27.482 ], [ -68.962, -27.475 ], [ -68.961, -27.471 ], [ -68.963, -27.469 ], [ -68.963, -27.468 ], [ -68.968, -27.468 ], [ -68.974, -27.466 ], [ -68.977, -27.462 ], [ -68.980, -27.459 ], [ -68.982, -27.455 ], [ -68.986, -27.453 ], [ -68.988, -27.450 ], [ -68.988, -27.446 ], [ -68.986, -27.446 ], [ -68.984, -27.445 ], [ -68.982, -27.442 ], [ -68.980, -27.438 ], [ -68.980, -27.434 ], [ -68.978, -27.431 ], [ -68.975, -27.430 ], [ -68.966, -27.430 ], [ -68.956, -27.434 ], [ -68.950, -27.437 ], [ -68.944, -27.440 ], [ -68.940, -27.443 ], [ -68.936, -27.444 ], [ -68.933, -27.440 ], [ -68.933, -27.466 ], [ -68.899, -27.466 ], [ -68.899, -27.499 ], [ -68.899, -27.533 ], [ -68.866, -27.533 ], [ -68.866, -27.566 ], [ -68.866, -27.599 ], [ -68.866, -27.633 ], [ -68.833, -27.633 ], [ -68.799, -27.633 ], [ -68.766, -27.633 ], [ -68.733, -27.633 ], [ -68.699, -27.633 ], [ -68.699, -27.666 ], [ -68.699, -27.699 ], [ -68.699, -27.733 ] ] ], [ [ [ -68.299, -27.499 ], [ -68.299, -27.466 ], [ -68.333, -27.466 ], [ -68.333, -27.433 ], [ -68.333, -27.399 ], [ -68.299, -27.399 ], [ -68.266, -27.399 ], [ -68.233, -27.399 ], [ -68.233, -27.433 ], [ -68.266, -27.433 ], [ -68.266, -27.466 ], [ -68.266, -27.499 ], [ -68.299, -27.499 ] ] ], [ [ [ -68.899, -27.433 ], [ -68.929, -27.433 ], [ -68.927, -27.428 ], [ -68.926, -27.425 ], [ -68.925, -27.421 ], [ -68.927, -27.416 ], [ -68.930, -27.411 ], [ -68.927, -27.409 ], [ -68.923, -27.409 ], [ -68.919, -27.408 ], [ -68.915, -27.403 ], [ -68.910, -27.400 ], [ -68.905, -27.395 ], [ -68.905, -27.394 ], [ -68.899, -27.399 ], [ -68.899, -27.433 ] ] ], [ [ [ -68.399, -27.466 ], [ -68.366, -27.466 ], [ -68.333, -27.466 ], [ -68.333, -27.499 ], [ -68.299, -27.499 ], [ -68.299, -27.533 ], [ -68.299, -27.566 ], [ -68.299, -27.599 ], [ -68.299, -27.633 ], [ -68.266, -27.633 ], [ -68.266, -27.666 ], [ -68.299, -27.666 ], [ -68.333, -27.666 ], [ -68.333, -27.633 ], [ -68.333, -27.599 ], [ -68.366, -27.599 ], [ -68.399, -27.599 ], [ -68.433, -27.599 ], [ -68.466, -27.599 ], [ -68.466, -27.633 ], [ -68.466, -27.666 ], [ -68.466, -27.699 ], [ -68.466, -27.733 ], [ -68.466, -27.766 ], [ -68.499, -27.766 ], [ -68.533, -27.766 ], [ -68.533, -27.799 ], [ -68.566, -27.799 ], [ -68.599, -27.799 ], [ -68.599, -27.766 ], [ -68.566, -27.766 ], [ -68.566, -27.733 ], [ -68.533, -27.733 ], [ -68.499, -27.733 ], [ -68.499, -27.699 ], [ -68.499, -27.666 ], [ -68.499, -27.633 ], [ -68.499, -27.599 ], [ -68.499, -27.566 ], [ -68.533, -27.566 ], [ -68.533, -27.533 ], [ -68.566, -27.533 ], [ -68.566, -27.499 ], [ -68.566, -27.466 ], [ -68.599, -27.466 ], [ -68.599, -27.433 ], [ -68.633, -27.433 ], [ -68.633, -27.399 ], [ -68.599, -27.399 ], [ -68.599, -27.366 ], [ -68.566, -27.366 ], [ -68.566, -27.399 ], [ -68.566, -27.433 ], [ -68.533, -27.433 ], [ -68.533, -27.466 ], [ -68.499, -27.466 ], [ -68.499, -27.499 ], [ -68.499, -27.533 ], [ -68.466, -27.533 ], [ -68.433, -27.533 ], [ -68.433, -27.566 ], [ -68.399, -27.566 ], [ -68.399, -27.533 ], [ -68.366, -27.533 ], [ -68.366, -27.499 ], [ -68.399, -27.499 ], [ -68.399, -27.466 ] ] ], [ [ [ -68.499, -27.399 ], [ -68.533, -27.399 ], [ -68.533, -27.366 ], [ -68.499, -27.366 ], [ -68.499, -27.399 ] ] ], [ [ [ -68.399, -27.466 ], [ -68.433, -27.466 ], [ -68.433, -27.433 ], [ -68.433, -27.399 ], [ -68.433, -27.366 ], [ -68.399, -27.366 ], [ -68.399, -27.399 ], [ -68.399, -27.433 ], [ -68.399, -27.466 ] ] ], [ [ [ -67.999, -27.433 ], [ -68.033, -27.433 ], [ -68.033, -27.399 ], [ -68.033, -27.366 ], [ -67.999, -27.366 ], [ -67.999, -27.399 ], [ -67.999, -27.433 ] ] ], [ [ [ -68.733, -27.433 ], [ -68.766, -27.433 ], [ -68.799, -27.433 ], [ -68.799, -27.466 ], [ -68.833, -27.466 ], [ -68.866, -27.466 ], [ -68.866, -27.433 ], [ -68.833, -27.433 ], [ -68.833, -27.399 ], [ -68.833, -27.366 ], [ -68.866, -27.366 ], [ -68.866, -27.333 ], [ -68.833, -27.333 ], [ -68.799, -27.333 ], [ -68.766, -27.333 ], [ -68.766, -27.366 ], [ -68.799, -27.366 ], [ -68.799, -27.399 ], [ -68.766, -27.399 ], [ -68.733, -27.399 ], [ -68.733, -27.433 ] ] ], [ [ [ -67.299, -27.433 ], [ -67.333, -27.433 ], [ -67.333, -27.399 ], [ -67.299, -27.399 ], [ -67.299, -27.366 ], [ -67.299, -27.333 ], [ -67.266, -27.333 ], [ -67.266, -27.366 ], [ -67.266, -27.399 ], [ -67.266, -27.433 ], [ -67.299, -27.433 ] ] ], [ [ [ -66.199, -27.333 ], [ -66.233, -27.333 ], [ -66.233, -27.299 ], [ -66.199, -27.299 ], [ -66.199, -27.333 ] ] ], [ [ [ -66.133, -27.299 ], [ -66.133, -27.333 ], [ -66.133, -27.366 ], [ -66.166, -27.366 ], [ -66.166, -27.333 ], [ -66.166, -27.299 ], [ -66.133, -27.299 ] ] ], [ [ [ -68.766, -27.333 ], [ -68.766, -27.299 ], [ -68.766, -27.266 ], [ -68.733, -27.266 ], [ -68.733, -27.299 ], [ -68.733, -27.333 ], [ -68.766, -27.333 ] ] ], [ [ [ -68.266, -27.266 ], [ -68.266, -27.299 ], [ -68.299, -27.299 ], [ -68.299, -27.266 ], [ -68.266, -27.266 ] ] ], [ [ [ -67.999, -27.266 ], [ -67.966, -27.266 ], [ -67.966, -27.299 ], [ -67.999, -27.299 ], [ -67.999, -27.266 ] ] ], [ [ [ -66.133, -27.299 ], [ -66.133, -27.266 ], [ -66.099, -27.266 ], [ -66.099, -27.299 ], [ -66.133, -27.299 ] ] ], [ [ [ -68.599, -27.366 ], [ -68.633, -27.366 ], [ -68.633, -27.333 ], [ -68.666, -27.333 ], [ -68.666, -27.299 ], [ -68.666, -27.266 ], [ -68.666, -27.233 ], [ -68.633, -27.233 ], [ -68.633, -27.266 ], [ -68.633, -27.299 ], [ -68.599, -27.299 ], [ -68.599, -27.333 ], [ -68.599, -27.366 ] ] ], [ [ [ -68.399, -27.233 ], [ -68.399, -27.266 ], [ -68.399, -27.299 ], [ -68.399, -27.333 ], [ -68.433, -27.333 ], [ -68.466, -27.333 ], [ -68.466, -27.299 ], [ -68.433, -27.299 ], [ -68.433, -27.266 ], [ -68.433, -27.233 ], [ -68.399, -27.233 ] ] ], [ [ [ -68.266, -27.266 ], [ -68.266, -27.233 ], [ -68.233, -27.233 ], [ -68.233, -27.266 ], [ -68.266, -27.266 ] ] ], [ [ [ -68.166, -27.266 ], [ -68.199, -27.266 ], [ -68.199, -27.233 ], [ -68.166, -27.233 ], [ -68.166, -27.266 ] ] ], [ [ [ -66.133, -27.266 ], [ -66.166, -27.266 ], [ -66.166, -27.233 ], [ -66.133, -27.233 ], [ -66.133, -27.266 ] ] ], [ [ [ -68.733, -27.199 ], [ -68.733, -27.233 ], [ -68.766, -27.233 ], [ -68.799, -27.233 ], [ -68.799, -27.266 ], [ -68.833, -27.266 ], [ -68.843, -27.276 ], [ -68.845, -27.275 ], [ -68.851, -27.273 ], [ -68.856, -27.270 ], [ -68.859, -27.267 ], [ -68.863, -27.264 ], [ -68.867, -27.262 ], [ -68.868, -27.260 ], [ -68.869, -27.254 ], [ -68.870, -27.247 ], [ -68.869, -27.239 ], [ -68.864, -27.235 ], [ -68.861, -27.234 ], [ -68.858, -27.232 ], [ -68.855, -27.229 ], [ -68.855, -27.225 ], [ -68.854, -27.217 ], [ -68.853, -27.208 ], [ -68.856, -27.205 ], [ -68.856, -27.199 ], [ -68.833, -27.199 ], [ -68.799, -27.199 ], [ -68.766, -27.199 ], [ -68.733, -27.199 ] ] ], [ [ [ -68.733, -27.199 ], [ -68.733, -27.166 ], [ -68.699, -27.166 ], [ -68.666, -27.166 ], [ -68.666, -27.199 ], [ -68.699, -27.199 ], [ -68.733, -27.199 ] ] ], [ [ [ -67.966, -27.266 ], [ -67.966, -27.233 ], [ -67.966, -27.199 ], [ -67.966, -27.166 ], [ -67.933, -27.166 ], [ -67.933, -27.199 ], [ -67.933, -27.233 ], [ -67.933, -27.266 ], [ -67.966, -27.266 ] ] ], [ [ [ -66.066, -27.199 ], [ -66.099, -27.199 ], [ -66.099, -27.166 ], [ -66.066, -27.166 ], [ -66.066, -27.199 ] ] ], [ [ [ -65.999, -27.166 ], [ -66.033, -27.166 ], [ -66.033, -27.133 ], [ -65.999, -27.133 ], [ -65.999, -27.166 ] ] ], [ [ [ -68.266, -27.233 ], [ -68.299, -27.233 ], [ -68.333, -27.233 ], [ -68.366, -27.233 ], [ -68.399, -27.233 ], [ -68.399, -27.199 ], [ -68.366, -27.199 ], [ -68.366, -27.166 ], [ -68.366, -27.133 ], [ -68.366, -27.099 ], [ -68.333, -27.099 ], [ -68.299, -27.099 ], [ -68.299, -27.133 ], [ -68.299, -27.166 ], [ -68.299, -27.199 ], [ -68.266, -27.199 ], [ -68.266, -27.233 ] ] ], [ [ [ -67.999, -27.266 ], [ -68.033, -27.266 ], [ -68.033, -27.233 ], [ -68.033, -27.199 ], [ -68.033, -27.166 ], [ -68.033, -27.133 ], [ -68.033, -27.099 ], [ -67.999, -27.099 ], [ -67.966, -27.099 ], [ -67.966, -27.133 ], [ -67.999, -27.133 ], [ -67.999, -27.166 ], [ -67.999, -27.199 ], [ -67.999, -27.233 ], [ -67.999, -27.266 ] ] ], [ [ [ -68.233, -27.066 ], [ -68.233, -27.099 ], [ -68.233, -27.133 ], [ -68.266, -27.133 ], [ -68.266, -27.099 ], [ -68.266, -27.066 ], [ -68.233, -27.066 ] ] ], [ [ [ -68.133, -27.099 ], [ -68.166, -27.099 ], [ -68.166, -27.066 ], [ -68.133, -27.066 ], [ -68.133, -27.099 ] ] ], [ [ [ -65.966, -27.099 ], [ -65.999, -27.099 ], [ -65.999, -27.066 ], [ -65.966, -27.066 ], [ -65.966, -27.099 ] ] ], [ [ [ -68.233, -27.066 ], [ -68.233, -27.033 ], [ -68.199, -27.033 ], [ -68.199, -27.066 ], [ -68.233, -27.066 ] ] ], [ [ [ -67.999, -27.033 ], [ -67.999, -27.066 ], [ -68.033, -27.066 ], [ -68.033, -27.033 ], [ -67.999, -27.033 ] ] ], [ [ [ -68.266, -26.966 ], [ -68.266, -26.999 ], [ -68.299, -26.999 ], [ -68.299, -26.966 ], [ -68.266, -26.966 ] ] ], [ [ [ -65.899, -27.033 ], [ -65.933, -27.033 ], [ -65.933, -26.999 ], [ -65.933, -26.966 ], [ -65.899, -26.966 ], [ -65.899, -26.999 ], [ -65.899, -27.033 ] ] ], [ [ [ -68.266, -26.966 ], [ -68.266, -26.933 ], [ -68.233, -26.933 ], [ -68.233, -26.966 ], [ -68.266, -26.966 ] ] ], [ [ [ -67.533, -26.899 ], [ -67.533, -26.933 ], [ -67.499, -26.933 ], [ -67.499, -26.966 ], [ -67.466, -26.966 ], [ -67.466, -26.999 ], [ -67.466, -27.033 ], [ -67.499, -27.033 ], [ -67.533, -27.033 ], [ -67.566, -27.033 ], [ -67.566, -26.999 ], [ -67.566, -26.966 ], [ -67.566, -26.933 ], [ -67.566, -26.899 ], [ -67.533, -26.899 ] ] ], [ [ [ -68.233, -26.933 ], [ -68.233, -26.899 ], [ -68.266, -26.899 ], [ -68.272, -26.906 ], [ -68.274, -26.905 ], [ -68.281, -26.899 ], [ -68.289, -26.894 ], [ -68.295, -26.888 ], [ -68.298, -26.881 ], [ -68.299, -26.872 ], [ -68.305, -26.866 ], [ -68.266, -26.866 ], [ -68.266, -26.833 ], [ -68.233, -26.833 ], [ -68.199, -26.833 ], [ -68.199, -26.866 ], [ -68.199, -26.899 ], [ -68.199, -26.933 ], [ -68.233, -26.933 ] ] ], [ [ [ -68.133, -26.866 ], [ -68.166, -26.866 ], [ -68.166, -26.833 ], [ -68.133, -26.833 ], [ -68.133, -26.866 ] ] ], [ [ [ -67.999, -27.033 ], [ -67.999, -26.999 ], [ -67.999, -26.966 ], [ -67.999, -26.933 ], [ -67.999, -26.899 ], [ -67.999, -26.866 ], [ -68.033, -26.866 ], [ -68.066, -26.866 ], [ -68.066, -26.833 ], [ -68.099, -26.833 ], [ -68.099, -26.799 ], [ -68.066, -26.799 ], [ -68.033, -26.799 ], [ -68.033, -26.833 ], [ -67.999, -26.833 ], [ -67.966, -26.833 ], [ -67.966, -26.799 ], [ -67.933, -26.799 ], [ -67.933, -26.833 ], [ -67.933, -26.866 ], [ -67.966, -26.866 ], [ -67.966, -26.899 ], [ -67.966, -26.933 ], [ -67.966, -26.966 ], [ -67.966, -26.999 ], [ -67.966, -27.033 ], [ -67.999, -27.033 ] ] ], [ [ [ -68.299, -26.733 ], [ -68.299, -26.766 ], [ -68.333, -26.766 ], [ -68.333, -26.733 ], [ -68.299, -26.733 ] ] ], [ [ [ -67.966, -26.733 ], [ -67.933, -26.733 ], [ -67.933, -26.766 ], [ -67.966, -26.766 ], [ -67.966, -26.733 ] ] ], [ [ [ -67.766, -26.766 ], [ -67.766, -26.799 ], [ -67.799, -26.799 ], [ -67.799, -26.766 ], [ -67.833, -26.766 ], [ -67.833, -26.733 ], [ -67.799, -26.733 ], [ -67.766, -26.733 ], [ -67.766, -26.766 ] ] ], [ [ [ -67.966, -26.733 ], [ -67.999, -26.733 ], [ -68.033, -26.733 ], [ -68.033, -26.699 ], [ -68.066, -26.699 ], [ -68.066, -26.666 ], [ -68.033, -26.666 ], [ -67.999, -26.666 ], [ -67.966, -26.666 ], [ -67.966, -26.699 ], [ -67.966, -26.733 ] ] ], [ [ [ -66.599, -26.699 ], [ -66.599, -26.666 ], [ -66.566, -26.666 ], [ -66.566, -26.699 ], [ -66.599, -26.699 ] ] ], [ [ [ -68.266, -26.733 ], [ -68.299, -26.733 ], [ -68.299, -26.699 ], [ -68.299, -26.666 ], [ -68.299, -26.633 ], [ -68.266, -26.633 ], [ -68.266, -26.666 ], [ -68.266, -26.699 ], [ -68.266, -26.733 ] ] ], [ [ [ -68.266, -26.733 ], [ -68.233, -26.733 ], [ -68.199, -26.733 ], [ -68.199, -26.699 ], [ -68.166, -26.699 ], [ -68.133, -26.699 ], [ -68.133, -26.666 ], [ -68.133, -26.633 ], [ -68.099, -26.633 ], [ -68.099, -26.666 ], [ -68.099, -26.699 ], [ -68.099, -26.733 ], [ -68.133, -26.733 ], [ -68.166, -26.733 ], [ -68.166, -26.766 ], [ -68.133, -26.766 ], [ -68.133, -26.799 ], [ -68.166, -26.799 ], [ -68.199, -26.799 ], [ -68.199, -26.766 ], [ -68.233, -26.766 ], [ -68.266, -26.766 ], [ -68.266, -26.733 ] ] ], [ [ [ -67.099, -26.666 ], [ -67.133, -26.666 ], [ -67.133, -26.633 ], [ -67.099, -26.633 ], [ -67.066, -26.633 ], [ -67.066, -26.666 ], [ -67.099, -26.666 ] ] ], [ [ [ -66.599, -26.699 ], [ -66.599, -26.733 ], [ -66.599, -26.766 ], [ -66.633, -26.766 ], [ -66.633, -26.799 ], [ -66.666, -26.799 ], [ -66.666, -26.766 ], [ -66.666, -26.733 ], [ -66.666, -26.699 ], [ -66.699, -26.699 ], [ -66.699, -26.666 ], [ -66.699, -26.633 ], [ -66.666, -26.633 ], [ -66.633, -26.633 ], [ -66.633, -26.666 ], [ -66.633, -26.699 ], [ -66.599, -26.699 ] ] ], [ [ [ -67.999, -26.599 ], [ -67.999, -26.633 ], [ -68.033, -26.633 ], [ -68.033, -26.599 ], [ -67.999, -26.599 ] ] ], [ [ [ -67.966, -26.666 ], [ -67.966, -26.633 ], [ -67.966, -26.599 ], [ -67.933, -26.599 ], [ -67.899, -26.599 ], [ -67.899, -26.633 ], [ -67.933, -26.633 ], [ -67.933, -26.666 ], [ -67.966, -26.666 ] ] ], [ [ [ -65.699, -26.633 ], [ -65.733, -26.633 ], [ -65.733, -26.599 ], [ -65.699, -26.599 ], [ -65.699, -26.633 ] ] ], [ [ [ -68.399, -26.599 ], [ -68.399, -26.566 ], [ -68.366, -26.566 ], [ -68.366, -26.599 ], [ -68.399, -26.599 ] ] ], [ [ [ -68.299, -26.599 ], [ -68.333, -26.599 ], [ -68.333, -26.566 ], [ -68.299, -26.566 ], [ -68.299, -26.599 ] ] ], [ [ [ -67.833, -26.566 ], [ -67.833, -26.533 ], [ -67.799, -26.533 ], [ -67.799, -26.566 ], [ -67.833, -26.566 ] ] ], [ [ [ -67.099, -26.566 ], [ -67.133, -26.566 ], [ -67.133, -26.533 ], [ -67.099, -26.533 ], [ -67.099, -26.566 ] ] ], [ [ [ -66.999, -26.566 ], [ -67.033, -26.566 ], [ -67.033, -26.533 ], [ -66.999, -26.533 ], [ -66.999, -26.566 ] ] ], [ [ [ -66.466, -26.566 ], [ -66.499, -26.566 ], [ -66.499, -26.533 ], [ -66.466, -26.533 ], [ -66.433, -26.533 ], [ -66.433, -26.566 ], [ -66.466, -26.566 ] ] ], [ [ [ -68.399, -26.599 ], [ -68.399, -26.633 ], [ -68.399, -26.666 ], [ -68.399, -26.699 ], [ -68.366, -26.699 ], [ -68.366, -26.733 ], [ -68.399, -26.733 ], [ -68.410, -26.743 ], [ -68.425, -26.724 ], [ -68.438, -26.705 ], [ -68.433, -26.699 ], [ -68.433, -26.666 ], [ -68.433, -26.633 ], [ -68.466, -26.633 ], [ -68.466, -26.599 ], [ -68.466, -26.566 ], [ -68.499, -26.566 ], [ -68.499, -26.533 ], [ -68.466, -26.533 ], [ -68.466, -26.499 ], [ -68.433, -26.499 ], [ -68.433, -26.533 ], [ -68.433, -26.566 ], [ -68.433, -26.599 ], [ -68.399, -26.599 ] ] ], [ [ [ -68.433, -26.499 ], [ -68.433, -26.466 ], [ -68.399, -26.466 ], [ -68.399, -26.499 ], [ -68.433, -26.499 ] ] ], [ [ [ -67.966, -26.599 ], [ -67.999, -26.599 ], [ -67.999, -26.566 ], [ -67.999, -26.533 ], [ -67.999, -26.499 ], [ -67.999, -26.466 ], [ -67.966, -26.466 ], [ -67.966, -26.499 ], [ -67.966, -26.533 ], [ -67.966, -26.566 ], [ -67.966, -26.599 ] ] ], [ [ [ -67.833, -26.566 ], [ -67.833, -26.599 ], [ -67.866, -26.599 ], [ -67.899, -26.599 ], [ -67.899, -26.566 ], [ -67.899, -26.533 ], [ -67.933, -26.533 ], [ -67.933, -26.499 ], [ -67.933, -26.466 ], [ -67.933, -26.433 ], [ -67.899, -26.433 ], [ -67.899, -26.466 ], [ -67.899, -26.499 ], [ -67.866, -26.499 ], [ -67.866, -26.533 ], [ -67.866, -26.566 ], [ -67.833, -26.566 ] ] ], [ [ [ -68.533, -26.466 ], [ -68.566, -26.466 ], [ -68.579, -26.453 ], [ -68.576, -26.433 ], [ -68.533, -26.433 ], [ -68.533, -26.399 ], [ -68.499, -26.399 ], [ -68.499, -26.433 ], [ -68.499, -26.466 ], [ -68.533, -26.466 ] ] ], [ [ [ -67.933, -26.433 ], [ -67.966, -26.433 ], [ -67.966, -26.399 ], [ -67.933, -26.399 ], [ -67.933, -26.433 ] ] ], [ [ [ -66.966, -26.433 ], [ -66.999, -26.433 ], [ -66.999, -26.399 ], [ -66.966, -26.399 ], [ -66.966, -26.433 ] ] ], [ [ [ -66.366, -26.399 ], [ -66.366, -26.433 ], [ -66.333, -26.433 ], [ -66.333, -26.466 ], [ -66.366, -26.466 ], [ -66.399, -26.466 ], [ -66.399, -26.433 ], [ -66.399, -26.399 ], [ -66.366, -26.399 ] ] ], [ [ [ -68.199, -26.366 ], [ -68.199, -26.399 ], [ -68.233, -26.399 ], [ -68.233, -26.366 ], [ -68.199, -26.366 ] ] ], [ [ [ -67.066, -26.433 ], [ -67.099, -26.433 ], [ -67.099, -26.399 ], [ -67.099, -26.366 ], [ -67.066, -26.366 ], [ -67.066, -26.399 ], [ -67.066, -26.433 ] ] ], [ [ [ -68.466, -26.366 ], [ -68.499, -26.366 ], [ -68.499, -26.333 ], [ -68.466, -26.333 ], [ -68.466, -26.366 ] ] ], [ [ [ -68.199, -26.366 ], [ -68.199, -26.333 ], [ -68.166, -26.333 ], [ -68.166, -26.366 ], [ -68.199, -26.366 ] ] ], [ [ [ -67.766, -26.366 ], [ -67.799, -26.366 ], [ -67.799, -26.333 ], [ -67.766, -26.333 ], [ -67.766, -26.366 ] ] ], [ [ [ -66.966, -26.366 ], [ -66.999, -26.366 ], [ -66.999, -26.333 ], [ -66.966, -26.333 ], [ -66.966, -26.366 ] ] ], [ [ [ -66.533, -26.333 ], [ -66.499, -26.333 ], [ -66.499, -26.366 ], [ -66.533, -26.366 ], [ -66.533, -26.333 ] ] ], [ [ [ -67.033, -26.299 ], [ -67.033, -26.333 ], [ -67.066, -26.333 ], [ -67.066, -26.299 ], [ -67.033, -26.299 ] ] ], [ [ [ -68.533, -26.299 ], [ -68.558, -26.299 ], [ -68.557, -26.286 ], [ -68.533, -26.272 ], [ -68.533, -26.299 ] ] ], [ [ [ -67.099, -26.299 ], [ -67.133, -26.299 ], [ -67.133, -26.266 ], [ -67.099, -26.266 ], [ -67.099, -26.299 ] ] ], [ [ [ -67.033, -26.299 ], [ -67.033, -26.266 ], [ -66.999, -26.266 ], [ -66.999, -26.299 ], [ -67.033, -26.299 ] ] ], [ [ [ -66.466, -26.266 ], [ -66.466, -26.299 ], [ -66.499, -26.299 ], [ -66.499, -26.266 ], [ -66.466, -26.266 ] ] ], [ [ [ -66.299, -26.299 ], [ -66.299, -26.333 ], [ -66.333, -26.333 ], [ -66.333, -26.366 ], [ -66.366, -26.366 ], [ -66.366, -26.333 ], [ -66.366, -26.299 ], [ -66.366, -26.266 ], [ -66.333, -26.266 ], [ -66.333, -26.299 ], [ -66.299, -26.299 ] ] ], [ [ [ -68.266, -26.266 ], [ -68.266, -26.299 ], [ -68.266, -26.333 ], [ -68.299, -26.333 ], [ -68.299, -26.366 ], [ -68.299, -26.399 ], [ -68.299, -26.433 ], [ -68.299, -26.466 ], [ -68.333, -26.466 ], [ -68.333, -26.433 ], [ -68.333, -26.399 ], [ -68.366, -26.399 ], [ -68.366, -26.366 ], [ -68.399, -26.366 ], [ -68.433, -26.366 ], [ -68.433, -26.333 ], [ -68.399, -26.333 ], [ -68.366, -26.333 ], [ -68.366, -26.299 ], [ -68.333, -26.299 ], [ -68.333, -26.266 ], [ -68.366, -26.266 ], [ -68.366, -26.233 ], [ -68.333, -26.233 ], [ -68.299, -26.233 ], [ -68.266, -26.233 ], [ -68.266, -26.266 ] ] ], [ [ [ -66.466, -26.266 ], [ -66.466, -26.233 ], [ -66.433, -26.233 ], [ -66.433, -26.266 ], [ -66.466, -26.266 ] ] ], [ [ [ -66.299, -26.299 ], [ -66.299, -26.266 ], [ -66.299, -26.233 ], [ -66.266, -26.233 ], [ -66.266, -26.266 ], [ -66.266, -26.299 ], [ -66.299, -26.299 ] ] ], [ [ [ -68.399, -26.233 ], [ -68.433, -26.233 ], [ -68.444, -26.222 ], [ -68.399, -26.196 ], [ -68.399, -26.233 ] ] ], [ [ [ -66.533, -26.333 ], [ -66.566, -26.333 ], [ -66.566, -26.299 ], [ -66.566, -26.266 ], [ -66.566, -26.233 ], [ -66.599, -26.233 ], [ -66.599, -26.199 ], [ -66.599, -26.166 ], [ -66.566, -26.166 ], [ -66.533, -26.166 ], [ -66.533, -26.199 ], [ -66.533, -26.233 ], [ -66.533, -26.266 ], [ -66.533, -26.299 ], [ -66.533, -26.333 ] ] ], [ [ [ -66.233, -26.199 ], [ -66.266, -26.199 ], [ -66.266, -26.166 ], [ -66.233, -26.166 ], [ -66.233, -26.199 ] ] ], [ [ [ -66.166, -26.133 ], [ -66.166, -26.166 ], [ -66.199, -26.166 ], [ -66.199, -26.133 ], [ -66.233, -26.133 ], [ -66.233, -26.099 ], [ -66.199, -26.099 ], [ -66.166, -26.099 ], [ -66.133, -26.099 ], [ -66.133, -26.133 ], [ -66.166, -26.133 ] ] ], [ [ [ -68.366, -26.066 ], [ -68.366, -26.099 ], [ -68.333, -26.099 ], [ -68.333, -26.133 ], [ -68.299, -26.133 ], [ -68.266, -26.133 ], [ -68.266, -26.166 ], [ -68.233, -26.166 ], [ -68.199, -26.166 ], [ -68.166, -26.166 ], [ -68.166, -26.199 ], [ -68.199, -26.199 ], [ -68.199, -26.233 ], [ -68.166, -26.233 ], [ -68.166, -26.266 ], [ -68.199, -26.266 ], [ -68.233, -26.266 ], [ -68.233, -26.233 ], [ -68.233, -26.199 ], [ -68.266, -26.199 ], [ -68.299, -26.199 ], [ -68.299, -26.166 ], [ -68.333, -26.166 ], [ -68.379, -26.166 ], [ -68.402, -26.066 ], [ -68.366, -26.066 ] ] ], [ [ [ -67.133, -26.066 ], [ -67.133, -26.099 ], [ -67.166, -26.099 ], [ -67.199, -26.099 ], [ -67.199, -26.066 ], [ -67.166, -26.066 ], [ -67.133, -26.066 ] ] ], [ [ [ -66.633, -26.066 ], [ -66.633, -26.099 ], [ -66.599, -26.099 ], [ -66.599, -26.133 ], [ -66.633, -26.133 ], [ -66.666, -26.133 ], [ -66.666, -26.166 ], [ -66.699, -26.166 ], [ -66.699, -26.133 ], [ -66.699, -26.099 ], [ -66.699, -26.066 ], [ -66.666, -26.066 ], [ -66.633, -26.066 ] ] ], [ [ [ -67.066, -26.066 ], [ -67.099, -26.066 ], [ -67.133, -26.066 ], [ -67.133, -26.033 ], [ -67.099, -26.033 ], [ -67.066, -26.033 ], [ -67.066, -26.066 ] ] ], [ [ [ -67.133, -26.033 ], [ -67.166, -26.033 ], [ -67.199, -26.033 ], [ -67.199, -25.999 ], [ -67.166, -25.999 ], [ -67.133, -25.999 ], [ -67.133, -26.033 ] ] ], [ [ [ -66.966, -26.033 ], [ -66.999, -26.033 ], [ -66.999, -25.999 ], [ -66.966, -25.999 ], [ -66.966, -26.033 ] ] ], [ [ [ -66.833, -26.133 ], [ -66.833, -26.099 ], [ -66.833, -26.066 ], [ -66.866, -26.066 ], [ -66.866, -26.099 ], [ -66.866, -26.133 ], [ -66.833, -26.133 ], [ -66.833, -26.166 ], [ -66.866, -26.166 ], [ -66.899, -26.166 ], [ -66.933, -26.166 ], [ -66.966, -26.166 ], [ -66.999, -26.166 ], [ -66.999, -26.133 ], [ -67.033, -26.133 ], [ -67.066, -26.133 ], [ -67.066, -26.099 ], [ -67.066, -26.066 ], [ -67.033, -26.066 ], [ -67.033, -26.099 ], [ -66.999, -26.099 ], [ -66.966, -26.099 ], [ -66.966, -26.133 ], [ -66.933, -26.133 ], [ -66.933, -26.099 ], [ -66.933, -26.066 ], [ -66.966, -26.066 ], [ -66.966, -26.033 ], [ -66.933, -26.033 ], [ -66.899, -26.033 ], [ -66.866, -26.033 ], [ -66.866, -25.999 ], [ -66.833, -25.999 ], [ -66.833, -26.033 ], [ -66.799, -26.033 ], [ -66.766, -26.033 ], [ -66.733, -26.033 ], [ -66.733, -26.066 ], [ -66.766, -26.066 ], [ -66.766, -26.099 ], [ -66.766, -26.133 ], [ -66.799, -26.133 ], [ -66.833, -26.133 ] ] ], [ [ [ -67.033, -25.933 ], [ -66.999, -25.933 ], [ -66.999, -25.966 ], [ -67.033, -25.966 ], [ -67.033, -25.933 ] ] ], [ [ [ -66.599, -25.933 ], [ -66.599, -25.966 ], [ -66.599, -25.999 ], [ -66.599, -26.033 ], [ -66.633, -26.033 ], [ -66.633, -25.999 ], [ -66.633, -25.966 ], [ -66.633, -25.933 ], [ -66.599, -25.933 ] ] ], [ [ [ -67.133, -25.999 ], [ -67.133, -25.966 ], [ -67.166, -25.966 ], [ -67.166, -25.933 ], [ -67.166, -25.899 ], [ -67.133, -25.899 ], [ -67.133, -25.933 ], [ -67.099, -25.933 ], [ -67.099, -25.966 ], [ -67.099, -25.999 ], [ -67.133, -25.999 ] ] ], [ [ [ -67.033, -25.933 ], [ -67.066, -25.933 ], [ -67.066, -25.899 ], [ -67.033, -25.899 ], [ -67.033, -25.933 ] ] ], [ [ [ -66.599, -25.933 ], [ -66.599, -25.899 ], [ -66.633, -25.899 ], [ -66.633, -25.866 ], [ -66.599, -25.866 ], [ -66.566, -25.866 ], [ -66.533, -25.866 ], [ -66.533, -25.899 ], [ -66.566, -25.899 ], [ -66.566, -25.933 ], [ -66.599, -25.933 ] ] ], [ [ [ -67.133, -25.899 ], [ -67.133, -25.866 ], [ -67.133, -25.833 ], [ -67.099, -25.833 ], [ -67.099, -25.866 ], [ -67.099, -25.899 ], [ -67.133, -25.899 ] ] ], [ [ [ -67.566, -25.833 ], [ -67.599, -25.833 ], [ -67.599, -25.799 ], [ -67.599, -25.766 ], [ -67.566, -25.766 ], [ -67.566, -25.733 ], [ -67.533, -25.733 ], [ -67.533, -25.766 ], [ -67.533, -25.799 ], [ -67.533, -25.833 ], [ -67.566, -25.833 ] ] ], [ [ [ -67.366, -25.733 ], [ -67.399, -25.733 ], [ -67.399, -25.699 ], [ -67.366, -25.699 ], [ -67.366, -25.733 ] ] ], [ [ [ -66.833, -25.766 ], [ -66.866, -25.766 ], [ -66.866, -25.799 ], [ -66.833, -25.799 ], [ -66.833, -25.766 ], [ -66.799, -25.766 ], [ -66.799, -25.799 ], [ -66.799, -25.833 ], [ -66.799, -25.866 ], [ -66.766, -25.866 ], [ -66.766, -25.899 ], [ -66.766, -25.933 ], [ -66.766, -25.966 ], [ -66.799, -25.966 ], [ -66.799, -25.999 ], [ -66.833, -25.999 ], [ -66.833, -25.966 ], [ -66.833, -25.933 ], [ -66.833, -25.899 ], [ -66.866, -25.899 ], [ -66.899, -25.899 ], [ -66.933, -25.899 ], [ -66.966, -25.899 ], [ -66.999, -25.899 ], [ -67.033, -25.899 ], [ -67.033, -25.866 ], [ -66.999, -25.866 ], [ -66.966, -25.866 ], [ -66.966, -25.833 ], [ -66.933, -25.833 ], [ -66.899, -25.833 ], [ -66.899, -25.799 ], [ -66.899, -25.766 ], [ -66.899, -25.733 ], [ -66.866, -25.733 ], [ -66.866, -25.699 ], [ -66.833, -25.699 ], [ -66.833, -25.733 ], [ -66.833, -25.766 ] ] ], [ [ [ -66.633, -25.799 ], [ -66.666, -25.799 ], [ -66.666, -25.766 ], [ -66.666, -25.733 ], [ -66.666, -25.699 ], [ -66.633, -25.699 ], [ -66.633, -25.733 ], [ -66.633, -25.766 ], [ -66.633, -25.799 ] ] ], [ [ [ -67.433, -25.699 ], [ -67.466, -25.699 ], [ -67.466, -25.666 ], [ -67.433, -25.666 ], [ -67.433, -25.699 ] ] ], [ [ [ -67.299, -25.666 ], [ -67.266, -25.666 ], [ -67.266, -25.699 ], [ -67.266, -25.733 ], [ -67.299, -25.733 ], [ -67.333, -25.733 ], [ -67.333, -25.699 ], [ -67.299, -25.699 ], [ -67.299, -25.666 ] ] ], [ [ [ -68.233, -25.666 ], [ -68.266, -25.666 ], [ -68.266, -25.633 ], [ -68.233, -25.633 ], [ -68.199, -25.633 ], [ -68.199, -25.666 ], [ -68.233, -25.666 ] ] ], [ [ [ -67.933, -25.633 ], [ -67.899, -25.633 ], [ -67.899, -25.666 ], [ -67.933, -25.666 ], [ -67.933, -25.633 ] ] ], [ [ [ -67.299, -25.666 ], [ -67.333, -25.666 ], [ -67.333, -25.633 ], [ -67.299, -25.633 ], [ -67.299, -25.666 ] ] ], [ [ [ -68.499, -25.633 ], [ -68.544, -25.633 ], [ -68.545, -25.630 ], [ -68.546, -25.625 ], [ -68.545, -25.620 ], [ -68.544, -25.616 ], [ -68.542, -25.615 ], [ -68.539, -25.613 ], [ -68.539, -25.610 ], [ -68.540, -25.607 ], [ -68.541, -25.604 ], [ -68.541, -25.603 ], [ -68.541, -25.599 ], [ -68.499, -25.599 ], [ -68.499, -25.633 ] ] ], [ [ [ -67.933, -25.633 ], [ -67.966, -25.633 ], [ -67.966, -25.666 ], [ -67.999, -25.666 ], [ -68.033, -25.666 ], [ -68.033, -25.633 ], [ -68.033, -25.599 ], [ -67.999, -25.599 ], [ -67.966, -25.599 ], [ -67.933, -25.599 ], [ -67.933, -25.633 ] ] ], [ [ [ -67.833, -25.599 ], [ -67.833, -25.633 ], [ -67.866, -25.633 ], [ -67.866, -25.599 ], [ -67.833, -25.599 ] ] ], [ [ [ -67.333, -25.633 ], [ -67.366, -25.633 ], [ -67.399, -25.633 ], [ -67.399, -25.599 ], [ -67.366, -25.599 ], [ -67.333, -25.599 ], [ -67.333, -25.633 ] ] ], [ [ [ -67.099, -25.833 ], [ -67.099, -25.799 ], [ -67.099, -25.766 ], [ -67.066, -25.766 ], [ -67.033, -25.766 ], [ -67.033, -25.733 ], [ -67.033, -25.699 ], [ -66.999, -25.699 ], [ -66.999, -25.666 ], [ -66.999, -25.633 ], [ -66.999, -25.599 ], [ -66.966, -25.599 ], [ -66.966, -25.633 ], [ -66.966, -25.666 ], [ -66.966, -25.699 ], [ -66.966, -25.733 ], [ -66.966, -25.766 ], [ -66.999, -25.766 ], [ -66.999, -25.799 ], [ -66.999, -25.833 ], [ -67.033, -25.833 ], [ -67.066, -25.833 ], [ -67.099, -25.833 ] ] ], [ [ [ -67.166, -25.633 ], [ -67.199, -25.633 ], [ -67.199, -25.599 ], [ -67.199, -25.566 ], [ -67.166, -25.566 ], [ -67.166, -25.599 ], [ -67.166, -25.633 ] ] ], [ [ [ -68.066, -25.599 ], [ -68.099, -25.599 ], [ -68.099, -25.566 ], [ -68.099, -25.533 ], [ -68.066, -25.533 ], [ -68.033, -25.533 ], [ -68.033, -25.566 ], [ -68.066, -25.566 ], [ -68.066, -25.599 ] ] ], [ [ [ -67.966, -25.533 ], [ -67.966, -25.566 ], [ -67.999, -25.566 ], [ -67.999, -25.533 ], [ -67.966, -25.533 ] ] ], [ [ [ -67.833, -25.533 ], [ -67.866, -25.533 ], [ -67.899, -25.533 ], [ -67.933, -25.533 ], [ -67.966, -25.533 ], [ -67.966, -25.499 ], [ -67.933, -25.499 ], [ -67.899, -25.499 ], [ -67.866, -25.499 ], [ -67.833, -25.499 ], [ -67.833, -25.533 ] ] ], [ [ [ -67.833, -25.599 ], [ -67.833, -25.566 ], [ -67.833, -25.533 ], [ -67.799, -25.533 ], [ -67.799, -25.499 ], [ -67.766, -25.499 ], [ -67.766, -25.533 ], [ -67.733, -25.533 ], [ -67.733, -25.566 ], [ -67.766, -25.566 ], [ -67.799, -25.566 ], [ -67.799, -25.599 ], [ -67.833, -25.599 ] ] ], [ [ [ -68.066, -25.499 ], [ -68.099, -25.499 ], [ -68.099, -25.466 ], [ -68.066, -25.466 ], [ -68.066, -25.499 ] ] ], [ [ [ -67.799, -25.499 ], [ -67.833, -25.499 ], [ -67.833, -25.466 ], [ -67.799, -25.466 ], [ -67.799, -25.499 ] ] ], [ [ [ -68.299, -25.466 ], [ -68.333, -25.466 ], [ -68.333, -25.433 ], [ -68.299, -25.433 ], [ -68.266, -25.433 ], [ -68.266, -25.466 ], [ -68.299, -25.466 ] ] ], [ [ [ -67.966, -25.499 ], [ -67.999, -25.499 ], [ -67.999, -25.466 ], [ -67.999, -25.433 ], [ -68.033, -25.433 ], [ -68.033, -25.399 ], [ -67.999, -25.399 ], [ -67.966, -25.399 ], [ -67.966, -25.433 ], [ -67.966, -25.466 ], [ -67.966, -25.499 ] ] ], [ [ [ -66.733, -25.399 ], [ -66.766, -25.399 ], [ -66.766, -25.366 ], [ -66.733, -25.366 ], [ -66.733, -25.399 ] ] ], [ [ [ -68.266, -25.366 ], [ -68.299, -25.366 ], [ -68.299, -25.333 ], [ -68.266, -25.333 ], [ -68.266, -25.366 ] ] ], [ [ [ -68.166, -25.366 ], [ -68.199, -25.366 ], [ -68.199, -25.333 ], [ -68.166, -25.333 ], [ -68.166, -25.366 ] ] ], [ [ [ -67.566, -25.333 ], [ -67.533, -25.333 ], [ -67.533, -25.366 ], [ -67.566, -25.366 ], [ -67.566, -25.333 ] ] ], [ [ [ -68.499, -25.299 ], [ -68.499, -25.333 ], [ -68.466, -25.333 ], [ -68.466, -25.366 ], [ -68.499, -25.366 ], [ -68.499, -25.399 ], [ -68.533, -25.399 ], [ -68.533, -25.433 ], [ -68.572, -25.433 ], [ -68.573, -25.431 ], [ -68.575, -25.428 ], [ -68.575, -25.425 ], [ -68.575, -25.422 ], [ -68.573, -25.417 ], [ -68.571, -25.414 ], [ -68.568, -25.410 ], [ -68.565, -25.408 ], [ -68.560, -25.406 ], [ -68.557, -25.402 ], [ -68.557, -25.396 ], [ -68.552, -25.394 ], [ -68.549, -25.393 ], [ -68.547, -25.389 ], [ -68.544, -25.385 ], [ -68.539, -25.382 ], [ -68.528, -25.380 ], [ -68.523, -25.378 ], [ -68.522, -25.374 ], [ -68.522, -25.370 ], [ -68.524, -25.363 ], [ -68.524, -25.358 ], [ -68.524, -25.355 ], [ -68.523, -25.353 ], [ -68.520, -25.349 ], [ -68.522, -25.346 ], [ -68.523, -25.341 ], [ -68.522, -25.339 ], [ -68.519, -25.338 ], [ -68.519, -25.335 ], [ -68.521, -25.332 ], [ -68.527, -25.330 ], [ -68.527, -25.329 ], [ -68.528, -25.328 ], [ -68.528, -25.325 ], [ -68.525, -25.323 ], [ -68.525, -25.319 ], [ -68.524, -25.317 ], [ -68.522, -25.314 ], [ -68.523, -25.310 ], [ -68.524, -25.308 ], [ -68.530, -25.312 ], [ -68.533, -25.311 ], [ -68.538, -25.306 ], [ -68.543, -25.302 ], [ -68.544, -25.299 ], [ -68.499, -25.299 ] ] ], [ [ [ -67.566, -25.333 ], [ -67.599, -25.333 ], [ -67.599, -25.299 ], [ -67.566, -25.299 ], [ -67.566, -25.333 ] ] ], [ [ [ -67.599, -25.299 ], [ -67.633, -25.299 ], [ -67.633, -25.266 ], [ -67.599, -25.266 ], [ -67.599, -25.299 ] ] ], [ [ [ -67.899, -25.199 ], [ -67.866, -25.199 ], [ -67.833, -25.199 ], [ -67.833, -25.233 ], [ -67.833, -25.266 ], [ -67.866, -25.266 ], [ -67.866, -25.233 ], [ -67.899, -25.233 ], [ -67.899, -25.199 ] ] ], [ [ [ -67.899, -25.199 ], [ -67.933, -25.199 ], [ -67.933, -25.166 ], [ -67.899, -25.166 ], [ -67.899, -25.199 ] ] ], [ [ [ -68.477, -25.156 ], [ -68.466, -25.166 ], [ -68.466, -25.199 ], [ -68.466, -25.233 ], [ -68.499, -25.233 ], [ -68.499, -25.266 ], [ -68.542, -25.266 ], [ -68.542, -25.264 ], [ -68.535, -25.256 ], [ -68.535, -25.256 ], [ -68.531, -25.256 ], [ -68.526, -25.254 ], [ -68.524, -25.252 ], [ -68.525, -25.250 ], [ -68.530, -25.248 ], [ -68.532, -25.247 ], [ -68.530, -25.244 ], [ -68.530, -25.239 ], [ -68.528, -25.233 ], [ -68.527, -25.232 ], [ -68.527, -25.228 ], [ -68.523, -25.226 ], [ -68.519, -25.224 ], [ -68.515, -25.223 ], [ -68.509, -25.222 ], [ -68.511, -25.216 ], [ -68.510, -25.214 ], [ -68.507, -25.212 ], [ -68.506, -25.210 ], [ -68.505, -25.208 ], [ -68.501, -25.207 ], [ -68.503, -25.203 ], [ -68.504, -25.202 ], [ -68.505, -25.201 ], [ -68.505, -25.199 ], [ -68.505, -25.196 ], [ -68.506, -25.193 ], [ -68.508, -25.190 ], [ -68.507, -25.188 ], [ -68.508, -25.186 ], [ -68.509, -25.184 ], [ -68.509, -25.183 ], [ -68.510, -25.181 ], [ -68.510, -25.177 ], [ -68.508, -25.173 ], [ -68.506, -25.168 ], [ -68.499, -25.162 ], [ -68.485, -25.162 ], [ -68.477, -25.156 ], [ -68.477, -25.156 ] ] ], [ [ [ -66.666, -25.166 ], [ -66.666, -25.199 ], [ -66.633, -25.199 ], [ -66.633, -25.166 ], [ -66.599, -25.166 ], [ -66.566, -25.166 ], [ -66.566, -25.199 ], [ -66.599, -25.199 ], [ -66.599, -25.233 ], [ -66.633, -25.233 ], [ -66.633, -25.266 ], [ -66.666, -25.266 ], [ -66.666, -25.233 ], [ -66.699, -25.233 ], [ -66.699, -25.199 ], [ -66.699, -25.166 ], [ -66.699, -25.133 ], [ -66.666, -25.133 ], [ -66.666, -25.166 ] ] ], [ [ [ -68.333, -25.099 ], [ -68.299, -25.099 ], [ -68.299, -25.133 ], [ -68.299, -25.166 ], [ -68.299, -25.199 ], [ -68.299, -25.233 ], [ -68.333, -25.233 ], [ -68.366, -25.233 ], [ -68.366, -25.199 ], [ -68.333, -25.199 ], [ -68.333, -25.166 ], [ -68.333, -25.133 ], [ -68.333, -25.099 ] ] ], [ [ [ -68.333, -25.099 ], [ -68.355, -25.099 ], [ -68.355, -25.098 ], [ -68.356, -25.094 ], [ -68.358, -25.088 ], [ -68.361, -25.083 ], [ -68.364, -25.080 ], [ -68.367, -25.071 ], [ -68.371, -25.068 ], [ -68.371, -25.066 ], [ -68.333, -25.066 ], [ -68.333, -25.099 ] ] ], [ [ [ -66.633, -25.099 ], [ -66.666, -25.099 ], [ -66.666, -25.066 ], [ -66.633, -25.066 ], [ -66.633, -25.099 ] ] ], [ [ [ -66.933, -25.099 ], [ -66.966, -25.099 ], [ -66.966, -25.066 ], [ -66.966, -25.033 ], [ -66.933, -25.033 ], [ -66.933, -25.066 ], [ -66.933, -25.099 ] ] ], [ [ [ -66.599, -24.999 ], [ -66.566, -24.999 ], [ -66.566, -25.033 ], [ -66.566, -25.066 ], [ -66.599, -25.066 ], [ -66.599, -25.033 ], [ -66.599, -24.999 ] ] ], [ [ [ -66.333, -25.033 ], [ -66.366, -25.033 ], [ -66.366, -24.999 ], [ -66.333, -24.999 ], [ -66.333, -25.033 ] ] ], [ [ [ -66.399, -25.033 ], [ -66.433, -25.033 ], [ -66.433, -24.999 ], [ -66.433, -24.966 ], [ -66.399, -24.966 ], [ -66.399, -24.999 ], [ -66.399, -25.033 ] ] ], [ [ [ -66.599, -24.999 ], [ -66.633, -24.999 ], [ -66.633, -24.966 ], [ -66.633, -24.933 ], [ -66.599, -24.933 ], [ -66.566, -24.933 ], [ -66.566, -24.966 ], [ -66.599, -24.966 ], [ -66.599, -24.999 ] ] ], [ [ [ -66.899, -24.999 ], [ -66.933, -24.999 ], [ -66.933, -24.966 ], [ -66.933, -24.933 ], [ -66.899, -24.933 ], [ -66.899, -24.899 ], [ -66.866, -24.899 ], [ -66.866, -24.933 ], [ -66.866, -24.966 ], [ -66.899, -24.966 ], [ -66.899, -24.999 ] ] ], [ [ [ -66.333, -24.933 ], [ -66.366, -24.933 ], [ -66.366, -24.899 ], [ -66.333, -24.899 ], [ -66.333, -24.933 ] ] ], [ [ [ -68.499, -24.866 ], [ -68.509, -24.875 ], [ -68.516, -24.874 ], [ -68.520, -24.869 ], [ -68.524, -24.864 ], [ -68.530, -24.858 ], [ -68.531, -24.853 ], [ -68.532, -24.848 ], [ -68.533, -24.843 ], [ -68.532, -24.838 ], [ -68.534, -24.834 ], [ -68.533, -24.833 ], [ -68.499, -24.833 ], [ -68.499, -24.866 ] ] ], [ [ [ -66.433, -24.899 ], [ -66.466, -24.899 ], [ -66.466, -24.866 ], [ -66.466, -24.833 ], [ -66.466, -24.799 ], [ -66.466, -24.766 ], [ -66.433, -24.766 ], [ -66.433, -24.799 ], [ -66.433, -24.833 ], [ -66.433, -24.866 ], [ -66.433, -24.899 ] ] ], [ [ [ -68.499, -24.733 ], [ -68.499, -24.766 ], [ -68.533, -24.766 ], [ -68.549, -24.750 ], [ -68.548, -24.747 ], [ -68.544, -24.740 ], [ -68.543, -24.733 ], [ -68.499, -24.733 ] ] ], [ [ [ -68.499, -24.733 ], [ -68.499, -24.699 ], [ -68.466, -24.699 ], [ -68.466, -24.733 ], [ -68.499, -24.733 ] ] ], [ [ [ -66.399, -24.699 ], [ -66.366, -24.699 ], [ -66.366, -24.733 ], [ -66.399, -24.733 ], [ -66.399, -24.699 ] ] ], [ [ [ -66.399, -24.699 ], [ -66.433, -24.699 ], [ -66.433, -24.666 ], [ -66.433, -24.633 ], [ -66.433, -24.599 ], [ -66.399, -24.599 ], [ -66.399, -24.566 ], [ -66.366, -24.566 ], [ -66.366, -24.533 ], [ -66.333, -24.533 ], [ -66.333, -24.566 ], [ -66.333, -24.599 ], [ -66.333, -24.633 ], [ -66.366, -24.633 ], [ -66.366, -24.666 ], [ -66.399, -24.666 ], [ -66.399, -24.699 ] ] ], [ [ [ -66.266, -24.566 ], [ -66.299, -24.566 ], [ -66.299, -24.533 ], [ -66.266, -24.533 ], [ -66.266, -24.566 ] ] ], [ [ [ -66.133, -24.599 ], [ -66.166, -24.599 ], [ -66.166, -24.566 ], [ -66.166, -24.533 ], [ -66.166, -24.499 ], [ -66.133, -24.499 ], [ -66.133, -24.533 ], [ -66.133, -24.566 ], [ -66.133, -24.599 ] ] ], [ [ [ -67.966, -24.433 ], [ -67.999, -24.433 ], [ -67.999, -24.399 ], [ -67.966, -24.399 ], [ -67.966, -24.433 ] ] ], [ [ [ -66.133, -24.433 ], [ -66.133, -24.466 ], [ -66.166, -24.466 ], [ -66.166, -24.433 ], [ -66.199, -24.433 ], [ -66.199, -24.399 ], [ -66.166, -24.399 ], [ -66.133, -24.399 ], [ -66.133, -24.433 ] ] ], [ [ [ -66.766, -24.433 ], [ -66.799, -24.433 ], [ -66.799, -24.399 ], [ -66.799, -24.366 ], [ -66.766, -24.366 ], [ -66.733, -24.366 ], [ -66.733, -24.399 ], [ -66.766, -24.399 ], [ -66.766, -24.433 ] ] ], [ [ [ -68.033, -24.366 ], [ -68.066, -24.366 ], [ -68.066, -24.327 ], [ -68.065, -24.326 ], [ -68.047, -24.319 ], [ -68.033, -24.333 ], [ -68.033, -24.366 ] ] ], [ [ [ -66.633, -24.333 ], [ -66.633, -24.366 ], [ -66.666, -24.366 ], [ -66.699, -24.366 ], [ -66.699, -24.333 ], [ -66.699, -24.299 ], [ -66.666, -24.299 ], [ -66.666, -24.333 ], [ -66.633, -24.333 ] ] ], [ [ [ -67.766, -24.299 ], [ -67.799, -24.299 ], [ -67.799, -24.266 ], [ -67.766, -24.266 ], [ -67.766, -24.299 ] ] ], [ [ [ -66.766, -24.266 ], [ -66.766, -24.299 ], [ -66.766, -24.333 ], [ -66.799, -24.333 ], [ -66.799, -24.299 ], [ -66.833, -24.299 ], [ -66.833, -24.266 ], [ -66.799, -24.266 ], [ -66.766, -24.266 ] ] ], [ [ [ -66.633, -24.333 ], [ -66.633, -24.299 ], [ -66.633, -24.266 ], [ -66.599, -24.266 ], [ -66.599, -24.299 ], [ -66.599, -24.333 ], [ -66.633, -24.333 ] ] ], [ [ [ -66.499, -24.299 ], [ -66.533, -24.299 ], [ -66.533, -24.266 ], [ -66.499, -24.266 ], [ -66.499, -24.299 ] ] ], [ [ [ -65.666, -24.299 ], [ -65.666, -24.333 ], [ -65.633, -24.333 ], [ -65.633, -24.366 ], [ -65.666, -24.366 ], [ -65.699, -24.366 ], [ -65.699, -24.333 ], [ -65.699, -24.299 ], [ -65.699, -24.266 ], [ -65.666, -24.266 ], [ -65.666, -24.299 ] ] ], [ [ [ -66.766, -24.266 ], [ -66.766, -24.233 ], [ -66.733, -24.233 ], [ -66.699, -24.233 ], [ -66.699, -24.266 ], [ -66.733, -24.266 ], [ -66.766, -24.266 ] ] ], [ [ [ -65.733, -24.099 ], [ -65.766, -24.099 ], [ -65.766, -24.066 ], [ -65.766, -24.033 ], [ -65.733, -24.033 ], [ -65.733, -24.066 ], [ -65.733, -24.099 ] ] ] ] } }
]
}
