{
"type": "FeatureCollection",
                                                                                                                                  
"features": [
{ "type": "Feature", "properties": { "pm_icon": "AR_11a", "hzs": "11a" }, "geometry": { "type": "MultiPolygon", "coordinates": [ [ [ [ -64.799, -24.399 ], [ -64.799, -24.433 ], [ -64.833, -24.433 ], [ -64.833, -24.399 ], [ -64.799, -24.399 ] ] ], [ [ [ -64.333, -22.933 ], [ -64.333, -22.966 ], [ -64.333, -22.999 ], [ -64.366, -22.999 ], [ -64.399, -22.999 ], [ -64.399, -22.966 ], [ -64.399, -22.933 ], [ -64.433, -22.933 ], [ -64.433, -22.899 ], [ -64.399, -22.899 ], [ -64.366, -22.899 ], [ -64.342, -22.899 ], [ -64.346, -22.900 ], [ -64.348, -22.902 ], [ -64.347, -22.904 ], [ -64.344, -22.909 ], [ -64.338, -22.911 ], [ -64.333, -22.912 ], [ -64.333, -22.933 ] ] ], [ [ [ -64.433, -23.733 ], [ -64.399, -23.733 ], [ -64.399, -23.699 ], [ -64.433, -23.699 ], [ -64.433, -23.733 ], [ -64.466, -23.733 ], [ -64.499, -23.733 ], [ -64.499, -23.766 ], [ -64.533, -23.766 ], [ -64.533, -23.799 ], [ -64.533, -23.833 ], [ -64.566, -23.833 ], [ -64.566, -23.866 ], [ -64.566, -23.899 ], [ -64.599, -23.899 ], [ -64.599, -23.933 ], [ -64.599, -23.966 ], [ -64.599, -23.999 ], [ -64.599, -24.033 ], [ -64.633, -24.033 ], [ -64.633, -24.066 ], [ -64.633, -24.099 ], [ -64.633, -24.133 ], [ -64.599, -24.133 ], [ -64.599, -24.166 ], [ -64.633, -24.166 ], [ -64.633, -24.199 ], [ -64.633, -24.233 ], [ -64.666, -24.233 ], [ -64.666, -24.266 ], [ -64.699, -24.266 ], [ -64.699, -24.299 ], [ -64.699, -24.333 ], [ -64.699, -24.366 ], [ -64.733, -24.366 ], [ -64.733, -24.399 ], [ -64.766, -24.399 ], [ -64.799, -24.399 ], [ -64.799, -24.366 ], [ -64.799, -24.333 ], [ -64.799, -24.299 ], [ -64.799, -24.266 ], [ -64.799, -24.233 ], [ -64.799, -24.199 ], [ -64.833, -24.199 ], [ -64.866, -24.199 ], [ -64.866, -24.166 ], [ -64.866, -24.133 ], [ -64.833, -24.133 ], [ -64.833, -24.099 ], [ -64.833, -24.066 ], [ -64.833, -24.033 ], [ -64.799, -24.033 ], [ -64.799, -23.999 ], [ -64.799, -23.966 ], [ -64.833, -23.966 ], [ -64.833, -23.933 ], [ -64.833, -23.899 ], [ -64.833, -23.866 ], [ -64.799, -23.866 ], [ -64.799, -23.833 ], [ -64.799, -23.799 ], [ -64.766, -23.799 ], [ -64.766, -23.766 ], [ -64.766, -23.733 ], [ -64.733, -23.733 ], [ -64.699, -23.733 ], [ -64.666, -23.733 ], [ -64.633, -23.733 ], [ -64.599, -23.733 ], [ -64.599, -23.699 ], [ -64.566, -23.699 ], [ -64.566, -23.666 ], [ -64.533, -23.666 ], [ -64.533, -23.633 ], [ -64.499, -23.633 ], [ -64.499, -23.599 ], [ -64.499, -23.566 ], [ -64.466, -23.566 ], [ -64.466, -23.599 ], [ -64.433, -23.599 ], [ -64.433, -23.566 ], [ -64.433, -23.533 ], [ -64.399, -23.533 ], [ -64.366, -23.533 ], [ -64.366, -23.499 ], [ -64.366, -23.466 ], [ -64.366, -23.433 ], [ -64.366, -23.399 ], [ -64.333, -23.399 ], [ -64.299, -23.399 ], [ -64.266, -23.399 ], [ -64.266, -23.366 ], [ -64.233, -23.366 ], [ -64.233, -23.333 ], [ -64.199, -23.333 ], [ -64.166, -23.333 ], [ -64.166, -23.299 ], [ -64.166, -23.266 ], [ -64.133, -23.266 ], [ -64.133, -23.233 ], [ -64.099, -23.233 ], [ -64.099, -23.199 ], [ -64.099, -23.166 ], [ -64.099, -23.133 ], [ -64.066, -23.133 ], [ -64.066, -23.099 ], [ -64.066, -23.066 ], [ -64.066, -23.033 ], [ -64.033, -23.033 ], [ -63.999, -23.033 ], [ -63.999, -22.999 ], [ -63.966, -22.999 ], [ -63.966, -22.966 ], [ -63.966, -22.933 ], [ -63.933, -22.933 ], [ -63.899, -22.933 ], [ -63.866, -22.933 ], [ -63.833, -22.933 ], [ -63.799, -22.933 ], [ -63.799, -22.899 ], [ -63.766, -22.899 ], [ -63.733, -22.899 ], [ -63.733, -22.866 ], [ -63.699, -22.866 ], [ -63.666, -22.866 ], [ -63.666, -22.833 ], [ -63.666, -22.799 ], [ -63.633, -22.799 ], [ -63.599, -22.799 ], [ -63.599, -22.766 ], [ -63.566, -22.766 ], [ -63.566, -22.733 ], [ -63.566, -22.699 ], [ -63.566, -22.666 ], [ -63.533, -22.666 ], [ -63.533, -22.633 ], [ -63.533, -22.599 ], [ -63.533, -22.566 ], [ -63.499, -22.566 ], [ -63.499, -22.533 ], [ -63.466, -22.533 ], [ -63.433, -22.533 ], [ -63.433, -22.499 ], [ -63.399, -22.499 ], [ -63.399, -22.466 ], [ -63.399, -22.433 ], [ -63.366, -22.433 ], [ -63.366, -22.399 ], [ -63.333, -22.399 ], [ -63.333, -22.366 ], [ -63.333, -22.333 ], [ -63.333, -22.299 ], [ -63.299, -22.299 ], [ -63.299, -22.266 ], [ -63.299, -22.233 ], [ -63.266, -22.233 ], [ -63.266, -22.199 ], [ -63.233, -22.199 ], [ -63.233, -22.166 ], [ -63.199, -22.166 ], [ -63.166, -22.166 ], [ -63.166, -22.133 ], [ -63.166, -22.099 ], [ -63.133, -22.099 ], [ -63.133, -22.066 ], [ -63.133, -22.033 ], [ -63.099, -22.033 ], [ -63.099, -21.999 ], [ -63.033, -21.999 ], [ -63.033, -22.033 ], [ -62.999, -22.033 ], [ -62.966, -22.033 ], [ -62.966, -21.999 ], [ -62.899, -21.999 ], [ -62.899, -22.033 ], [ -62.866, -22.033 ], [ -62.833, -22.033 ], [ -62.817, -22.033 ], [ -62.814, -22.040 ], [ -62.814, -22.048 ], [ -62.811, -22.053 ], [ -62.798, -22.056 ], [ -62.792, -22.061 ], [ -62.801, -22.071 ], [ -62.809, -22.089 ], [ -62.810, -22.101 ], [ -62.806, -22.108 ], [ -62.807, -22.111 ], [ -62.811, -22.117 ], [ -62.813, -22.129 ], [ -62.810, -22.136 ], [ -62.802, -22.144 ], [ -62.795, -22.150 ], [ -62.790, -22.159 ], [ -62.786, -22.167 ], [ -62.783, -22.175 ], [ -62.779, -22.177 ], [ -62.774, -22.169 ], [ -62.770, -22.159 ], [ -62.763, -22.153 ], [ -62.757, -22.154 ], [ -62.745, -22.161 ], [ -62.737, -22.170 ], [ -62.730, -22.181 ], [ -62.727, -22.191 ], [ -62.721, -22.208 ], [ -62.716, -22.215 ], [ -62.708, -22.211 ], [ -62.701, -22.200 ], [ -62.695, -22.193 ], [ -62.690, -22.192 ], [ -62.689, -22.197 ], [ -62.687, -22.204 ], [ -62.684, -22.212 ], [ -62.677, -22.224 ], [ -62.676, -22.226 ], [ -62.675, -22.228 ], [ -62.675, -22.230 ], [ -62.675, -22.233 ], [ -62.675, -22.234 ], [ -62.674, -22.236 ], [ -62.671, -22.239 ], [ -62.669, -22.241 ], [ -62.665, -22.243 ], [ -62.663, -22.244 ], [ -62.659, -22.246 ], [ -62.657, -22.247 ], [ -62.656, -22.248 ], [ -62.656, -22.250 ], [ -62.656, -22.252 ], [ -62.657, -22.253 ], [ -62.657, -22.254 ], [ -62.657, -22.255 ], [ -62.656, -22.255 ], [ -62.655, -22.256 ], [ -62.654, -22.256 ], [ -62.653, -22.255 ], [ -62.651, -22.254 ], [ -62.646, -22.251 ], [ -62.645, -22.250 ], [ -62.644, -22.250 ], [ -62.639, -22.248 ], [ -62.634, -22.247 ], [ -62.631, -22.246 ], [ -62.630, -22.246 ], [ -62.629, -22.246 ], [ -62.628, -22.247 ], [ -62.627, -22.248 ], [ -62.626, -22.250 ], [ -62.626, -22.251 ], [ -62.625, -22.251 ], [ -62.625, -22.252 ], [ -62.625, -22.252 ], [ -62.624, -22.253 ], [ -62.621, -22.259 ], [ -62.621, -22.260 ], [ -62.620, -22.262 ], [ -62.620, -22.263 ], [ -62.620, -22.264 ], [ -62.621, -22.265 ], [ -62.621, -22.266 ], [ -62.622, -22.267 ], [ -62.625, -22.269 ], [ -62.625, -22.270 ], [ -62.625, -22.271 ], [ -62.625, -22.272 ], [ -62.625, -22.274 ], [ -62.624, -22.275 ], [ -62.623, -22.276 ], [ -62.623, -22.276 ], [ -62.622, -22.277 ], [ -62.623, -22.278 ], [ -62.623, -22.281 ], [ -62.625, -22.288 ], [ -62.626, -22.291 ], [ -62.627, -22.292 ], [ -62.628, -22.295 ], [ -62.629, -22.298 ], [ -62.630, -22.301 ], [ -62.629, -22.302 ], [ -62.628, -22.305 ], [ -62.626, -22.307 ], [ -62.624, -22.309 ], [ -62.622, -22.309 ], [ -62.621, -22.309 ], [ -62.620, -22.309 ], [ -62.619, -22.308 ], [ -62.618, -22.306 ], [ -62.618, -22.305 ], [ -62.617, -22.304 ], [ -62.616, -22.304 ], [ -62.614, -22.303 ], [ -62.607, -22.302 ], [ -62.606, -22.302 ], [ -62.605, -22.302 ], [ -62.604, -22.303 ], [ -62.604, -22.304 ], [ -62.601, -22.310 ], [ -62.601, -22.313 ], [ -62.601, -22.315 ], [ -62.601, -22.317 ], [ -62.600, -22.318 ], [ -62.599, -22.318 ], [ -62.592, -22.323 ], [ -62.590, -22.324 ], [ -62.589, -22.324 ], [ -62.587, -22.324 ], [ -62.584, -22.324 ], [ -62.582, -22.323 ], [ -62.579, -22.321 ], [ -62.577, -22.320 ], [ -62.575, -22.318 ], [ -62.573, -22.316 ], [ -62.572, -22.314 ], [ -62.571, -22.313 ], [ -62.569, -22.313 ], [ -62.568, -22.314 ], [ -62.567, -22.315 ], [ -62.567, -22.315 ], [ -62.566, -22.316 ], [ -62.566, -22.317 ], [ -62.566, -22.318 ], [ -62.566, -22.318 ], [ -62.567, -22.319 ], [ -62.568, -22.319 ], [ -62.569, -22.320 ], [ -62.570, -22.321 ], [ -62.570, -22.321 ], [ -62.570, -22.323 ], [ -62.570, -22.324 ], [ -62.570, -22.325 ], [ -62.570, -22.326 ], [ -62.570, -22.327 ], [ -62.570, -22.327 ], [ -62.570, -22.329 ], [ -62.570, -22.329 ], [ -62.569, -22.330 ], [ -62.566, -22.332 ], [ -62.566, -22.366 ], [ -62.566, -22.399 ], [ -62.533, -22.399 ], [ -62.533, -22.433 ], [ -62.499, -22.433 ], [ -62.499, -22.466 ], [ -62.499, -22.499 ], [ -62.499, -22.533 ], [ -62.499, -22.566 ], [ -62.533, -22.566 ], [ -62.533, -22.599 ], [ -62.499, -22.599 ], [ -62.499, -22.633 ], [ -62.499, -22.666 ], [ -62.499, -22.699 ], [ -62.499, -22.733 ], [ -62.466, -22.733 ], [ -62.466, -22.766 ], [ -62.466, -22.799 ], [ -62.466, -22.833 ], [ -62.433, -22.833 ], [ -62.433, -22.866 ], [ -62.399, -22.866 ], [ -62.399, -22.899 ], [ -62.399, -22.933 ], [ -62.399, -22.966 ], [ -62.366, -22.966 ], [ -62.333, -22.966 ], [ -62.333, -22.999 ], [ -62.366, -22.999 ], [ -62.399, -22.999 ], [ -62.433, -22.999 ], [ -62.466, -22.999 ], [ -62.499, -22.999 ], [ -62.533, -22.999 ], [ -62.533, -23.033 ], [ -62.566, -23.033 ], [ -62.599, -23.033 ], [ -62.599, -23.066 ], [ -62.566, -23.066 ], [ -62.566, -23.099 ], [ -62.566, -23.133 ], [ -62.566, -23.166 ], [ -62.566, -23.199 ], [ -62.533, -23.199 ], [ -62.533, -23.233 ], [ -62.533, -23.266 ], [ -62.499, -23.266 ], [ -62.499, -23.299 ], [ -62.466, -23.299 ], [ -62.466, -23.333 ], [ -62.466, -23.366 ], [ -62.466, -23.399 ], [ -62.466, -23.433 ], [ -62.466, -23.466 ], [ -62.433, -23.466 ], [ -62.433, -23.499 ], [ -62.399, -23.499 ], [ -62.399, -23.533 ], [ -62.366, -23.533 ], [ -62.366, -23.566 ], [ -62.366, -23.599 ], [ -62.333, -23.599 ], [ -62.333, -23.633 ], [ -62.333, -23.666 ], [ -62.333, -23.699 ], [ -62.333, -23.733 ], [ -62.366, -23.733 ], [ -62.366, -23.766 ], [ -62.399, -23.766 ], [ -62.399, -23.799 ], [ -62.433, -23.799 ], [ -62.433, -23.833 ], [ -62.466, -23.833 ], [ -62.466, -23.866 ], [ -62.499, -23.866 ], [ -62.499, -23.899 ], [ -62.533, -23.899 ], [ -62.533, -23.933 ], [ -62.566, -23.933 ], [ -62.566, -23.966 ], [ -62.599, -23.966 ], [ -62.599, -23.999 ], [ -62.633, -23.999 ], [ -62.633, -24.033 ], [ -62.666, -24.033 ], [ -62.666, -24.066 ], [ -62.633, -24.066 ], [ -62.633, -24.099 ], [ -62.599, -24.099 ], [ -62.599, -24.133 ], [ -62.633, -24.133 ], [ -62.633, -24.166 ], [ -62.599, -24.166 ], [ -62.599, -24.199 ], [ -62.599, -24.233 ], [ -62.633, -24.233 ], [ -62.633, -24.266 ], [ -62.599, -24.266 ], [ -62.599, -24.299 ], [ -62.633, -24.299 ], [ -62.633, -24.333 ], [ -62.666, -24.333 ], [ -62.666, -24.366 ], [ -62.699, -24.366 ], [ -62.733, -24.366 ], [ -62.766, -24.366 ], [ -62.799, -24.366 ], [ -62.833, -24.366 ], [ -62.833, -24.399 ], [ -62.866, -24.399 ], [ -62.899, -24.399 ], [ -62.899, -24.366 ], [ -62.933, -24.366 ], [ -62.933, -24.399 ], [ -62.966, -24.399 ], [ -62.966, -24.433 ], [ -62.966, -24.466 ], [ -62.966, -24.499 ], [ -62.999, -24.499 ], [ -62.999, -24.533 ], [ -63.033, -24.533 ], [ -63.033, -24.566 ], [ -63.066, -24.566 ], [ -63.099, -24.566 ], [ -63.133, -24.566 ], [ -63.166, -24.566 ], [ -63.199, -24.566 ], [ -63.233, -24.566 ], [ -63.266, -24.566 ], [ -63.299, -24.566 ], [ -63.299, -24.599 ], [ -63.299, -24.633 ], [ -63.299, -24.666 ], [ -63.299, -24.699 ], [ -63.266, -24.699 ], [ -63.266, -24.733 ], [ -63.266, -24.766 ], [ -63.299, -24.766 ], [ -63.333, -24.766 ], [ -63.333, -24.799 ], [ -63.366, -24.799 ], [ -63.366, -24.833 ], [ -63.399, -24.833 ], [ -63.399, -24.866 ], [ -63.433, -24.866 ], [ -63.433, -24.899 ], [ -63.433, -24.933 ], [ -63.466, -24.933 ], [ -63.466, -24.966 ], [ -63.499, -24.966 ], [ -63.499, -24.999 ], [ -63.533, -24.999 ], [ -63.566, -24.999 ], [ -63.599, -24.999 ], [ -63.633, -24.999 ], [ -63.666, -24.999 ], [ -63.699, -24.999 ], [ -63.733, -24.999 ], [ -63.766, -24.999 ], [ -63.799, -24.999 ], [ -63.833, -24.999 ], [ -63.866, -24.999 ], [ -63.866, -24.966 ], [ -63.899, -24.966 ], [ -63.933, -24.966 ], [ -63.966, -24.966 ], [ -63.966, -24.933 ], [ -63.933, -24.933 ], [ -63.899, -24.933 ], [ -63.899, -24.899 ], [ -63.899, -24.866 ], [ -63.899, -24.833 ], [ -63.899, -24.799 ], [ -63.933, -24.799 ], [ -63.933, -24.833 ], [ -63.966, -24.833 ], [ -63.966, -24.866 ], [ -63.999, -24.866 ], [ -63.999, -24.899 ], [ -63.999, -24.933 ], [ -64.033, -24.933 ], [ -64.033, -24.966 ], [ -64.066, -24.966 ], [ -64.066, -24.999 ], [ -64.066, -25.033 ], [ -64.066, -25.066 ], [ -64.099, -25.066 ], [ -64.099, -25.033 ], [ -64.133, -25.033 ], [ -64.133, -24.999 ], [ -64.166, -24.999 ], [ -64.166, -24.966 ], [ -64.166, -24.933 ], [ -64.133, -24.933 ], [ -64.133, -24.899 ], [ -64.133, -24.866 ], [ -64.099, -24.866 ], [ -64.099, -24.833 ], [ -64.099, -24.799 ], [ -64.099, -24.766 ], [ -64.099, -24.733 ], [ -64.133, -24.733 ], [ -64.133, -24.699 ], [ -64.133, -24.666 ], [ -64.166, -24.666 ], [ -64.166, -24.633 ], [ -64.166, -24.599 ], [ -64.166, -24.566 ], [ -64.166, -24.533 ], [ -64.166, -24.499 ], [ -64.133, -24.499 ], [ -64.133, -24.466 ], [ -64.133, -24.433 ], [ -64.099, -24.433 ], [ -64.099, -24.399 ], [ -64.099, -24.366 ], [ -64.133, -24.366 ], [ -64.133, -24.333 ], [ -64.133, -24.299 ], [ -64.099, -24.299 ], [ -64.099, -24.266 ], [ -64.099, -24.233 ], [ -64.066, -24.233 ], [ -64.066, -24.199 ], [ -64.066, -24.166 ], [ -64.066, -24.133 ], [ -64.033, -24.133 ], [ -64.033, -24.099 ], [ -64.066, -24.099 ], [ -64.066, -24.066 ], [ -64.066, -24.033 ], [ -64.033, -24.033 ], [ -64.033, -23.999 ], [ -64.033, -23.966 ], [ -64.033, -23.933 ], [ -63.999, -23.933 ], [ -63.999, -23.899 ], [ -63.999, -23.866 ], [ -63.966, -23.866 ], [ -63.966, -23.833 ], [ -63.999, -23.833 ], [ -63.999, -23.799 ], [ -63.999, -23.766 ], [ -63.999, -23.733 ], [ -63.999, -23.699 ], [ -64.033, -23.699 ], [ -64.033, -23.733 ], [ -64.033, -23.766 ], [ -64.066, -23.766 ], [ -64.066, -23.799 ], [ -64.066, -23.833 ], [ -64.099, -23.833 ], [ -64.099, -23.866 ], [ -64.133, -23.866 ], [ -64.133, -23.833 ], [ -64.166, -23.833 ], [ -64.166, -23.799 ], [ -64.166, -23.766 ], [ -64.166, -23.733 ], [ -64.199, -23.733 ], [ -64.199, -23.699 ], [ -64.199, -23.666 ], [ -64.233, -23.666 ], [ -64.233, -23.633 ], [ -64.266, -23.633 ], [ -64.299, -23.633 ], [ -64.299, -23.666 ], [ -64.299, -23.699 ], [ -64.333, -23.699 ], [ -64.366, -23.699 ], [ -64.366, -23.733 ], [ -64.366, -23.766 ], [ -64.399, -23.766 ], [ -64.399, -23.799 ], [ -64.433, -23.799 ], [ -64.433, -23.766 ], [ -64.433, -23.733 ] ], [ [ -63.866, -23.666 ], [ -63.866, -23.699 ], [ -63.833, -23.699 ], [ -63.833, -23.666 ], [ -63.866, -23.666 ] ], [ [ -62.999, -22.133 ], [ -62.999, -22.099 ], [ -63.033, -22.099 ], [ -63.033, -22.133 ], [ -62.999, -22.133 ] ] ] ] } }
]
}
